{"type": "Feature", "properties": {"geometry_method": "target polygon used as intended model envelope", "geometry_confidence": "medium"}, "geometry": {"type": "MultiPolygon", "coordinates": [[[[55.72655102040814, 70.65522448979593], [55.747, 70.645], [55.7041487836107, 70.65847119078107], [55.72655102040814, 70.65522448979593]]], [[[56.737, 70.699], [56.963, 70.649], [57.133, 70.635], [56.857, 70.641], [56.737, 70.699]]], [[[55.751, 70.698], [55.804, 70.644], [55.72655102040814, 70.65522448979593], [55.597, 70.72], [55.634, 70.73], [55.751, 70.698]]], [[[52.743, 71.371], [52.877, 71.33], [52.86350390625, 71.32730078125], [52.743, 71.371]]], [[[64.216, 81.056], [64.095, 80.99], [63.116, 80.964], [62.557, 80.844], [62.509, 80.807], [63.141, 80.682], [64.55, 80.751], [68.137, 76.965], [68.001, 77.001], [67.57, 77.013], [67.187, 76.942], [67.018, 76.952], [66.682, 76.902], [66.406, 76.847], [66.337, 76.796], [66.109, 76.748], [65.948, 76.749], [65.748, 76.678], [65.887, 76.637], [65.926, 76.585], [66.032, 76.541], [65.994, 76.532], [65.549, 76.582], [65.161, 76.468], [65.084, 76.468], [65.063, 76.495], [64.798, 76.474], [64.807, 76.45], [64.671, 76.421], [64.661, 76.374], [64.487, 76.398], [64.438, 76.36], [64.11, 76.311], [63.953, 76.357], [63.718, 76.346], [62.979, 76.21], [62.905, 76.207], [62.921, 76.226], [62.848, 76.231], [62.862, 76.25], [62.835, 76.261], [62.735, 76.258], [62.636, 76.204], [62.552, 76.219], [62.502, 76.177], [62.387, 76.192], [62.37, 76.216], [62.401, 76.261], [62.028, 76.252], [61.923, 76.298], [61.066, 76.274], [60.989, 76.244], [61.024, 76.216], [60.901, 76.152], [61.16, 76.135], [61.064, 76.07], [60.819, 76.058], [60.75, 76.006], [60.632, 75.997], [60.464, 76.009], [60.839, 76.117], [60.274, 76.107], [60.041, 76.047], [60.354, 76.003], [60.042, 75.986], [59.744, 75.926], [59.44, 75.936], [59.357, 75.92], [59.339, 75.887], [58.789, 75.839], [58.72, 75.814], [58.726, 75.784], [58.536, 75.754], [58.591, 75.725], [58.044, 75.68], [57.922, 75.628], [58.153, 75.623], [58.197, 75.601], [58.174, 75.574], [57.651, 75.532], [57.503, 75.492], [57.544, 75.445], [57.659, 75.424], [57.672, 75.374], [57.737, 75.323], [57.531, 75.331], [57.383, 75.377], [57.052, 75.39], [56.869, 75.36], [56.726, 75.294], [56.875, 75.281], [56.908, 75.234], [56.481, 75.061], [56.448, 75.063], [56.473, 75.098], [56.376, 75.185], [56.188, 75.147], [56.14, 75.153], [56.234, 75.193], [56.119, 75.186], [56.056, 75.216], [55.934, 75.197], [55.798, 75.146], [55.727, 75.079], [55.926, 75.079], [55.937, 75.061], [55.86, 74.999], [55.889, 74.989], [56.419, 75.035], [56.474, 75.01], [56.296, 74.958], [56.386, 74.96], [56.359, 74.935], [56.655, 74.969], [56.678, 74.946], [56.095, 74.875], [55.818, 74.801], [55.939, 74.775], [56.476, 74.794], [56.497, 74.786], [56.415, 74.744], [56.509, 74.749], [56.601, 74.694], [56.985, 74.687], [56.585, 74.679], [56.41, 74.721], [55.915, 74.658], [55.773, 74.689], [55.536, 74.651], [55.524, 74.632], [55.569, 74.611], [55.498, 74.566], [55.706, 74.552], [55.656, 74.516], [55.904, 74.547], [56.082, 74.517], [56.033, 74.486], [56.291, 74.491], [55.373, 74.437], [55.23, 74.369], [55.665, 74.326], [55.748, 74.289], [55.27, 74.269], [55.226, 74.307], [55.073, 74.264], [55.589, 74.193], [55.629, 74.158], [55.803, 74.141], [55.866, 74.102], [55.268, 74.151], [55.166, 74.186], [55.031, 74.174], [54.585, 74.012], [54.8, 73.967], [54.381, 73.934], [54.085, 73.862], [54.075, 73.827], [53.908, 73.781], [53.658, 73.807], [53.63, 73.768], [53.954, 73.647], [53.936, 73.631], [54.22, 73.595], [54.542, 73.702], [54.868, 73.725], [54.826, 73.689], [54.849, 73.679], [54.968, 73.712], [55.35, 73.715], [54.752, 73.659], [54.477, 73.592], [54.186, 73.491], [54.293, 73.464], [54.414, 73.476], [54.299, 73.417], [54.03, 73.38], [54.208, 73.325], [54.526, 73.4], [54.972, 73.442], [55.392, 73.339], [55.768, 73.344], [55.456, 73.315], [54.914, 73.422], [54.561, 73.38], [54.227, 73.274], [53.768, 73.301], [53.57, 73.231], [53.442, 73.241], [53.258, 73.194], [53.153, 73.156], [53.171, 73.111], [53.122, 73.094], [53.382, 73.008], [53.152, 73.011], [53.134, 72.966], [53.233, 72.932], [53.392, 72.931], [53.386, 72.904], [53.291, 72.907], [53.382, 72.881], [52.967, 72.919], [52.603, 72.856], [52.477, 72.786], [52.467, 72.752], [52.383, 72.739], [52.544, 72.674], [52.977, 72.683], [53.219, 72.647], [52.964, 72.67], [52.738, 72.625], [52.811, 72.612], [52.74, 72.58], [52.742, 72.553], [53.097, 72.595], [52.911, 72.57], [52.874, 72.514], [52.675, 72.479], [52.821, 72.445], [52.675, 72.442], [52.693, 72.367], [52.865, 72.343], [52.579, 72.367], [52.684, 72.309], [52.572, 72.279], [52.575, 72.259], [52.41, 72.282], [52.489, 72.239], [52.483, 72.209], [52.403, 72.222], [52.493, 72.16], [52.373, 72.164], [52.406, 72.123], [52.378, 72.099], [52.409, 72.083], [52.352, 72.062], [52.187, 72.083], [52.195, 72.129], [52.059, 72.068], [52.052, 72.101], [51.939, 72.112], [51.859, 72.162], [51.601, 72.082], [51.489, 71.997], [51.395, 71.849], [51.421, 71.725], [51.474, 71.712], [51.463, 71.69], [51.55, 71.608], [51.53, 71.564], [51.818, 71.457], [52.278, 71.472], [52.141, 71.534], [52.254, 71.582], [52.262, 71.524], [52.408, 71.47], [52.368, 71.533], [52.496, 71.564], [52.538, 71.633], [52.565, 71.616], [52.553, 71.588], [52.648, 71.534], [52.614, 71.461], [52.701, 71.488], [52.732, 71.44], [52.817, 71.425], [52.793, 71.462], [52.844, 71.462], [52.896, 71.389], [52.973, 71.403], [52.983, 71.444], [53.041, 71.438], [53.006, 71.48], [53.029, 71.501], [53.127, 71.417], [53.205, 71.508], [53.356, 71.567], [53.441, 71.538], [53.254, 71.449], [53.361, 71.329], [53.456, 71.295], [53.542, 71.309], [53.563, 71.383], [53.822, 71.426], [53.888, 71.47], [53.951, 71.457], [53.886, 71.416], [53.727, 71.409], [53.592, 71.296], [53.453, 71.261], [53.505, 71.221], [53.817, 71.153], [53.814, 71.207], [53.946, 71.172], [54.077, 71.232], [54.159, 71.197], [54.066, 71.215], [54.055, 71.197], [54.098, 71.185], [53.991, 71.155], [54.245, 71.127], [54.089, 71.093], [53.916, 71.099], [53.933, 71.128], [54.065, 71.115], [53.983, 71.138], [53.808, 71.13], [53.923, 71.049], [53.492, 71.096], [53.506, 71.059], [53.743, 70.943], [53.671, 70.896], [53.689, 70.83], [53.572, 70.886], [53.302, 70.863], [53.464, 70.814], [53.542, 70.802], [53.529, 70.841], [53.564, 70.846], [53.719, 70.794], [53.891, 70.784], [53.842, 70.82], [54.051, 70.741], [54.214, 70.726], [54.287, 70.733], [54.263, 70.764], [54.29, 70.771], [54.541, 70.681], [54.764, 70.646], [54.479, 70.734], [54.493, 70.782], [54.569, 70.774], [54.511, 70.818], [54.71, 70.751], [54.694, 70.723], [54.753, 70.677], [55.186, 70.552], [55.293, 70.604], [55.233, 70.648], [55.249, 70.675], [55.404, 70.685], [55.471, 70.648], [55.441, 70.684], [55.348, 70.702], [55.413, 70.75], [55.7041487836107, 70.65847119078107], [55.597, 70.674], [55.722, 70.625], [55.6, 70.64], [55.688, 70.613], [56.047, 70.582], [55.85, 70.65], [55.811, 70.692], [56.131, 70.592], [56.181, 70.605], [56.041, 70.645], [56.066, 70.665], [56.376, 70.588], [56.532, 70.591], [56.558, 70.574], [56.364, 70.562], [56.533, 70.539], [56.661, 70.582], [56.464, 70.62], [56.527, 70.637], [56.448, 70.673], [56.327, 70.677], [56.372, 70.644], [56.231, 70.652], [56.3, 70.676], [56.198, 70.699], [56.321, 70.702], [56.226, 70.736], [56.429, 70.713], [56.546, 70.749], [56.583, 70.733], [56.512, 70.725], [56.5, 70.672], [56.643, 70.63], [56.696, 70.629], [56.595, 70.669], [57.121, 70.575], [57.342, 70.568], [57.164, 70.627], [58.803, 70.213], [58.49, 70.27], [58.409, 70.25], [58.5, 70.229], [58.454, 70.192], [58.582, 70.18], [58.574, 70.153], [58.609, 70.137], [58.546, 70.126], [58.603, 70.108], [58.571, 70.078], [58.621, 70.037], [59.018, 69.854], [59.128, 69.866], [58.943, 69.937], [59.404, 69.89], [59.611, 69.814], [59.621, 69.783], [59.557, 69.782], [59.534, 69.754], [59.58, 69.732], [59.565, 69.711], [59.93, 69.667], [59.921, 69.686], [60.002, 69.718], [60.206, 69.679], [60.371, 69.731], [60.471, 69.721], [60.439, 69.745], [60.67, 69.679], [60.271, 69.667], [60.165, 69.636], [60.141, 69.574], [60.222, 69.55], [60.215, 69.523], [60.294, 69.46], [60.546, 69.31], [60.592, 69.256], [60.602, 69.126], [60.734, 69.106], [60.736, 69.175], [60.888, 69.129], [60.932, 69.087], [60.944, 68.997], [60.91, 68.915], [60.966, 68.904], [60.828, 68.899], [60.595, 68.751], [60.463, 68.713], [60.087, 68.687], [59.923, 68.721], [59.812, 68.682], [59.762, 68.634], [59.858, 68.594], [59.968, 68.461], [59.836, 68.367], [59.649, 68.334], [59.073, 68.421], [59.076, 68.48], [59.125, 68.531], [59.063, 68.57], [59.066, 68.624], [59.178, 68.698], [59.395, 68.699], [59.427, 68.745], [59.108, 68.906], [58.889, 68.934], [59.233, 68.992], [58.935, 69.0], [58.275, 68.896], [58.254, 68.84], [58.279, 68.797], [58.429, 68.762], [58.422, 68.737], [58.336, 68.73], [58.374, 68.75], [58.2, 68.827], [58.243, 68.883], [58.176, 68.884], [57.971, 68.847], [57.943, 68.819], [57.982, 68.778], [57.923, 68.746], [57.587, 68.734], [57.443, 68.646], [57.398, 68.581], [57.276, 68.556], [57.013, 68.544], [56.628, 68.637], [56.494, 68.581], [56.524, 68.623], [56.292, 68.605], [55.967, 68.659], [55.689, 68.571], [55.325, 68.55], [54.94, 68.4], [54.91, 68.328], [54.855, 68.317], [54.924, 68.28], [54.926, 68.246], [54.863, 68.182], [54.792, 68.163], [54.655, 68.182], [54.554, 68.297], [54.497, 68.306], [54.239, 68.205], [54.174, 68.237], [54.208, 68.321], [54.094, 68.243], [53.962, 68.214], [53.698, 68.252], [53.364, 68.236], [53.21, 68.261], [53.314, 68.343], [53.433, 68.366], [53.691, 68.34], [53.575, 68.397], [53.593, 68.408], [53.796, 68.342], [53.946, 68.4], [53.906, 68.503], [53.72, 68.652], [53.832, 68.699], [53.847, 68.728], [53.821, 68.758], [53.856, 68.793], [54.019, 68.855], [53.716, 68.889], [53.687, 68.885], [53.726, 68.856], [53.686, 68.858], [53.599, 68.908], [54.561, 68.992], [54.418, 69.009], [53.67, 68.951], [53.286, 68.882], [52.277, 68.608], [52.417, 68.585], [52.483, 68.634], [52.65, 68.652], [52.5, 68.614], [52.488, 68.586], [52.733, 68.466], [52.665, 68.413], [52.269, 68.306], [52.138, 68.385], [52.277, 68.409], [52.288, 68.463], [52.354, 68.481], [52.046, 68.5], [52.178, 68.534], [52.2, 68.581], [51.781, 68.491], [51.582, 68.485], [51.534, 68.454], [51.585, 68.443], [51.568, 68.429], [51.432, 68.428], [51.076, 68.351], [50.862, 68.34], [50.776, 68.372], [50.588, 68.274], [50.073, 68.115], [49.966, 68.04], [49.848, 68.015], [50.014, 68.091], [49.226, 67.874], [48.922, 67.849], [48.591, 67.935], [48.801, 67.827], [48.805, 67.765], [48.763, 67.728], [48.879, 67.725], [49.101, 67.628], [49.003, 67.635], [48.96, 67.648], [48.984, 67.667], [48.854, 67.699], [48.677, 67.71], [48.535, 67.662], [48.257, 67.675], [48.093, 67.588], [48.07, 67.597], [48.096, 67.636], [47.995, 67.65], [47.812, 67.578], [47.952, 67.449], [47.772, 67.342], [47.782, 67.237], [47.68, 67.189], [47.751, 67.125], [47.747, 67.039], [47.59, 66.931], [47.603, 66.891], [47.574, 66.861], [47.568, 66.901], [47.364, 66.922], [47.049, 66.857], [46.589, 66.819], [46.386, 66.74], [46.601, 66.853], [46.484, 66.876], [46.029, 66.826], [45.811, 66.904], [45.579, 67.182], [45.125, 67.28], [44.914, 67.359], [44.952, 67.482], [45.153, 67.578], [45.329, 67.601], [45.354, 67.677], [45.297, 67.703], [45.382, 67.736], [46.329, 67.83], [46.715, 67.821], [46.722, 67.921], [46.567, 67.997], [46.536, 68.048], [46.546, 68.1], [46.462, 68.108], [46.534, 68.132], [46.03, 68.324], [45.94, 68.442], [46.027, 68.457], [45.264, 68.574], [44.119, 68.535], [43.921, 68.564], [43.729, 68.634], [43.312, 68.685], [43.267, 68.653], [43.355, 68.598], [44.001, 68.393], [44.232, 68.289], [44.179, 68.034], [44.409, 68.062], [44.141, 67.998], [44.211, 67.986], [44.139, 67.97], [44.128, 67.924], [44.267, 67.924], [44.085, 67.879], [44.127, 67.786], [44.068, 67.707], [44.149, 67.687], [44.114, 67.658], [44.085, 67.683], [44.025, 67.659], [43.787, 67.393], [43.749, 67.296], [43.775, 67.199], [43.864, 67.168], [44.099, 67.176], [44.266, 67.089], [44.381, 67.103], [44.303, 67.056], [44.408, 67.013], [44.523, 66.915], [44.473, 66.898], [44.482, 66.828], [44.358, 66.785], [44.483, 66.674], [44.561, 66.664], [44.4, 66.622], [44.362, 66.503], [44.258, 66.461], [44.164, 66.373], [44.076, 66.201], [44.096, 66.131], [44.159, 66.08], [44.116, 66.001], [44.178, 65.933], [44.179, 65.861], [44.021, 66.016], [44.052, 66.076], [43.853, 66.183], [43.499, 66.134], [43.383, 66.077], [43.515, 66.042], [43.514, 65.972], [43.448, 66.038], [43.355, 66.039], [43.293, 66.098], [43.697, 66.236], [43.571, 66.317], [43.378, 66.337], [43.3, 66.422], [42.548, 66.379], [42.674, 66.426], [42.182, 66.526], [41.644, 66.167], [41.355, 66.062], [40.703, 65.968], [40.413, 65.776], [39.916, 65.633], [39.751, 65.551], [39.705, 65.467], [39.718, 65.378], [40.147, 65.048], [40.284, 65.009], [40.373, 64.928], [40.442, 64.795], [40.517, 64.774], [40.521, 64.752], [40.454, 64.766], [40.409, 64.739], [40.53, 64.576], [40.52, 64.537], [40.178, 64.557], [40.058, 64.621], [39.829, 64.671], [39.786, 64.595], [39.922, 64.602], [39.747, 64.576], [39.746, 64.554], [39.554, 64.562], [38.932, 64.744], [38.461, 64.822], [38.411, 64.808], [38.491, 64.761], [38.478, 64.742], [38.328, 64.754], [38.047, 64.641], [38.13, 64.693], [38.041, 64.736], [38.044, 64.766], [38.309, 64.803], [38.4, 64.772], [38.365, 64.807], [38.409, 64.859], [38.03, 64.864], [37.754, 64.96], [37.746, 65.025], [37.69, 65.056], [37.426, 65.141], [37.032, 65.208], [36.833, 65.161], [36.867, 65.076], [36.831, 64.988], [36.646, 64.921], [36.44, 64.943], [36.472, 64.875], [36.572, 64.828], [36.506, 64.831], [36.555, 64.745], [36.729, 64.716], [37.145, 64.409], [37.342, 64.351], [37.506, 64.384], [37.626, 64.365], [37.701, 64.437], [37.792, 64.448], [37.814, 64.384], [37.955, 64.358], [37.906, 64.342], [38.021, 64.306], [37.902, 64.235], [38.044, 64.154], [38.085, 64.057], [37.993, 63.941], [37.82, 63.907], [37.655, 63.924], [37.583, 63.884], [37.574, 63.838], [37.415, 63.804], [37.29, 63.815], [37.173, 63.889], [36.991, 63.896], [36.94, 63.927], [36.689, 63.922], [36.597, 63.964], [36.276, 64.011], [36.287, 64.069], [36.211, 64.101], [36.282, 64.143], [36.079, 64.254], [35.99, 64.194], [35.897, 64.252], [35.87, 64.312], [35.57, 64.407], [35.59, 64.341], [35.325, 64.327], [35.312, 64.374], [35.136, 64.385], [35.1, 64.428], [34.958, 64.449], [34.948, 64.514], [34.743, 64.554], [34.811, 64.554], [34.966, 64.639], [34.815, 64.719], [35.019, 64.772], [34.856, 64.784], [34.804, 64.75], [34.753, 64.772], [34.942, 64.845], [34.775, 64.969], [34.702, 64.977], [34.816, 65.026], [34.745, 65.049], [34.777, 65.107], [34.671, 65.113], [34.672, 65.149], [34.628, 65.167], [34.686, 65.187], [34.608, 65.225], [34.631, 65.244], [34.47, 65.281], [34.468, 65.358], [34.3, 65.382], [34.393, 65.393], [34.364, 65.413], [34.507, 65.407], [34.502, 65.451], [34.682, 65.451], [34.634, 65.489], [34.715, 65.519], [34.737, 65.577], [34.782, 65.595], [34.698, 65.673], [34.755, 65.709], [34.688, 65.72], [34.691, 65.804], [34.913, 65.697], [34.964, 65.718], [34.866, 65.774], [34.902, 65.827], [34.832, 65.823], [34.853, 65.896], [34.696, 65.9], [34.712, 65.931], [34.664, 65.948], [34.724, 65.978], [34.614, 66.057], [34.351, 66.158], [34.157, 66.185], [34.167, 66.214], [34.104, 66.251], [33.898, 66.224], [33.883, 66.26], [33.618, 66.304], [33.643, 66.318], [33.62, 66.327], [33.313, 66.316], [33.662, 66.349], [33.513, 66.401], [33.732, 66.424], [33.591, 66.452], [33.637, 66.471], [33.601, 66.491], [33.445, 66.467], [33.222, 66.534], [33.117, 66.505], [32.946, 66.52], [33.184, 66.555], [33.161, 66.571], [33.534, 66.529], [33.434, 66.587], [33.248, 66.617], [33.1, 66.571], [32.872, 66.579], [33.062, 66.593], [33.132, 66.65], [33.316, 66.621], [33.326, 66.642], [33.179, 66.685], [32.808, 66.716], [32.772, 66.737], [32.935, 66.739], [32.909, 66.772], [32.678, 66.802], [32.68, 66.827], [32.551, 66.877], [32.421, 66.881], [32.493, 66.932], [32.391, 66.948], [32.529, 66.949], [32.56, 66.99], [32.466, 67.042], [32.292, 67.066], [32.357, 67.069], [32.254, 67.125], [31.931, 67.121], [31.923, 67.146], [31.855, 67.154], [32.066, 67.133], [32.347, 67.164], [32.773, 67.087], [32.966, 67.088], [32.795, 67.034], [32.835, 66.981], [33.089, 66.857], [33.484, 66.721], [33.556, 66.725], [33.487, 66.766], [33.568, 66.737], [33.522, 66.776], [33.628, 66.746], [33.532, 66.789], [33.521, 66.825], [33.585, 66.789], [33.589, 66.828], [33.672, 66.806], [33.773, 66.764], [33.826, 66.699], [33.878, 66.716], [33.933, 66.685], [34.056, 66.688], [34.146, 66.771], [34.158, 66.725], [34.088, 66.668], [34.515, 66.657], [34.532, 66.639], [34.357, 66.618], [34.47, 66.534], [34.846, 66.605], [35.206, 66.466], [35.518, 66.386], [37.016, 66.269], [37.266, 66.231], [37.61, 66.126], [38.608, 66.052], [39.276, 66.119], [39.533, 66.191], [40.073, 66.278], [40.179, 66.341], [40.566, 66.454], [40.602, 66.497], [40.716, 66.533], [40.732, 66.584], [41.139, 66.781], [41.299, 66.942], [41.265, 66.994], [41.361, 67.006], [41.339, 67.081], [41.391, 67.123], [41.335, 67.154], [41.362, 67.198], [41.327, 67.227], [41.224, 67.213], [41.112, 67.246], [41.153, 67.414], [41.09, 67.459], [40.999, 67.462], [41.016, 67.534], [40.982, 67.556], [41.057, 67.626], [40.992, 67.716], [40.81, 67.723], [40.688, 67.776], [40.673, 67.81], [40.567, 67.806], [40.554, 67.756], [40.476, 67.751], [40.32, 67.84], [40.41, 67.855], [40.368, 67.898], [40.139, 67.953], [39.978, 68.034], [39.929, 68.106], [39.771, 68.166], [39.708, 68.162], [39.864, 68.044], [39.52, 68.071], [38.927, 68.272], [38.957, 68.287], [38.931, 68.304], [38.622, 68.384], [38.596, 68.382], [38.603, 68.357], [38.503, 68.362], [38.769, 68.284], [38.447, 68.354], [38.404, 68.335], [38.392, 68.398], [38.332, 68.436], [38.066, 68.503], [38.04, 68.543], [37.773, 68.676], [37.455, 68.741], [36.601, 69.013], [36.329, 69.052], [36.255, 69.105], [36.062, 69.119], [35.861, 69.197], [35.155, 69.274], [35.263, 69.211], [35.178, 69.179], [35.13, 69.218], [35.047, 69.221], [34.967, 69.186], [34.981, 69.226], [34.665, 69.244], [34.352, 69.318], [33.948, 69.337], [33.726, 69.298], [33.739, 69.329], [33.641, 69.326], [33.562, 69.29], [33.568, 69.184], [33.451, 69.137], [33.446, 69.106], [33.075, 69.059], [33.023, 68.953], [33.038, 69.068], [33.273, 69.104], [33.532, 69.19], [33.522, 69.216], [33.294, 69.228], [33.474, 69.275], [33.237, 69.273], [33.478, 69.353], [33.492, 69.375], [33.415, 69.371], [33.522, 69.422], [33.327, 69.449], [32.972, 69.389], [32.895, 69.303], [32.81, 69.296], [32.835, 69.349], [33.087, 69.469], [32.893, 69.459], [32.768, 69.41], [32.902, 69.481], [32.6, 69.481], [32.548, 69.507], [32.2, 69.424], [32.499, 69.511], [32.393, 69.536], [32.435, 69.568], [32.386, 69.578], [32.134, 69.599], [32.013, 69.562], [32.065, 69.628], [31.971, 69.648], [32.103, 69.669], [32.116, 69.751], [32.176, 69.724], [32.162, 69.656], [32.874, 69.582], [33.094, 69.636], [33.131, 69.726], [32.937, 69.774], [32.506, 69.797], [32.522, 69.828], [32.496, 69.845], [32.246, 69.876], [32.056, 69.959], [31.941, 69.967], [31.911, 69.931], [32.096, 69.784], [32.039, 69.768], [31.854, 69.846], [31.757, 69.847], [31.713, 69.826], [31.725, 69.765], [31.691, 69.732], [31.809, 69.686], [31.457, 69.693], [31.308, 69.609], [31.406, 69.716], [31.266, 69.757], [30.884, 69.793], [30.709, 69.769], [30.723, 69.803], [30.634, 69.813], [30.445, 69.808], [30.469, 69.744], [30.449, 69.683], [30.337, 69.668], [30.413, 69.69], [30.417, 69.768], [30.388, 69.836], [30.268, 69.839], [30.331, 69.861], [30.294, 69.881], [30.167, 69.874], [30.158, 69.805], [30.212, 69.772], [30.112, 69.749], [30.189, 69.687], [30.072, 69.739], [29.934, 69.688], [30.064, 69.768], [30.034, 69.771], [29.907, 69.727], [29.665, 69.732], [29.487, 69.656], [29.549, 69.698], [29.514, 69.706], [29.597, 69.725], [29.771, 69.832], [29.737, 69.905], [29.536, 69.909], [29.435, 69.855], [29.366, 69.855], [29.684, 69.967], [29.332, 70.019], [29.135, 70.008], [29.191, 70.035], [28.612, 70.108], [28.754, 70.162], [28.595, 70.164], [28.748, 70.177], [29.781, 70.067], [30.157, 70.066], [30.112, 70.076], [30.344, 70.122], [30.385, 70.147], [30.361, 70.18], [30.503, 70.203], [30.523, 70.241], [31.075, 70.284], [31.016, 70.333], [31.064, 70.362], [30.944, 70.45], [30.792, 70.413], [30.72, 70.475], [30.566, 70.507], [30.605, 70.528], [30.584, 70.541], [30.435, 70.556], [30.158, 70.513], [30.003, 70.535], [30.167, 70.529], [30.121, 70.548], [30.349, 70.596], [30.099, 70.641], [30.203, 70.675], [30.087, 70.711], [29.955, 70.704], [29.847, 70.639], [29.704, 70.614], [29.676, 70.617], [29.777, 70.674], [29.782, 70.732], [29.677, 70.743], [29.283, 70.655], [29.292, 70.684], [29.367, 70.698], [29.326, 70.716], [29.421, 70.731], [29.297, 70.741], [29.403, 70.78], [29.278, 70.804], [29.243, 70.846], [29.061, 70.86], [29.101, 70.873], [28.854, 70.881], [28.742, 70.855], [28.527, 70.727], [28.623, 70.672], [28.509, 70.675], [28.395, 70.542], [28.557, 70.505], [28.503, 70.48], [28.509, 70.444], [28.454, 70.489], [28.368, 70.483], [28.232, 70.401], [28.191, 70.285], [28.232, 70.166], [28.134, 70.082], [28.022, 70.064], [28.183, 70.154], [28.154, 70.369], [28.336, 70.506], [28.232, 70.506], [28.12, 70.435], [28.1, 70.451], [28.129, 70.465], [28.041, 70.448], [28.182, 70.498], [27.943, 70.464], [27.979, 70.489], [27.959, 70.489], [27.881, 70.426], [27.852, 70.479], [28.242, 70.619], [28.289, 70.655], [28.295, 70.713], [27.837, 70.615], [27.647, 70.605], [28.132, 70.731], [27.887, 70.764], [27.773, 70.741], [27.828, 70.767], [27.772, 70.789], [27.993, 70.812], [28.252, 70.787], [28.299, 70.806], [28.224, 70.828], [28.364, 70.824], [28.342, 70.842], [28.446, 70.866], [28.368, 70.88], [28.471, 70.884], [28.551, 70.968], [28.344, 71.003], [28.211, 70.972], [28.241, 70.999], [28.19, 70.991], [28.198, 71.022], [28.261, 71.045], [28.208, 71.08], [28.091, 71.035], [28.031, 71.07], [27.87, 71.032], [27.696, 71.059], [27.733, 71.098], [27.652, 71.122], [27.647, 71.092], [27.522, 71.076], [27.531, 71.025], [27.582, 71.011], [27.545, 70.949], [27.476, 71.004], [27.233, 71.024], [27.222, 70.998], [27.347, 70.938], [27.156, 70.967], [27.123, 70.92], [27.276, 70.881], [27.398, 70.911], [27.383, 70.873], [27.536, 70.84], [27.476, 70.824], [27.626, 70.799], [27.319, 70.824], [27.281, 70.769], [27.342, 70.753], [27.318, 70.735], [27.14, 70.742], [27.084, 70.7], [27.158, 70.68], [27.1, 70.632], [27.268, 70.579], [27.058, 70.611], [26.975, 70.568], [27.005, 70.552], [26.966, 70.527], [27.1, 70.467], [26.798, 70.477], [26.758, 70.422], [26.657, 70.422], [26.627, 70.397], [26.651, 70.376], [26.547, 70.348], [26.505, 70.363], [26.514, 70.432], [26.579, 70.476], [26.559, 70.515], [26.606, 70.539], [26.653, 70.639], [26.343, 70.64], [26.65, 70.709], [26.746, 70.828], [26.67, 70.823], [26.666, 70.854], [26.734, 70.896], [26.681, 70.936], [26.694, 70.952], [26.523, 70.926], [26.172, 70.759], [26.119, 70.707], [26.073, 70.711], [25.999, 70.603], [25.45, 70.349], [25.424, 70.322], [25.535, 70.304], [25.529, 70.282], [25.321, 70.185], [25.235, 70.09], [25.096, 70.079], [25.082, 70.109], [25.138, 70.126], [25.077, 70.12], [25.084, 70.151], [25.006, 70.121], [25.045, 70.064], [24.942, 70.088], [24.98, 70.223], [25.205, 70.3], [25.195, 70.331], [25.109, 70.315], [25.132, 70.351], [25.09, 70.362], [25.176, 70.4], [25.273, 70.399], [25.246, 70.432], [25.278, 70.464], [25.058, 70.479], [25.259, 70.489], [25.273, 70.517], [25.074, 70.5], [25.63, 70.713], [25.655, 70.73], [25.629, 70.757], [25.923, 70.857], [25.908, 70.887], [25.761, 70.855], [25.622, 70.892], [25.455, 70.837], [25.425, 70.854], [25.534, 70.914], [25.358, 70.969], [25.339, 70.949], [25.394, 70.882], [25.377, 70.842], [25.253, 70.786], [25.253, 70.845], [25.161, 70.916], [25.08, 70.886], [25.067, 70.852], [24.918, 70.867], [25.074, 70.94], [25.031, 70.965], [24.975, 70.972], [24.985, 70.911], [24.84, 70.901], [24.86, 70.93], [24.784, 70.966], [24.592, 70.963], [24.652, 70.951], [24.575, 70.935], [24.628, 70.906], [24.61, 70.893], [24.726, 70.863], [24.608, 70.856], [24.635, 70.776], [24.385, 70.866], [24.256, 70.831], [24.275, 70.808], [24.246, 70.777], [24.562, 70.739], [24.718, 70.661], [24.729, 70.622], [24.647, 70.614], [24.363, 70.689], [24.288, 70.662], [24.264, 70.6], [24.103, 70.54], [24.252, 70.513], [24.356, 70.454], [23.894, 70.501], [23.51, 70.359], [23.465, 70.311], [23.612, 70.299], [23.299, 70.251], [23.531, 70.241], [23.243, 70.214], [23.424, 70.184], [23.3, 70.164], [23.404, 70.139], [23.366, 70.107], [23.176, 70.089], [23.325, 70.034], [23.537, 70.017], [23.312, 69.941], [23.343, 69.969], [23.315, 69.996], [23.134, 69.937], [23.096, 69.95], [23.148, 69.969], [23.116, 69.991], [23.128, 70.036], [23.021, 70.028], [22.992, 70.088], [23.008, 70.146], [22.867, 70.101], [22.288, 70.039], [22.445, 70.082], [22.821, 70.111], [22.964, 70.203], [22.603, 70.214], [22.399, 70.255], [22.327, 70.166], [22.558, 70.122], [22.238, 70.134], [22.293, 70.162], [22.258, 70.229], [22.317, 70.276], [22.144, 70.281], [22.154, 70.246], [22.125, 70.233], [22.097, 70.305], [21.982, 70.281], [22.03, 70.314], [22.004, 70.321], [21.807, 70.252], [21.891, 70.207], [21.855, 70.191], [21.882, 70.174], [21.871, 70.142], [21.802, 70.207], [21.533, 70.314], [21.499, 70.21], [21.424, 70.271], [21.204, 70.202], [21.31, 70.161], [21.488, 70.173], [21.434, 70.147], [21.472, 70.099], [21.621, 70.095], [21.735, 70.056], [22.097, 70.113], [22.022, 70.06], [21.797, 70.034], [22.116, 70.029], [22.051, 70.011], [22.067, 69.94], [21.999, 69.982], [21.927, 69.977], [21.905, 69.94], [21.935, 69.871], [22.019, 69.848], [21.914, 69.833], [22.057, 69.793], [22.102, 69.741], [21.982, 69.738], [22.051, 69.743], [21.775, 69.878], [21.585, 69.92], [21.602, 69.954], [21.555, 69.983], [21.307, 70.02], [21.247, 69.999], [21.206, 69.933], [21.328, 69.906], [21.212, 69.901], [21.226, 69.849], [21.163, 69.811], [21.126, 69.809], [21.185, 69.867], [21.069, 69.861], [21.057, 69.831], [20.994, 69.819], [21.05, 69.797], [21.019, 69.782], [20.941, 69.817], [20.962, 69.84], [20.894, 69.849], [21.092, 69.94], [21.073, 69.948], [20.791, 69.873], [20.826, 69.836], [20.794, 69.799], [20.48, 69.759], [20.548, 69.701], [20.485, 69.629], [20.853, 69.489], [20.47, 69.576], [20.448, 69.523], [20.362, 69.477], [20.289, 69.388], [20.178, 69.369], [19.947, 69.256], [19.919, 69.277], [19.996, 69.317], [19.99, 69.341], [20.191, 69.402], [20.218, 69.468], [20.27, 69.463], [20.267, 69.513], [20.303, 69.537], [20.276, 69.566], [20.378, 69.591], [20.386, 69.626], [20.317, 69.674], [20.423, 69.88], [20.304, 69.968], [20.201, 69.921], [20.218, 69.852], [20.172, 69.876], [20.157, 69.937], [20.025, 69.776], [19.972, 69.762], [19.997, 69.84], [19.828, 69.714], [19.86, 69.622], [20.094, 69.582], [19.742, 69.608], [19.679, 69.429], [19.529, 69.399], [19.651, 69.46], [19.628, 69.511], [19.725, 69.639], [19.678, 69.679], [19.773, 69.781], [19.759, 69.81], [19.106, 69.74], [19.091, 69.688], [18.939, 69.606], [18.956, 69.559], [19.014, 69.532], [19.227, 69.564], [19.261, 69.521], [19.091, 69.534], [19.006, 69.509], [18.996, 69.461], [19.124, 69.381], [19.417, 69.349], [19.454, 69.312], [19.445, 69.256], [19.501, 69.218], [19.312, 69.221], [19.251, 69.237], [19.276, 69.26], [19.253, 69.266], [19.172, 69.249], [19.381, 69.313], [19.021, 69.391], [18.848, 69.501], [18.856, 69.55], [18.472, 69.514], [18.485, 69.482], [18.454, 69.449], [18.574, 69.428], [18.637, 69.373], [18.949, 69.325], [19.007, 69.283], [18.771, 69.325], [18.667, 69.311], [18.707, 69.279], [18.69, 69.258], [18.602, 69.294], [18.557, 69.358], [18.5, 69.234], [18.497, 69.373], [18.365, 69.385], [18.372, 69.446], [18.285, 69.489], [18.162, 69.459], [18.172, 69.386], [18.131, 69.373], [18.132, 69.339], [18.016, 69.304], [17.989, 69.232], [18.098, 69.23], [18.071, 69.166], [18.152, 69.152], [17.637, 69.106], [17.68, 69.09], [17.488, 68.99], [17.539, 68.962], [17.426, 68.905], [17.719, 68.929], [17.714, 68.907], [17.841, 68.879], [17.715, 68.89], [17.47, 68.83], [17.768, 68.786], [17.791, 68.751], [17.458, 68.81], [17.236, 68.755], [17.424, 68.736], [17.468, 68.689], [17.68, 68.654], [17.464, 68.664], [17.257, 68.721], [17.097, 68.686], [17.185, 68.644], [17.138, 68.63], [16.965, 68.701], [16.62, 68.637], [16.56, 68.581], [16.633, 68.536], [16.459, 68.508], [16.511, 68.434], [16.869, 68.452], [16.992, 68.504], [17.096, 68.477], [17.004, 68.446], [17.057, 68.434], [17.262, 68.451], [17.331, 68.491], [17.544, 68.527], [17.465, 68.445], [17.621, 68.449], [17.872, 68.387], [17.813, 68.372], [17.614, 68.422], [17.368, 68.411], [17.578, 68.363], [17.552, 68.352], [17.246, 68.4], [17.201, 68.367], [17.214, 68.336], [17.416, 68.24], [17.355, 68.227], [17.367, 68.185], [17.327, 68.163], [17.329, 68.251], [17.196, 68.3], [17.14, 68.367], [16.834, 68.318], [16.88, 68.357], [16.589, 68.399], [16.219, 68.345], [16.587, 68.262], [16.633, 68.2], [16.798, 68.127], [16.566, 68.193], [16.511, 68.255], [16.134, 68.304], [16.1, 68.271], [16.359, 68.231], [16.172, 68.22], [16.163, 68.197], [16.463, 68.221], [16.478, 68.19], [16.587, 68.164], [16.419, 68.184], [16.472, 68.151], [16.243, 68.125], [16.299, 68.105], [16.294, 68.083], [16.499, 68.116], [16.565, 68.08], [16.715, 68.067], [16.662, 68.046], [16.461, 68.095], [16.395, 68.062], [16.363, 68.029], [16.499, 68.011], [16.459, 67.976], [16.539, 67.959], [16.329, 68.002], [16.468, 67.939], [16.457, 67.897], [16.274, 68.006], [16.208, 68.002], [16.277, 67.974], [16.257, 67.892], [16.453, 67.847], [16.438, 67.824], [16.511, 67.794], [16.217, 67.888], [16.205, 67.97], [16.041, 68.029], [16.093, 68.068], [16.069, 68.103], [16.106, 68.149], [16.027, 68.171], [16.061, 68.194], [16.033, 68.239], [15.961, 68.243], [15.954, 68.189], [15.88, 68.188], [15.882, 68.15], [15.922, 68.131], [15.852, 68.091], [15.672, 68.073], [15.654, 68.045], [15.618, 68.056], [15.618, 68.088], [15.734, 68.089], [15.699, 68.125], [15.727, 68.141], [15.64, 68.165], [15.634, 68.129], [15.53, 68.09], [15.502, 68.132], [15.433, 68.118], [15.284, 68.03], [15.402, 67.987], [15.44, 68.007], [15.386, 68.017], [15.526, 68.075], [15.599, 68.033], [15.763, 68.027], [15.885, 68.066], [15.9, 68.053], [15.847, 68.034], [16.065, 68.005], [15.959, 68.003], [15.953, 67.965], [15.851, 67.896], [15.782, 67.947], [15.613, 67.931], [15.521, 67.877], [15.536, 67.848], [15.501, 67.875], [15.542, 67.92], [15.324, 67.896], [15.199, 67.829], [15.235, 67.869], [15.022, 67.894], [14.885, 67.868], [14.851, 67.84], [15.104, 67.85], [14.756, 67.8], [14.832, 67.79], [14.832, 67.757], [15.034, 67.776], [14.991, 67.758], [15.116, 67.739], [14.788, 67.723], [14.875, 67.699], [14.729, 67.652], [14.844, 67.639], [15.168, 67.706], [15.373, 67.792], [15.364, 67.854], [15.405, 67.822], [15.414, 67.853], [15.451, 67.839], [15.415, 67.792], [15.589, 67.767], [15.696, 67.79], [15.632, 67.76], [15.781, 67.728], [15.83, 67.674], [15.616, 67.747], [15.414, 67.74], [15.463, 67.702], [15.655, 67.678], [15.517, 67.689], [15.533, 67.671], [15.309, 67.719], [15.273, 67.687], [15.328, 67.677], [15.177, 67.615], [15.433, 67.615], [15.419, 67.599], [15.462, 67.576], [15.446, 67.554], [15.278, 67.597], [15.229, 67.564], [15.241, 67.526], [15.36, 67.512], [15.532, 67.505], [15.723, 67.558], [15.894, 67.563], [15.699, 67.535], [15.531, 67.465], [15.583, 67.456], [15.517, 67.426], [15.599, 67.377], [15.619, 67.325], [15.697, 67.31], [15.689, 67.291], [15.597, 67.282], [15.645, 67.297], [15.538, 67.351], [15.53, 67.396], [15.442, 67.472], [15.245, 67.477], [15.144, 67.414], [15.173, 67.461], [15.152, 67.477], [15.213, 67.486], [15.186, 67.519], [14.991, 67.465], [14.832, 67.472], [15.052, 67.504], [15.005, 67.557], [15.157, 67.535], [15.036, 67.571], [14.727, 67.493], [14.835, 67.44], [15.048, 67.441], [14.815, 67.374], [14.806, 67.414], [14.627, 67.418], [14.573, 67.395], [14.617, 67.377], [14.555, 67.337], [14.329, 67.241], [14.7, 67.274], [14.694, 67.238], [14.618, 67.212], [14.669, 67.207], [14.836, 67.255], [14.783, 67.265], [14.956, 67.26], [15.152, 67.309], [15.144, 67.27], [15.064, 67.248], [15.345, 67.235], [15.264, 67.214], [15.305, 67.202], [15.398, 67.236], [15.704, 67.211], [15.739, 67.178], [15.382, 67.201], [15.477, 67.156], [15.44, 67.094], [15.496, 67.065], [15.394, 67.079], [15.379, 67.159], [15.076, 67.21], [14.931, 67.146], [15.002, 67.091], [14.891, 67.146], [14.98, 67.209], [14.514, 67.177], [14.712, 67.163], [14.753, 67.139], [14.738, 67.114], [14.693, 67.156], [14.514, 67.15], [11.99, 67.755], [12.01, 68.73], [17.033, 70.014], [17.046, 74.005], [10.306, 77.005], [8.327, 77.004], [-0.863, 81.701], [2.222, 82.006], [5.982, 82.329], [15.156, 82.943], [64.791, 82.966], [64.419, 81.185], [64.265, 81.166], [64.118, 81.092], [64.216, 81.056]], [[57.972, 81.757], [57.889, 81.707], [58.061, 81.688], [58.622, 81.738], [59.16, 81.729], [59.373, 81.758], [59.331, 81.786], [59.438, 81.817], [59.165, 81.852], [57.976, 81.808], [57.938, 81.797], [58.147, 81.77], [57.972, 81.757]], [[62.726, 81.61], [63.471, 81.582], [63.803, 81.653], [63.639, 81.698], [63.217, 81.72], [62.389, 81.707], [62.104, 81.672], [62.516, 81.653], [62.726, 81.61]], [[62.121, 81.584], [61.654, 81.603], [61.924, 81.546], [62.204, 81.565], [62.121, 81.584]], [[56.741, 81.449], [57.441, 81.432], [57.6, 81.394], [58.081, 81.366], [58.573, 81.412], [58.377, 81.471], [57.846, 81.492], [57.866, 81.51], [57.797, 81.53], [57.811, 81.554], [56.97, 81.524], [56.944, 81.522], [57.007, 81.496], [56.741, 81.449]], [[59.128, 81.392], [59.152, 81.399], [58.642, 81.372], [58.462, 81.335], [58.978, 81.285], [59.382, 81.324], [59.128, 81.392]], [[60.11, 81.305], [59.748, 81.289], [59.722, 81.283], [60.378, 81.244], [60.639, 81.272], [60.11, 81.305]], [[56.444, 81.296], [56.602, 81.257], [55.669, 81.325], [55.466, 81.32], [55.538, 81.294], [55.432, 81.272], [55.61, 81.272], [55.556, 81.219], [55.585, 81.197], [56.313, 81.221], [56.384, 81.207], [56.391, 81.173], [56.483, 81.163], [57.246, 81.261], [57.903, 81.29], [56.631, 81.388], [56.334, 81.382], [56.444, 81.296]], [[57.874, 81.237], [56.995, 81.166], [57.531, 81.124], [58.081, 81.21], [57.874, 81.237]], [[59.576, 81.171], [59.845, 81.18], [59.684, 81.21], [59.011, 81.207], [59.576, 81.171]], [[58.649, 81.135], [58.407, 81.153], [58.161, 81.124], [58.649, 81.135]], [[61.052, 80.919], [61.584, 81.029], [61.633, 81.054], [61.612, 81.081], [61.704, 81.104], [61.169, 81.12], [60.63, 81.089], [60.025, 80.992], [60.399, 80.936], [61.052, 80.919]], [[56.155, 81.118], [56.096, 81.089], [56.909, 81.01], [56.892, 80.991], [56.938, 80.964], [57.224, 80.941], [57.202, 80.904], [57.737, 80.846], [58.279, 80.92], [57.989, 80.944], [57.77, 80.966], [57.487, 81.046], [56.672, 81.106], [56.155, 81.118]], [[58.916, 80.772], [59.025, 80.822], [58.959, 80.866], [58.757, 80.896], [58.104, 80.857], [57.816, 80.806], [58.47, 80.746], [58.665, 80.778], [58.916, 80.772]], [[60.258, 80.829], [60.158, 80.847], [59.725, 80.834], [59.507, 80.802], [59.572, 80.777], [59.37, 80.734], [59.221, 80.643], [59.286, 80.617], [59.258, 80.587], [59.372, 80.558], [59.244, 80.528], [59.626, 80.425], [59.946, 80.438], [60.249, 80.494], [61.066, 80.404], [61.388, 80.483], [61.273, 80.501], [61.607, 80.527], [61.58, 80.555], [61.704, 80.593], [62.142, 80.627], [62.038, 80.662], [62.285, 80.768], [62.089, 80.875], [61.596, 80.887], [61.413, 80.854], [60.353, 80.787], [60.319, 80.809], [59.965, 80.804], [60.258, 80.829]], [[57.194, 80.357], [57.261, 80.326], [57.241, 80.295], [57.27, 80.261], [57.221, 80.234], [57.299, 80.203], [57.272, 80.166], [57.677, 80.102], [58.017, 80.104], [57.902, 80.169], [58.019, 80.2], [58.436, 80.169], [58.423, 80.186], [58.479, 80.224], [58.076, 80.248], [58.372, 80.314], [59.276, 80.334], [58.915, 80.421], [57.968, 80.489], [56.946, 80.474], [57.269, 80.392], [57.194, 80.357]], [[60.124, 80.171], [60.289, 80.167], [60.099, 80.204], [59.898, 80.192], [60.124, 80.171]], [[59.833, 80.015], [59.845, 80.068], [59.787, 80.089], [59.324, 80.109], [58.759, 80.023], [59.365, 79.914], [59.924, 79.99], [59.833, 80.015]], [[58.988, 79.896], [58.757, 79.925], [58.65, 79.96], [58.666, 79.973], [58.279, 79.927], [58.526, 79.922], [58.795, 79.872], [58.988, 79.896]], [[27.222, 80.1], [26.994, 80.107], [26.8, 80.172], [26.637, 80.183], [25.705, 80.169], [25.782, 80.21], [25.614, 80.196], [25.544, 80.234], [25.268, 80.223], [25.226, 80.248], [25.352, 80.275], [24.78, 80.247], [24.892, 80.318], [24.836, 80.351], [24.769, 80.335], [24.741, 80.294], [24.532, 80.254], [24.461, 80.268], [24.481, 80.298], [24.603, 80.311], [24.348, 80.368], [24.189, 80.363], [24.146, 80.35], [24.398, 80.313], [24.307, 80.313], [24.372, 80.292], [24.338, 80.284], [24.217, 80.294], [24.203, 80.269], [23.979, 80.308], [23.892, 80.304], [24.03, 80.273], [23.761, 80.305], [23.718, 80.257], [23.794, 80.242], [23.73, 80.227], [23.831, 80.188], [23.558, 80.129], [23.462, 80.169], [23.498, 80.186], [23.477, 80.206], [23.39, 80.192], [23.429, 80.155], [23.396, 80.138], [23.248, 80.192], [23.216, 80.184], [23.246, 80.164], [23.086, 80.167], [23.229, 80.119], [23.08, 80.124], [23.0, 80.156], [23.047, 80.245], [23.295, 80.278], [23.291, 80.317], [23.35, 80.336], [23.123, 80.385], [23.361, 80.429], [22.8, 80.515], [22.748, 80.503], [22.805, 80.474], [22.783, 80.455], [22.835, 80.411], [22.695, 80.351], [22.749, 80.324], [22.619, 80.345], [22.679, 80.423], [22.361, 80.41], [22.337, 80.353], [22.579, 80.299], [22.455, 80.265], [22.472, 80.212], [22.378, 80.116], [22.465, 80.061], [22.346, 80.067], [22.476, 80.011], [22.336, 80.035], [22.364, 80.001], [22.257, 79.978], [22.172, 80.016], [22.211, 80.044], [22.054, 80.109], [21.798, 80.147], [21.599, 80.118], [21.892, 80.205], [21.861, 80.268], [21.671, 80.271], [21.653, 80.253], [21.7, 80.235], [21.677, 80.232], [21.483, 80.266], [21.317, 80.207], [21.322, 80.257], [21.125, 80.217], [20.827, 80.214], [20.743, 80.264], [20.835, 80.309], [20.573, 80.302], [20.523, 80.326], [20.548, 80.351], [20.416, 80.414], [20.211, 80.417], [20.086, 80.375], [20.101, 80.406], [20.016, 80.443], [20.031, 80.466], [19.669, 80.502], [19.63, 80.477], [19.691, 80.439], [19.489, 80.465], [19.459, 80.417], [19.485, 80.39], [19.917, 80.375], [19.771, 80.344], [19.859, 80.34], [19.766, 80.322], [19.839, 80.307], [19.807, 80.3], [19.836, 80.286], [19.716, 80.25], [19.853, 80.219], [19.615, 80.221], [19.262, 80.335], [18.98, 80.337], [19.098, 80.296], [19.099, 80.258], [19.21, 80.198], [19.584, 80.151], [19.399, 80.136], [19.341, 80.086], [18.733, 80.205], [18.704, 80.204], [18.766, 80.182], [18.71, 80.157], [18.594, 80.185], [18.037, 80.192], [17.783, 80.128], [18.011, 80.107], [18.025, 80.132], [18.141, 80.093], [18.366, 80.077], [18.154, 80.074], [18.24, 80.042], [18.736, 80.024], [18.931, 80.049], [18.786, 80.004], [18.806, 79.97], [18.669, 80.008], [18.555, 79.974], [18.682, 79.975], [18.655, 79.96], [18.112, 79.904], [18.235, 79.888], [18.472, 79.783], [18.688, 79.781], [18.771, 79.717], [19.402, 79.737], [19.542, 79.71], [20.336, 79.791], [21.664, 79.834], [21.89, 79.817], [21.734, 79.781], [21.835, 79.776], [21.796, 79.764], [22.313, 79.797], [22.344, 79.783], [21.882, 79.744], [21.837, 79.731], [21.869, 79.717], [21.839, 79.703], [21.092, 79.714], [20.477, 79.68], [20.654, 79.62], [21.155, 79.568], [21.123, 79.559], [20.425, 79.589], [20.189, 79.642], [19.636, 79.604], [19.686, 79.549], [20.223, 79.46], [20.743, 79.459], [20.851, 79.403], [20.795, 79.374], [21.375, 79.395], [21.728, 79.363], [22.146, 79.406], [22.895, 79.418], [22.656, 79.36], [22.641, 79.313], [22.927, 79.219], [23.512, 79.179], [24.06, 79.187], [24.232, 79.225], [24.282, 79.305], [24.799, 79.371], [25.149, 79.326], [25.715, 79.406], [25.977, 79.511], [25.804, 79.614], [26.469, 79.714], [26.848, 79.826], [27.142, 79.854], [27.244, 79.911], [27.101, 79.967], [27.169, 80.016], [27.135, 80.04], [27.222, 80.1]], [[18.868, 79.245], [18.593, 79.256], [18.871, 79.308], [18.839, 79.353], [18.911, 79.39], [18.851, 79.406], [18.886, 79.442], [18.769, 79.475], [18.742, 79.534], [18.357, 79.628], [18.194, 79.621], [18.094, 79.581], [18.011, 79.462], [17.932, 79.42], [17.636, 79.372], [17.769, 79.415], [17.78, 79.488], [17.766, 79.544], [17.592, 79.547], [17.738, 79.561], [17.771, 79.591], [17.747, 79.6], [18.098, 79.72], [17.567, 79.89], [17.281, 79.936], [16.977, 79.96], [16.865, 79.924], [16.897, 79.873], [16.819, 79.872], [16.697, 79.912], [16.721, 79.944], [16.623, 79.975], [16.555, 80.036], [16.308, 80.063], [16.048, 80.018], [16.021, 80.002], [16.054, 79.989], [15.95, 79.937], [16.131, 79.864], [15.731, 79.874], [15.638, 79.827], [15.674, 79.787], [15.648, 79.765], [15.709, 79.715], [15.687, 79.698], [15.748, 79.675], [15.729, 79.653], [15.788, 79.636], [15.827, 79.576], [15.919, 79.558], [15.852, 79.523], [15.892, 79.497], [15.959, 79.306], [16.139, 79.239], [16.195, 79.137], [16.291, 79.089], [16.374, 78.984], [16.493, 78.935], [16.45, 78.904], [16.321, 78.918], [16.148, 78.987], [16.132, 79.054], [15.889, 79.158], [15.813, 79.162], [15.677, 79.104], [15.649, 79.139], [15.791, 79.224], [15.63, 79.304], [15.49, 79.334], [15.365, 79.464], [15.373, 79.495], [15.301, 79.523], [15.266, 79.577], [15.292, 79.601], [14.86, 79.764], [14.585, 79.804], [14.515, 79.799], [14.249, 79.675], [14.31, 79.665], [14.145, 79.628], [14.266, 79.606], [14.11, 79.611], [13.887, 79.541], [14.049, 79.423], [14.015, 79.401], [14.156, 79.338], [14.059, 79.26], [13.908, 79.279], [13.889, 79.303], [13.915, 79.358], [13.874, 79.392], [13.594, 79.484], [13.437, 79.479], [13.473, 79.435], [13.257, 79.471], [13.289, 79.499], [13.265, 79.514], [13.419, 79.527], [13.484, 79.581], [13.275, 79.598], [12.606, 79.547], [12.448, 79.566], [12.701, 79.598], [13.016, 79.689], [13.628, 79.697], [13.885, 79.726], [13.966, 79.767], [13.958, 79.83], [13.825, 79.875], [13.015, 79.822], [12.51, 79.744], [12.544, 79.777], [12.385, 79.832], [12.225, 79.836], [12.164, 79.809], [12.164, 79.782], [12.242, 79.757], [12.205, 79.751], [12.345, 79.713], [12.342, 79.663], [12.311, 79.662], [12.166, 79.705], [12.145, 79.695], [12.172, 79.672], [12.051, 79.686], [12.066, 79.706], [12.038, 79.732], [11.941, 79.756], [11.951, 79.787], [11.84, 79.837], [11.696, 79.835], [11.524, 79.806], [11.557, 79.784], [11.534, 79.768], [11.192, 79.772], [11.24, 79.754], [11.206, 79.709], [11.456, 79.627], [10.986, 79.643], [10.852, 79.595], [11.18, 79.559], [10.677, 79.545], [10.698, 79.514], [10.911, 79.456], [10.903, 79.419], [10.852, 79.401], [10.918, 79.378], [10.844, 79.365], [11.141, 79.238], [11.204, 79.134], [11.183, 79.118], [11.236, 79.093], [11.715, 79.166], [11.716, 79.198], [11.555, 79.278], [11.639, 79.319], [11.705, 79.318], [11.721, 79.277], [11.835, 79.225], [11.914, 79.236], [11.837, 79.292], [12.113, 79.296], [12.093, 79.282], [12.116, 79.258], [12.058, 79.229], [12.138, 79.211], [11.951, 79.197], [11.847, 79.142], [11.879, 79.127], [11.682, 79.064], [12.109, 78.996], [11.982, 78.986], [12.064, 78.967], [12.429, 78.996], [12.506, 78.908], [12.251, 78.893], [11.602, 78.976], [11.333, 78.961], [11.576, 78.882], [11.932, 78.828], [11.74, 78.809], [11.641, 78.741], [11.854, 78.695], [11.849, 78.661], [11.926, 78.627], [12.356, 78.59], [12.39, 78.542], [13.199, 78.541], [12.929, 78.499], [12.361, 78.48], [12.7, 78.363], [12.871, 78.354], [12.904, 78.326], [12.858, 78.318], [12.957, 78.266], [12.912, 78.241], [13.007, 78.197], [13.149, 78.219], [13.822, 78.203], [13.859, 78.216], [13.744, 78.261], [13.943, 78.224], [13.963, 78.277], [14.091, 78.285], [14.041, 78.251], [14.084, 78.234], [14.325, 78.306], [14.248, 78.356], [14.276, 78.385], [14.426, 78.364], [14.726, 78.384], [14.661, 78.443], [14.392, 78.485], [14.456, 78.532], [14.588, 78.554], [14.541, 78.578], [14.547, 78.646], [14.444, 78.674], [14.815, 78.731], [14.845, 78.668], [14.805, 78.642], [15.021, 78.597], [15.052, 78.635], [15.256, 78.657], [15.198, 78.729], [15.22, 78.772], [15.38, 78.845], [15.485, 78.805], [15.422, 78.783], [15.501, 78.717], [15.453, 78.636], [15.193, 78.588], [15.264, 78.568], [15.298, 78.501], [15.464, 78.452], [16.032, 78.483], [16.046, 78.52], [16.321, 78.568], [16.37, 78.607], [16.365, 78.649], [16.522, 78.715], [16.634, 78.667], [16.831, 78.672], [16.821, 78.642], [16.542, 78.566], [16.456, 78.52], [16.445, 78.481], [16.329, 78.452], [16.851, 78.384], [17.192, 78.435], [17.302, 78.42], [16.771, 78.33], [16.103, 78.356], [15.766, 78.335], [15.594, 78.294], [15.736, 78.222], [15.332, 78.223], [15.006, 78.139], [15.034, 78.114], [15.009, 78.106], [14.22, 78.089], [14.347, 78.016], [14.356, 77.963], [14.283, 77.964], [14.235, 78.009], [13.967, 78.091], [13.589, 78.049], [13.68, 77.993], [13.628, 77.957], [13.677, 77.864], [13.651, 77.849], [13.818, 77.802], [13.725, 77.754], [13.761, 77.727], [13.871, 77.743], [13.942, 77.717], [14.149, 77.776], [14.453, 77.751], [14.629, 77.761], [14.523, 77.78], [14.552, 77.786], [14.713, 77.765], [15.094, 77.792], [15.349, 77.862], [15.574, 77.883], [15.919, 77.829], [16.665, 77.857], [16.74, 77.902], [17.006, 77.931], [16.961, 77.92], [16.992, 77.901], [16.886, 77.868], [16.79, 77.876], [16.87, 77.826], [17.128, 77.777], [16.363, 77.801], [14.739, 77.659], [14.884, 77.616], [15.914, 77.565], [16.048, 77.506], [16.306, 77.471], [16.197, 77.468], [16.223, 77.435], [15.835, 77.526], [15.002, 77.567], [14.771, 77.543], [14.713, 77.488], [14.539, 77.491], [14.592, 77.535], [14.479, 77.579], [14.182, 77.573], [13.914, 77.528], [13.927, 77.492], [14.054, 77.451], [13.956, 77.449], [13.969, 77.406], [14.163, 77.346], [14.135, 77.319], [14.153, 77.291], [14.312, 77.278], [14.308, 77.238], [14.467, 77.172], [14.718, 77.179], [15.057, 77.123], [15.078, 77.114], [15.052, 77.092], [15.134, 77.083], [15.132, 77.057], [15.35, 77.004], [15.905, 77.013], [15.853, 77.06], [16.016, 77.081], [16.083, 77.022], [16.246, 76.989], [16.531, 76.994], [16.317, 76.976], [16.327, 76.944], [16.245, 76.928], [16.221, 76.932], [16.237, 76.956], [16.143, 76.976], [15.774, 76.948], [15.498, 76.88], [15.979, 76.75], [16.281, 76.709], [16.294, 76.664], [16.337, 76.653], [16.336, 76.612], [16.293, 76.589], [16.342, 76.563], [16.435, 76.62], [16.554, 76.608], [16.613, 76.571], [16.997, 76.595], [17.001, 76.626], [17.198, 76.695], [17.11, 76.753], [16.919, 76.787], [16.944, 76.815], [17.064, 76.828], [17.056, 76.857], [17.319, 76.966], [17.094, 77.051], [17.346, 77.052], [17.331, 77.075], [17.444, 77.144], [17.417, 77.183], [17.439, 77.221], [17.511, 77.255], [17.493, 77.327], [17.612, 77.37], [17.659, 77.414], [17.625, 77.44], [17.731, 77.458], [17.742, 77.494], [18.293, 77.506], [18.288, 77.586], [18.362, 77.636], [18.345, 77.677], [18.454, 77.776], [18.447, 77.848], [18.334, 77.898], [18.374, 77.937], [18.497, 77.967], [18.411, 78.022], [18.552, 78.055], [18.838, 78.029], [19.092, 78.096], [18.92, 78.174], [19.086, 78.224], [18.952, 78.284], [19.065, 78.359], [18.966, 78.456], [19.669, 78.507], [19.578, 78.571], [19.711, 78.615], [20.013, 78.597], [20.108, 78.639], [20.229, 78.643], [20.559, 78.624], [20.744, 78.69], [21.081, 78.637], [21.21, 78.674], [21.386, 78.653], [21.358, 78.697], [21.549, 78.768], [21.504, 78.792], [21.535, 78.843], [19.907, 79.014], [19.937, 79.05], [19.81, 79.099], [19.827, 79.152], [19.448, 79.172], [18.979, 79.154], [18.916, 79.17], [18.949, 79.219], [18.868, 79.245]], [[20.833, 79.054], [20.488, 79.117], [20.2, 79.125], [20.097, 79.118], [20.142, 79.106], [20.109, 79.092], [20.124, 79.047], [20.046, 79.037], [20.342, 78.991], [20.707, 79.014], [20.833, 79.054]], [[28.424, 78.883], [28.848, 78.907], [29.316, 78.845], [29.708, 78.896], [29.103, 78.896], [28.866, 78.953], [28.64, 78.961], [28.416, 78.962], [28.425, 78.934], [28.381, 78.92], [28.145, 78.912], [27.842, 78.842], [28.096, 78.812], [28.424, 78.883]], [[26.682, 78.662], [26.709, 78.625], [26.939, 78.647], [26.951, 78.679], [27.017, 78.693], [26.784, 78.722], [26.6, 78.808], [26.464, 78.809], [26.396, 78.771], [26.469, 78.699], [26.682, 78.662]], [[20.664, 78.387], [20.682, 78.347], [20.469, 78.314], [20.78, 78.284], [20.787, 78.261], [20.627, 78.199], [20.671, 78.187], [20.844, 78.224], [21.05, 78.194], [21.628, 78.247], [22.272, 78.264], [22.236, 78.275], [22.225, 78.334], [22.252, 78.357], [22.198, 78.433], [22.24, 78.483], [22.127, 78.521], [22.091, 78.589], [21.918, 78.562], [21.883, 78.587], [21.664, 78.595], [21.502, 78.566], [21.444, 78.606], [21.329, 78.619], [21.124, 78.603], [21.112, 78.567], [21.056, 78.549], [20.125, 78.472], [20.664, 78.387]], [[20.87, 78.081], [20.972, 78.048], [21.658, 77.917], [21.538, 77.894], [21.557, 77.855], [21.255, 77.727], [21.225, 77.614], [20.883, 77.567], [20.832, 77.537], [20.935, 77.497], [20.859, 77.462], [21.121, 77.435], [21.596, 77.485], [22.134, 77.496], [22.436, 77.571], [22.583, 77.559], [22.606, 77.546], [22.549, 77.523], [22.577, 77.512], [22.778, 77.548], [22.692, 77.493], [22.407, 77.421], [22.502, 77.333], [22.385, 77.304], [22.424, 77.257], [22.664, 77.254], [22.9, 77.291], [22.92, 77.338], [23.083, 77.38], [23.372, 77.371], [23.742, 77.451], [23.891, 77.498], [23.992, 77.598], [24.208, 77.676], [24.91, 77.75], [24.313, 77.904], [23.839, 77.849], [23.637, 77.865], [23.422, 77.939], [23.113, 77.989], [23.051, 78.046], [23.099, 78.086], [23.361, 78.103], [23.474, 78.152], [23.219, 78.222], [22.835, 78.25], [22.399, 78.192], [21.469, 78.188], [20.89, 78.11], [20.87, 78.081]], [[25.582, 76.707], [25.46, 76.703], [25.161, 76.567], [24.936, 76.449], [25.03, 76.439], [25.037, 76.485], [25.582, 76.707]], [[11.438, 78.545], [11.259, 78.526], [11.301, 78.558], [11.253, 78.584], [11.267, 78.613], [11.156, 78.625], [11.154, 78.661], [11.059, 78.691], [11.184, 78.727], [10.999, 78.789], [10.994, 78.834], [10.826, 78.877], [10.489, 78.896], [10.577, 78.829], [10.537, 78.774], [10.803, 78.679], [10.783, 78.663], [10.901, 78.616], [11.073, 78.456], [11.344, 78.445], [11.846, 78.302], [11.815, 78.271], [11.875, 78.235], [12.164, 78.2], [12.099, 78.288], [11.959, 78.357], [11.872, 78.402], [11.886, 78.441], [11.628, 78.464], [11.438, 78.545]], [[10.849, 79.692], [10.738, 79.679], [10.782, 79.65], [10.971, 79.656], [11.076, 79.663], [10.945, 79.719], [10.712, 79.714], [10.849, 79.692]], [[10.868, 79.772], [10.756, 79.783], [10.639, 79.75], [11.014, 79.736], [10.868, 79.772]], [[19.679, 79.371], [19.651, 79.347], [19.677, 79.338], [20.18, 79.339], [19.807, 79.401], [19.628, 79.388], [19.679, 79.371]], [[18.457, 80.238], [18.759, 80.302], [18.32, 80.362], [18.119, 80.285], [18.457, 80.238]], [[19.933, 80.477], [20.13, 80.513], [19.987, 80.537], [19.845, 80.503], [19.933, 80.477]], [[46.056, 80.441], [46.491, 80.462], [46.529, 80.472], [46.507, 80.515], [46.682, 80.517], [46.649, 80.556], [47.006, 80.552], [47.167, 80.626], [47.424, 80.589], [47.443, 80.607], [47.303, 80.657], [47.411, 80.684], [47.553, 80.669], [47.472, 80.723], [47.61, 80.721], [47.559, 80.742], [47.752, 80.766], [47.922, 80.706], [48.003, 80.71], [47.989, 80.678], [48.064, 80.659], [48.723, 80.611], [48.766, 80.646], [48.454, 80.721], [48.654, 80.75], [48.53, 80.79], [48.285, 80.826], [47.938, 80.8], [47.502, 80.856], [47.113, 80.831], [47.092, 80.825], [47.203, 80.803], [46.999, 80.753], [46.437, 80.739], [46.398, 80.732], [46.518, 80.719], [44.857, 80.616], [45.32, 80.58], [45.494, 80.519], [46.036, 80.572], [46.084, 80.551], [46.017, 80.494], [46.056, 80.441]], [[21.113, 80.649], [21.194, 80.661], [21.365, 80.679], [21.289, 80.707], [21.027, 80.688], [21.113, 80.649]], [[20.518, 80.76], [20.834, 80.674], [20.994, 80.696], [20.518, 80.76]], [[49.336, 80.732], [49.204, 80.687], [49.681, 80.717], [49.614, 80.684], [49.656, 80.675], [49.636, 80.661], [49.659, 80.641], [49.287, 80.639], [49.41, 80.606], [49.176, 80.552], [49.229, 80.532], [49.192, 80.521], [48.913, 80.526], [48.824, 80.492], [48.544, 80.505], [48.568, 80.537], [48.394, 80.566], [48.183, 80.526], [47.809, 80.52], [47.38, 80.451], [48.122, 80.467], [48.099, 80.443], [48.235, 80.423], [47.619, 80.401], [47.669, 80.367], [48.184, 80.331], [47.955, 80.321], [48.016, 80.308], [47.977, 80.301], [47.203, 80.306], [47.174, 80.354], [47.041, 80.37], [46.616, 80.291], [46.903, 80.227], [46.887, 80.194], [46.912, 80.184], [47.114, 80.164], [47.385, 80.184], [47.341, 80.211], [47.486, 80.236], [47.88, 80.245], [47.966, 80.234], [47.844, 80.208], [48.083, 80.2], [47.775, 80.174], [47.634, 80.114], [47.592, 80.081], [47.616, 80.071], [48.01, 80.084], [48.163, 80.134], [48.374, 80.087], [48.543, 80.139], [48.496, 80.198], [48.921, 80.145], [49.113, 80.183], [48.984, 80.202], [49.036, 80.24], [48.919, 80.28], [48.623, 80.3], [48.806, 80.34], [48.81, 80.376], [49.603, 80.364], [49.832, 80.409], [49.803, 80.45], [49.673, 80.476], [49.695, 80.482], [50.198, 80.522], [50.922, 80.532], [51.181, 80.621], [51.501, 80.641], [51.729, 80.681], [51.747, 80.712], [51.267, 80.785], [51.126, 80.745], [51.031, 80.773], [50.761, 80.737], [50.642, 80.763], [50.374, 80.711], [50.247, 80.747], [50.544, 80.786], [50.47, 80.804], [51.044, 80.846], [50.846, 80.917], [50.167, 80.846], [49.998, 80.859], [50.441, 80.904], [50.216, 80.925], [49.814, 80.891], [49.62, 80.839], [49.005, 80.775], [49.11, 80.766], [48.954, 80.731], [49.336, 80.732]], [[57.541, 80.74], [57.721, 80.792], [57.508, 80.839], [56.856, 80.893], [56.644, 80.94], [56.625, 80.974], [56.09, 81.038], [55.522, 81.007], [54.69, 81.124], [54.609, 81.111], [54.418, 81.006], [54.813, 81.003], [54.984, 80.95], [55.362, 80.966], [55.401, 80.957], [55.373, 80.937], [55.404, 80.921], [55.994, 80.834], [56.632, 80.807], [57.059, 80.692], [57.541, 80.74]], [[50.817, 81.161], [50.549, 81.164], [50.493, 81.157], [50.529, 81.129], [50.365, 81.118], [50.384, 81.101], [50.347, 81.09], [50.476, 81.063], [50.374, 81.019], [50.545, 81.037], [50.773, 81.039], [50.749, 81.079], [50.983, 81.101], [50.817, 81.161]], [[55.696, 80.7], [55.6, 80.659], [55.799, 80.634], [56.269, 80.648], [56.381, 80.618], [56.91, 80.657], [56.949, 80.693], [56.711, 80.75], [56.514, 80.778], [55.784, 80.758], [55.432, 80.708], [55.696, 80.7]], [[58.855, 80.64], [58.806, 80.647], [58.538, 80.606], [58.806, 80.583], [58.743, 80.614], [58.855, 80.64]], [[57.871, 80.553], [58.031, 80.607], [58.021, 80.636], [57.416, 80.642], [57.213, 80.604], [57.489, 80.549], [57.871, 80.553]], [[55.016, 80.557], [54.641, 80.528], [54.871, 80.471], [55.163, 80.495], [55.016, 80.557]], [[54.714, 80.489], [54.37, 80.406], [54.668, 80.396], [54.862, 80.438], [54.714, 80.489]], [[55.367, 80.429], [55.286, 80.451], [55.154, 80.425], [54.977, 80.417], [55.167, 80.369], [55.304, 80.388], [55.367, 80.429]], [[56.223, 80.371], [56.328, 80.389], [55.873, 80.435], [55.786, 80.407], [56.223, 80.371]], [[52.572, 80.288], [52.181, 80.272], [52.332, 80.201], [52.712, 80.168], [53.493, 80.172], [53.591, 80.237], [53.724, 80.217], [53.872, 80.257], [53.452, 80.326], [53.318, 80.371], [53.335, 80.39], [52.901, 80.407], [52.68, 80.351], [52.728, 80.318], [52.572, 80.288]], [[55.989, 80.283], [55.955, 80.257], [56.044, 80.191], [55.714, 80.101], [56.736, 80.06], [56.996, 80.068], [57.14, 80.106], [57.041, 80.153], [57.155, 80.192], [57.077, 80.253], [57.132, 80.31], [57.097, 80.343], [56.687, 80.353], [56.57, 80.322], [56.19, 80.35], [55.983, 80.331], [55.989, 80.283]], [[50.044, 79.973], [51.34, 79.915], [51.502, 79.932], [51.204, 79.995], [51.205, 80.038], [51.261, 80.055], [51.054, 80.066], [50.97, 80.1], [50.666, 80.045], [50.572, 79.984], [50.044, 79.973]], [[49.415, 80.019], [49.493, 80.019], [49.683, 80.036], [49.461, 80.093], [49.33, 80.062], [49.415, 80.019]], [[50.102, 80.136], [50.334, 80.178], [50.181, 80.227], [49.952, 80.234], [49.532, 80.152], [49.894, 80.059], [50.066, 80.059], [50.088, 80.072], [50.048, 80.081], [50.102, 80.136]], [[54.145, 80.293], [54.22, 80.25], [54.168, 80.209], [54.273, 80.212], [54.421, 80.225], [54.44, 80.299], [54.249, 80.33], [54.145, 80.293]], [[55.329, 80.344], [55.04, 80.28], [54.858, 80.252], [55.121, 80.218], [55.544, 80.294], [55.329, 80.344]], [[54.313, 80.576], [53.968, 80.609], [53.839, 80.581], [53.853, 80.552], [53.968, 80.523], [53.78, 80.469], [54.302, 80.419], [54.459, 80.486], [54.38, 80.516], [54.411, 80.536], [54.133, 80.551], [54.313, 80.576]], [[53.301, 80.598], [53.197, 80.538], [53.256, 80.504], [53.429, 80.482], [53.546, 80.522], [53.426, 80.599], [53.399, 80.627], [53.188, 80.657], [53.105, 80.62], [53.301, 80.598]], [[54.822, 80.83], [54.673, 80.866], [54.09, 80.851], [53.976, 80.817], [54.181, 80.771], [54.642, 80.78], [54.693, 80.771], [54.666, 80.734], [54.802, 80.721], [55.066, 80.734], [55.983, 80.796], [55.131, 80.894], [54.961, 80.885], [54.822, 80.83]], [[31.494, 80.111], [31.449, 80.086], [31.685, 80.078], [32.315, 80.089], [33.637, 80.213], [33.287, 80.242], [31.494, 80.111]], [[28.074, 80.144], [27.878, 80.166], [27.719, 80.158], [27.674, 80.123], [27.838, 80.11], [28.074, 80.144]], [[24.197, 80.454], [24.129, 80.393], [24.381, 80.395], [24.197, 80.454]], [[58.591, 80.961], [58.589, 80.99], [58.699, 81.026], [58.369, 81.089], [58.013, 81.107], [57.996, 81.077], [57.834, 81.045], [58.4, 80.946], [58.591, 80.961]], [[54.422, 81.27], [54.28, 81.338], [54.115, 81.347], [54.297, 81.273], [54.422, 81.27]], [[58.42, 81.559], [58.72, 81.6], [58.339, 81.611], [58.227, 81.581], [58.42, 81.559]], [[60.498, 76.181], [60.26, 76.168], [60.081, 76.166], [59.866, 76.104], [60.094, 76.096], [60.498, 76.181]], [[58.695, 75.899], [59.267, 75.969], [58.994, 75.943], [58.695, 75.899]], [[19.191, 74.364], [19.3, 74.469], [19.127, 74.524], [18.853, 74.506], [18.79, 74.476], [19.069, 74.343], [19.191, 74.364]], [[52.209, 71.306], [52.329, 71.248], [52.645, 71.219], [52.777, 71.156], [52.807, 71.086], [52.957, 71.052], [53.017, 71.0], [52.999, 70.964], [53.142, 70.978], [53.044, 71.019], [53.048, 71.067], [53.149, 71.091], [53.151, 71.132], [53.218, 71.16], [53.202, 71.184], [53.232, 71.21], [53.188, 71.224], [53.207, 71.251], [53.08, 71.252], [53.156, 71.242], [53.109, 71.231], [52.963, 71.262], [52.787, 71.312], [52.86350390625, 71.32730078125], [53.016, 71.272], [52.921, 71.36], [52.682, 71.391], [52.736, 71.351], [52.557, 71.39], [52.271, 71.349], [52.209, 71.306]], [[25.471, 71.1], [25.474, 71.067], [25.321, 71.074], [25.346, 71.059], [25.286, 71.021], [25.56, 71.012], [25.417, 70.982], [25.585, 70.922], [25.751, 70.939], [25.721, 70.955], [25.738, 70.975], [26.072, 70.972], [26.22, 71.034], [25.94, 71.001], [25.966, 71.031], [25.888, 71.045], [26.011, 71.071], [26.038, 71.105], [25.8, 71.096], [25.801, 71.153], [25.551, 71.146], [25.688, 71.091], [25.719, 71.048], [25.471, 71.1]], [[23.909, 70.951], [24.046, 70.908], [24.244, 70.952], [24.072, 70.959], [24.083, 70.984], [24.222, 70.995], [24.085, 71.003], [23.989, 71.027], [23.879, 70.988], [24.038, 70.975], [23.909, 70.951]], [[23.189, 70.789], [23.04, 70.798], [23.179, 70.733], [23.096, 70.73], [23.12, 70.704], [23.026, 70.716], [22.981, 70.659], [22.897, 70.689], [22.927, 70.722], [22.852, 70.72], [22.798, 70.738], [22.806, 70.76], [22.716, 70.742], [22.828, 70.647], [22.74, 70.64], [22.721, 70.6], [22.689, 70.654], [22.593, 70.644], [22.656, 70.684], [22.534, 70.712], [22.488, 70.693], [22.499, 70.671], [22.388, 70.709], [22.412, 70.624], [22.236, 70.676], [22.255, 70.645], [22.232, 70.632], [21.95, 70.646], [22.069, 70.629], [22.015, 70.604], [22.044, 70.582], [22.33, 70.611], [22.161, 70.519], [22.149, 70.464], [22.246, 70.484], [22.292, 70.535], [22.291, 70.499], [22.341, 70.49], [22.41, 70.519], [22.466, 70.496], [22.505, 70.529], [22.573, 70.498], [22.631, 70.519], [22.641, 70.566], [22.746, 70.557], [22.784, 70.52], [22.929, 70.545], [22.894, 70.578], [22.993, 70.562], [22.992, 70.599], [23.089, 70.581], [23.117, 70.603], [23.06, 70.625], [23.181, 70.651], [23.136, 70.656], [23.163, 70.69], [23.27, 70.678], [23.253, 70.691], [23.328, 70.71], [23.336, 70.746], [23.454, 70.765], [23.39, 70.781], [23.482, 70.792], [23.356, 70.861], [23.318, 70.86], [23.324, 70.829], [23.348, 70.789], [23.299, 70.77], [23.163, 70.823], [23.189, 70.789]], [[23.691, 70.594], [23.749, 70.522], [23.953, 70.522], [24.121, 70.599], [24.031, 70.686], [23.831, 70.695], [23.826, 70.744], [23.689, 70.74], [23.634, 70.696], [23.691, 70.662], [23.646, 70.594], [23.691, 70.594]], [[23.3, 70.546], [23.324, 70.524], [23.273, 70.47], [23.261, 70.532], [23.19, 70.548], [23.179, 70.53], [23.223, 70.516], [23.158, 70.49], [23.085, 70.512], [22.896, 70.448], [22.949, 70.405], [22.851, 70.406], [23.042, 70.338], [23.134, 70.411], [23.07, 70.309], [23.12, 70.279], [23.372, 70.312], [23.295, 70.332], [23.424, 70.348], [23.657, 70.451], [23.631, 70.486], [23.653, 70.501], [23.579, 70.52], [23.592, 70.583], [23.567, 70.614], [23.389, 70.62], [23.54, 70.542], [23.3, 70.546]], [[22.755, 70.389], [22.715, 70.329], [22.664, 70.391], [22.597, 70.363], [22.463, 70.37], [22.502, 70.322], [22.434, 70.354], [22.369, 70.334], [22.438, 70.292], [22.779, 70.249], [23.019, 70.253], [22.98, 70.294], [22.922, 70.298], [22.948, 70.328], [22.809, 70.339], [22.755, 70.389]], [[21.841, 70.334], [21.832, 70.354], [21.706, 70.387], [21.684, 70.319], [21.75, 70.26], [21.841, 70.334]], [[19.988, 70.058], [20.033, 70.07], [20.031, 70.095], [20.154, 70.109], [19.972, 70.145], [19.879, 70.212], [19.81, 70.169], [19.674, 70.288], [19.577, 70.261], [19.536, 70.243], [19.707, 70.176], [19.77, 70.065], [19.988, 70.058]], [[20.575, 70.106], [20.604, 70.079], [20.594, 70.044], [20.795, 70.06], [20.771, 70.116], [20.824, 70.209], [20.716, 70.236], [20.546, 70.215], [20.43, 70.184], [20.389, 70.089], [20.516, 70.058], [20.575, 70.106]], [[20.971, 69.976], [21.103, 70.005], [20.981, 69.994], [20.808, 70.043], [20.758, 69.99], [20.824, 69.937], [20.953, 69.946], [20.971, 69.976]], [[19.834, 69.999], [19.459, 69.842], [19.783, 69.868], [19.897, 69.967], [19.834, 69.999]], [[19.513, 70.052], [19.394, 69.989], [19.294, 70.031], [19.316, 70.082], [19.219, 70.064], [19.219, 70.096], [19.111, 70.06], [19.066, 70.074], [19.117, 70.03], [19.085, 70.014], [19.026, 70.037], [18.836, 70.006], [18.931, 69.963], [18.884, 69.939], [18.721, 69.934], [18.955, 69.87], [19.1, 69.791], [19.18, 69.792], [19.395, 69.828], [19.532, 69.948], [19.681, 69.976], [19.69, 70.0], [19.635, 70.02], [19.572, 69.994], [19.583, 70.036], [19.513, 70.052]], [[18.664, 69.873], [18.688, 69.827], [18.787, 69.78], [18.736, 69.716], [18.751, 69.683], [18.656, 69.711], [18.65, 69.799], [18.546, 69.797], [18.5, 69.743], [18.477, 69.777], [18.387, 69.794], [18.324, 69.774], [18.352, 69.723], [18.632, 69.69], [18.197, 69.709], [18.28, 69.636], [18.4, 69.636], [18.286, 69.587], [18.278, 69.616], [18.163, 69.639], [18.032, 69.628], [17.997, 69.588], [18.191, 69.53], [18.643, 69.579], [18.762, 69.563], [18.846, 69.598], [18.767, 69.635], [18.794, 69.672], [19.065, 69.766], [19.015, 69.818], [18.918, 69.842], [18.84, 69.844], [18.858, 69.866], [18.804, 69.883], [18.664, 69.873]], [[17.664, 69.534], [17.696, 69.513], [17.646, 69.497], [17.469, 69.598], [17.474, 69.541], [17.551, 69.53], [17.634, 69.458], [17.34, 69.532], [17.302, 69.526], [17.39, 69.477], [17.296, 69.461], [17.186, 69.497], [17.261, 69.444], [17.491, 69.427], [17.285, 69.411], [17.398, 69.362], [17.203, 69.404], [16.939, 69.397], [16.876, 69.356], [17.086, 69.357], [17.111, 69.347], [17.044, 69.339], [17.132, 69.308], [16.897, 69.3], [17.005, 69.296], [16.983, 69.273], [17.057, 69.258], [17.095, 69.281], [17.108, 69.245], [17.143, 69.249], [17.108, 69.224], [16.876, 69.221], [16.921, 69.209], [16.896, 69.192], [17.174, 69.196], [17.064, 69.158], [17.057, 69.131], [16.891, 69.121], [16.892, 69.095], [16.801, 69.116], [16.773, 69.07], [16.812, 69.05], [17.136, 69.075], [17.038, 69.022], [17.093, 69.004], [17.21, 69.028], [17.168, 69.061], [17.469, 69.2], [17.526, 69.196], [17.499, 69.151], [17.995, 69.186], [17.876, 69.24], [17.969, 69.257], [17.905, 69.316], [18.097, 69.353], [18.086, 69.416], [18.031, 69.444], [18.003, 69.405], [17.948, 69.422], [17.995, 69.452], [17.98, 69.477], [18.053, 69.491], [17.964, 69.523], [17.823, 69.45], [17.885, 69.524], [17.879, 69.557], [17.829, 69.588], [17.76, 69.536], [17.663, 69.597], [17.664, 69.534]], [[17.359, 68.987], [17.564, 69.09], [17.383, 69.051], [17.359, 68.987]], [[16.607, 68.935], [16.563, 68.965], [16.501, 68.95], [16.346, 68.989], [16.261, 68.967], [16.492, 68.882], [16.587, 68.888], [16.607, 68.935]], [[17.079, 68.904], [17.156, 68.864], [17.21, 68.791], [17.438, 68.865], [17.297, 68.92], [17.204, 68.909], [17.272, 68.85], [17.113, 68.917], [17.079, 68.904]], [[17.013, 68.853], [16.839, 68.766], [16.814, 68.723], [17.148, 68.769], [17.013, 68.853]], [[16.293, 68.837], [16.204, 68.855], [16.087, 68.814], [16.213, 68.734], [16.059, 68.723], [16.038, 68.696], [16.083, 68.677], [16.083, 68.637], [15.976, 68.666], [15.819, 68.612], [15.809, 68.554], [15.739, 68.526], [15.789, 68.558], [15.767, 68.621], [15.94, 68.684], [15.988, 68.757], [15.94, 68.786], [15.763, 68.733], [15.876, 68.792], [15.929, 68.886], [15.896, 68.913], [15.909, 68.957], [15.636, 68.947], [15.598, 68.906], [15.623, 68.884], [15.55, 68.854], [15.639, 68.818], [15.459, 68.808], [15.452, 68.762], [15.646, 68.739], [15.714, 68.699], [15.59, 68.729], [15.452, 68.73], [15.436, 68.704], [15.466, 68.653], [15.632, 68.606], [15.438, 68.616], [15.45, 68.595], [15.391, 68.599], [15.452, 68.552], [15.362, 68.588], [15.313, 68.55], [15.213, 68.557], [15.182, 68.522], [15.336, 68.485], [15.249, 68.469], [15.359, 68.457], [15.229, 68.45], [15.006, 68.308], [14.987, 68.247], [15.23, 68.336], [15.195, 68.355], [15.554, 68.466], [15.542, 68.507], [15.611, 68.473], [15.328, 68.33], [15.521, 68.334], [15.624, 68.296], [15.704, 68.346], [15.661, 68.365], [15.729, 68.371], [15.746, 68.421], [15.814, 68.392], [15.773, 68.428], [15.856, 68.432], [15.868, 68.489], [15.869, 68.364], [15.911, 68.364], [15.96, 68.381], [16.099, 68.534], [16.493, 68.548], [16.488, 68.599], [16.559, 68.639], [16.535, 68.679], [16.574, 68.702], [16.518, 68.747], [16.556, 68.774], [16.493, 68.788], [16.553, 68.822], [16.443, 68.816], [16.446, 68.844], [16.249, 68.902], [16.293, 68.837]], [[16.094, 68.397], [16.121, 68.376], [16.406, 68.411], [16.379, 68.447], [16.465, 68.461], [16.4, 68.521], [16.327, 68.534], [16.141, 68.479], [16.118, 68.431], [16.17, 68.423], [16.094, 68.397]], [[14.771, 68.311], [14.721, 68.252], [14.771, 68.257], [14.977, 68.336], [14.946, 68.345], [15.002, 68.375], [15.026, 68.355], [15.169, 68.451], [14.896, 68.429], [14.886, 68.376], [14.769, 68.346], [14.829, 68.394], [14.759, 68.429], [14.706, 68.422], [14.708, 68.377], [14.64, 68.426], [14.542, 68.401], [14.578, 68.361], [14.513, 68.384], [14.384, 68.367], [14.502, 68.303], [14.44, 68.316], [14.408, 68.277], [14.317, 68.315], [14.295, 68.281], [14.33, 68.261], [14.256, 68.242], [14.356, 68.237], [14.207, 68.206], [14.2, 68.152], [14.533, 68.201], [14.66, 68.25], [14.625, 68.259], [14.699, 68.287], [14.711, 68.334], [14.771, 68.311]], [[13.514, 68.235], [13.634, 68.214], [13.477, 68.184], [13.525, 68.169], [13.478, 68.162], [13.516, 68.154], [13.483, 68.126], [13.587, 68.154], [13.45, 68.067], [13.533, 68.042], [13.562, 68.073], [13.543, 68.098], [13.595, 68.121], [13.686, 68.062], [13.716, 68.071], [13.717, 68.121], [13.845, 68.108], [13.837, 68.136], [13.771, 68.149], [14.029, 68.174], [14.136, 68.239], [13.66, 68.286], [13.514, 68.235]], [[13.226, 68.088], [13.164, 68.047], [13.163, 68.011], [13.196, 68.037], [13.239, 67.985], [13.319, 68.027], [13.361, 68.008], [13.437, 68.119], [13.299, 68.15], [13.278, 68.121], [13.337, 68.066], [13.226, 68.088]], [[15.923, 67.985], [15.712, 68.015], [15.499, 67.988], [15.923, 67.985]], [[13.099, 68.052], [13.156, 68.081], [13.055, 68.102], [13.068, 68.072], [12.938, 68.001], [12.846, 67.849], [12.785, 67.808], [13.013, 67.871], [13.047, 67.913], [12.96, 67.93], [12.98, 67.968], [13.105, 67.935], [13.128, 67.981], [13.107, 68.023], [13.048, 68.024], [13.121, 68.035], [13.099, 68.052]], [[15.063, 67.97], [14.963, 67.939], [14.932, 67.924], [15.144, 67.898], [15.304, 67.92], [15.063, 67.97]], [[15.301, 68.769], [15.282, 68.799], [15.348, 68.799], [15.383, 68.845], [15.238, 68.824], [15.293, 68.912], [15.191, 68.875], [15.239, 68.908], [15.15, 68.957], [15.172, 68.98], [15.132, 69.011], [15.035, 68.993], [15.004, 68.957], [15.149, 68.812], [15.051, 68.85], [15.001, 68.796], [14.952, 68.861], [14.905, 68.842], [14.951, 68.806], [14.902, 68.754], [14.869, 68.791], [14.708, 68.749], [14.674, 68.759], [14.682, 68.821], [14.645, 68.828], [14.608, 68.8], [14.643, 68.785], [14.595, 68.767], [14.622, 68.733], [14.568, 68.744], [14.529, 68.805], [14.439, 68.754], [14.539, 68.732], [14.371, 68.684], [14.383, 68.657], [14.428, 68.671], [14.409, 68.635], [14.429, 68.611], [14.501, 68.602], [14.62, 68.623], [14.678, 68.707], [14.744, 68.659], [14.808, 68.709], [14.823, 68.667], [15.067, 68.738], [14.997, 68.762], [15.15, 68.749], [15.158, 68.695], [14.804, 68.618], [14.864, 68.584], [15.086, 68.584], [15.381, 68.667], [15.403, 68.708], [15.273, 68.758], [15.301, 68.769]], [[15.573, 68.966], [15.542, 69.012], [15.624, 68.981], [15.864, 69.026], [16.089, 69.158], [16.154, 69.276], [16.112, 69.313], [15.863, 69.244], [15.774, 69.146], [15.56, 69.095], [15.423, 68.979], [15.431, 68.923], [15.415, 68.902], [15.453, 68.875], [15.523, 68.906], [15.573, 68.966]], [[18.728, 70.132], [18.659, 70.044], [18.71, 70.043], [18.676, 70.014], [18.709, 69.99], [18.793, 70.027], [19.003, 70.084], [18.937, 70.12], [18.821, 70.073], [18.728, 70.132]], [[19.248, 70.246], [19.135, 70.246], [19.135, 70.215], [19.177, 70.21], [19.135, 70.164], [19.108, 70.185], [19.034, 70.161], [19.127, 70.122], [19.233, 70.133], [19.261, 70.178], [19.232, 70.217], [19.248, 70.246]], [[19.618, 70.113], [19.413, 70.179], [19.364, 70.123], [19.618, 70.113]], [[20.729, 69.818], [20.703, 69.866], [20.73, 69.909], [20.593, 69.894], [20.556, 69.851], [20.564, 69.808], [20.729, 69.818]], [[56.842, 70.599], [56.93, 70.569], [56.897, 70.556], [56.976, 70.512], [57.106, 70.491], [57.138, 70.501], [57.035, 70.541], [57.225, 70.527], [56.842, 70.599]], [[29.842, 69.91], [29.81, 69.874], [29.824, 69.829], [29.731, 69.759], [30.109, 69.827], [30.023, 69.831], [30.003, 69.885], [29.842, 69.91]], [[48.266, 69.123], [48.212, 69.056], [48.259, 69.037], [48.211, 68.996], [48.267, 68.976], [48.228, 68.954], [48.218, 68.888], [48.33, 68.881], [48.295, 68.859], [48.59, 68.729], [48.719, 68.753], [48.776, 68.723], [48.931, 68.737], [49.436, 68.809], [49.691, 68.878], [49.908, 68.992], [49.851, 69.012], [49.959, 69.076], [50.224, 69.15], [50.119, 69.041], [50.113, 68.995], [50.143, 68.993], [50.331, 69.125], [50.104, 69.281], [49.313, 69.496], [49.019, 69.51], [48.608, 69.435], [48.313, 69.279], [48.269, 69.215], [48.266, 69.123]], [[58.761, 69.334], [59.045, 69.248], [59.234, 69.147], [59.237, 69.182], [59.18, 69.209], [59.194, 69.234], [58.761, 69.334]], [[33.973, 69.366], [34.409, 69.345], [34.213, 69.403], [33.973, 69.366]], [[42.63, 66.687], [42.721, 66.709], [42.606, 66.786], [42.435, 66.767], [42.63, 66.687]], [[35.554, 65.175], [35.525, 65.127], [35.611, 65.058], [35.716, 65.042], [35.739, 64.968], [35.86, 64.999], [35.862, 65.038], [35.776, 65.065], [35.811, 65.105], [35.863, 65.065], [35.841, 65.162], [35.697, 65.193], [35.602, 65.15], [35.579, 65.159], [35.598, 65.177], [35.554, 65.175]], [[39.975, 64.683], [40.199, 64.592], [40.479, 64.573], [40.349, 64.758], [40.141, 64.75], [40.267, 64.701], [40.292, 64.654], [40.245, 64.638], [40.077, 64.694], [39.975, 64.683]], [[50.984, 68.458], [50.795, 68.379], [51.499, 68.483], [51.164, 68.495], [50.984, 68.458]], [[57.865, 68.762], [57.884, 68.772], [57.863, 68.787], [57.921, 68.803], [57.677, 68.785], [57.331, 68.762], [57.2, 68.719], [57.488, 68.764], [57.865, 68.762]]]]}}