{"type": "Feature", "properties": {"geometry_method": "target polygon used as intended model envelope", "geometry_confidence": "medium"}, "geometry": {"type": "MultiPolygon", "coordinates": [[[[-165.962, 61.555], [-165.809, 61.531], [-165.987, 61.52], [-166.098, 61.523], [-165.962, 61.555]]], [[[-155.404, 75.854], [-156.493, 75.134], [-156.702, 74.933], [-156.758, 73.711], [-156.737, 71.328], [-157.275, 71.049], [-157.88, 70.856], [-158.161, 70.825], [-158.508, 70.849], [-158.339, 70.817], [-158.681, 70.786], [-159.077, 70.814], [-158.987, 70.781], [-159.278, 70.757], [-159.217, 70.688], [-159.319, 70.732], [-159.306, 70.762], [-159.446, 70.777], [-159.139, 70.824], [-159.182, 70.854], [-159.369, 70.844], [-159.179, 70.881], [-159.668, 70.798], [-159.843, 70.714], [-159.816, 70.708], [-160.119, 70.626], [-160.118, 70.605], [-159.938, 70.633], [-159.73, 70.493], [-159.286, 70.531], [-159.674, 70.467], [-159.814, 70.496], [-159.887, 70.392], [-159.77, 70.192], [-159.904, 70.281], [-159.941, 70.364], [-160.129, 70.318], [-159.92, 70.484], [-160.199, 70.472], [-159.92, 70.539], [-159.948, 70.542], [-159.937, 70.593], [-160.112, 70.573], [-160.164, 70.59], [-160.15, 70.605], [-160.476, 70.475], [-160.811, 70.385], [-160.596, 70.436], [-160.751, 70.377], [-160.982, 70.32], [-160.949, 70.29], [-161.037, 70.318], [-161.306, 70.258], [-161.613, 70.256], [-161.734, 70.207], [-161.7, 70.193], [-162.119, 70.152], [-162.023, 70.19], [-161.867, 70.177], [-161.839, 70.189], [-161.855, 70.22], [-161.754, 70.228], [-161.896, 70.256], [-161.699, 70.261], [-161.84, 70.277], [-161.859, 70.318], [-161.942, 70.307], [-162.213, 70.152], [-162.355, 70.108], [-162.365, 70.052], [-162.486, 70.047], [-162.485, 69.999], [-162.521, 69.966], [-163.004, 69.753], [-163.026, 69.729], [-162.933, 69.702], [-162.965, 69.675], [-163.051, 69.687], [-163.067, 69.667], [-163.033, 69.654], [-163.062, 69.644], [-163.026, 69.621], [-163.145, 69.602], [-163.062, 69.556], [-163.07, 69.498], [-163.11, 69.489], [-163.12, 69.385], [-163.271, 69.294], [-163.156, 69.418], [-163.184, 69.419], [-163.274, 69.311], [-163.6, 69.125], [-163.937, 69.002], [-164.325, 68.931], [-165.446, 68.86], [-166.216, 68.883], [-166.236, 68.865], [-166.189, 68.757], [-166.226, 68.572], [-166.367, 68.439], [-166.312, 68.399], [-166.412, 68.411], [-166.372, 68.39], [-166.451, 68.396], [-166.556, 68.352], [-166.757, 68.363], [-166.464, 68.417], [-166.828, 68.351], [-166.288, 68.292], [-165.867, 68.116], [-165.361, 68.039], [-164.124, 67.61], [-163.831, 67.367], [-163.783, 67.275], [-163.763, 67.131], [-163.722, 67.111], [-162.876, 66.998], [-162.847, 67.007], [-162.954, 67.037], [-162.745, 67.055], [-162.568, 67.009], [-162.372, 67.143], [-162.432, 67.157], [-162.351, 67.161], [-162.332, 67.145], [-162.461, 66.992], [-162.296, 67.003], [-162.317, 67.032], [-162.288, 67.042], [-162.298, 67.069], [-162.257, 67.058], [-162.234, 67.007], [-161.868, 67.052], [-161.501, 66.979], [-161.507, 66.952], [-161.726, 66.949], [-161.72, 66.925], [-161.8, 66.9], [-161.799, 66.846], [-161.888, 66.8], [-161.865, 66.765], [-161.898, 66.728], [-161.708, 66.625], [-161.544, 66.592], [-161.572, 66.564], [-161.507, 66.534], [-161.28, 66.54], [-161.164, 66.642], [-160.878, 66.666], [-160.556, 66.587], [-160.49, 66.626], [-160.24, 66.644], [-160.316, 66.634], [-160.321, 66.603], [-160.209, 66.518], [-160.239, 66.396], [-160.638, 66.365], [-160.822, 66.378], [-161.08, 66.492], [-161.158, 66.496], [-161.186, 66.539], [-161.342, 66.483], [-161.601, 66.448], [-161.885, 66.538], [-162.075, 66.658], [-162.074, 66.707], [-162.015, 66.777], [-162.117, 66.8], [-162.308, 66.949], [-162.439, 66.924], [-162.481, 66.956], [-162.521, 66.915], [-162.634, 66.903], [-162.636, 66.869], [-162.53, 66.799], [-162.501, 66.738], [-162.224, 66.711], [-161.906, 66.535], [-161.871, 66.496], [-161.872, 66.437], [-161.962, 66.333], [-161.91, 66.274], [-161.856, 66.282], [-161.919, 66.325], [-161.91, 66.366], [-161.721, 66.404], [-161.52, 66.402], [-161.127, 66.34], [-161.002, 66.252], [-161.003, 66.204], [-161.064, 66.133], [-161.176, 66.117], [-161.108, 66.135], [-161.111, 66.2], [-161.076, 66.235], [-161.262, 66.222], [-161.34, 66.236], [-161.358, 66.269], [-161.531, 66.268], [-161.782, 66.079], [-161.723, 66.081], [-161.838, 66.013], [-161.791, 65.991], [-161.816, 65.975], [-161.913, 65.978], [-161.909, 66.019], [-161.972, 66.011], [-161.916, 66.039], [-162.152, 66.077], [-162.355, 66.033], [-162.477, 66.064], [-162.631, 66.04], [-162.665, 65.997], [-162.691, 66.021], [-162.672, 66.053], [-162.758, 66.107], [-163.135, 66.066], [-163.364, 66.092], [-163.656, 66.071], [-163.831, 66.112], [-163.922, 66.208], [-163.965, 66.182], [-164.188, 66.196], [-163.953, 66.228], [-163.854, 66.277], [-163.894, 66.392], [-163.771, 66.476], [-163.755, 66.518], [-163.783, 66.561], [-163.938, 66.581], [-163.625, 66.567], [-163.934, 66.609], [-164.354, 66.595], [-164.717, 66.549], [-164.95, 66.46], [-165.033, 66.394], [-165.074, 66.435], [-165.145, 66.445], [-165.448, 66.407], [-165.766, 66.318], [-165.887, 66.24], [-165.501, 66.145], [-165.807, 66.103], [-166.081, 66.124], [-166.159, 66.147], [-166.085, 66.146], [-166.137, 66.167], [-166.267, 66.179], [-166.715, 66.062], [-166.809, 66.006], [-166.794, 65.981], [-166.877, 65.988], [-166.836, 66.01], [-166.965, 65.973], [-166.873, 65.934], [-167.046, 65.876], [-167.168, 65.857], [-167.289, 65.904], [-167.354, 65.887], [-167.518, 65.825], [-167.456, 65.804], [-167.572, 65.797], [-167.499, 65.769], [-167.518, 65.73], [-167.817, 65.718], [-167.85, 65.682], [-168.059, 65.641], [-168.032, 65.689], [-167.854, 65.762], [-168.122, 65.674], [-168.129, 65.643], [-168.065, 65.58], [-167.703, 65.511], [-167.457, 65.419], [-166.799, 65.346], [-166.651, 65.338], [-166.938, 65.379], [-166.627, 65.364], [-166.059, 65.256], [-166.046, 65.241], [-166.12, 65.236], [-166.374, 65.269], [-166.484, 65.235], [-166.473, 65.177], [-166.612, 65.121], [-166.9208862808926, 65.14575050327664], [-166.885, 65.108], [-166.715, 65.051], [-166.698, 64.993], [-166.455, 64.904], [-166.527, 64.947], [-166.422, 64.919], [-166.387, 64.891], [-166.414, 64.838], [-166.384, 64.826], [-166.473, 64.802], [-166.49, 64.735], [-166.374, 64.639], [-166.121, 64.575], [-165.029, 64.444], [-164.767, 64.475], [-164.92, 64.457], [-164.893, 64.473], [-164.962, 64.496], [-164.928, 64.534], [-164.89, 64.486], [-164.815, 64.517], [-164.657, 64.519], [-164.744, 64.493], [-164.724, 64.485], [-164.357, 64.58], [-164.263, 64.577], [-164.385, 64.564], [-163.822, 64.589], [-163.49, 64.553], [-163.283, 64.487], [-163.176, 64.407], [-163.127, 64.417], [-163.112, 64.464], [-163.037, 64.516], [-163.154, 64.514], [-163.388, 64.593], [-163.154, 64.657], [-163.144, 64.62], [-163.029, 64.579], [-163.051, 64.552], [-162.958, 64.551], [-162.827, 64.496], [-162.87, 64.458], [-162.79, 64.336], [-162.632, 64.387], [-162.62, 64.481], [-162.521, 64.546], [-162.248, 64.624], [-162.179, 64.686], [-162.067, 64.697], [-162.114, 64.716], [-161.888, 64.711], [-161.795, 64.757], [-161.945, 64.724], [-161.715, 64.788], [-161.801, 64.822], [-161.548, 64.746], [-161.375, 64.788], [-161.195, 64.935], [-160.996, 64.942], [-161.071, 64.911], [-161.156, 64.923], [-160.889, 64.818], [-160.784, 64.722], [-160.818, 64.616], [-160.954, 64.557], [-161.087, 64.546], [-161.002, 64.522], [-161.018, 64.509], [-161.4, 64.535], [-161.467, 64.507], [-161.473, 64.456], [-161.538, 64.386], [-161.451, 64.428], [-161.194, 64.416], [-161.256, 64.398], [-161.18, 64.385], [-161.203, 64.367], [-160.946, 64.222], [-160.941, 64.068], [-160.785, 63.881], [-160.764, 63.787], [-160.794, 63.732], [-160.962, 63.626], [-161.176, 63.502], [-161.449, 63.457], [-161.673, 63.468], [-162.155, 63.426], [-162.014, 63.482], [-162.312, 63.541], [-162.273, 63.489], [-162.641, 63.248], [-162.818, 63.209], [-162.848, 63.158], [-163.061, 63.06], [-163.342, 63.022], [-163.442, 63.094], [-163.539, 63.106], [-163.803, 62.984], [-163.799, 63.015], [-163.54, 63.123], [-163.579, 63.14], [-163.662, 63.112], [-163.632, 63.143], [-163.725, 63.215], [-164.145, 63.26], [-164.411, 63.212], [-164.59, 63.128], [-164.535, 63.085], [-164.361, 63.066], [-164.318, 63.007], [-164.692, 63.022], [-164.878, 62.836], [-164.762, 62.794], [-164.887, 62.781], [-164.792, 62.612], [-164.479, 62.746], [-164.642, 62.635], [-164.855, 62.565], [-164.791, 62.541], [-164.833, 62.482], [-164.7, 62.476], [-164.634, 62.511], [-164.678, 62.465], [-164.59, 62.456], [-164.574, 62.425], [-164.752, 62.372], [-164.608, 62.432], [-164.851, 62.471], [-164.867, 62.535], [-165.037, 62.539], [-165.267, 62.435], [-165.574, 62.184], [-165.68, 62.135], [-165.747, 62.041], [-165.756, 61.993], [-165.71, 61.926], [-165.589, 61.851], [-166.099, 61.816], [-166.0, 61.727], [-165.762, 61.689], [-166.137, 61.635], [-166.156, 61.717], [-166.198, 61.589], [-166.136, 61.517], [-173.669, 61.447], [-180.147, 61.516], [-180.34, 61.678], [-180.557, 62.382], [-180.641, 62.5], [-180.588, 62.53], [-180.547, 62.617], [-180.424, 62.62], [-180.429, 62.658], [-180.381, 62.691], [-180.449, 62.844], [-180.675, 62.899], [-180.749, 62.993], [-180.692, 63.052], [-180.578, 63.052], [-180.571, 63.133], [-180.743, 63.228], [-180.836, 63.227], [-180.943, 63.283], [-181.056, 63.292], [-181.079, 63.329], [-181.159, 63.335], [-181.182, 63.385], [-181.134, 63.4], [-180.981, 63.315], [-181.157, 63.468], [-181.213, 63.593], [-181.236, 63.536], [-181.148, 63.43], [-181.298, 63.381], [-181.396, 63.408], [-181.262, 63.475], [-181.274, 63.571], [-181.489, 63.577], [-181.616, 63.515], [-181.724, 63.561], [-181.632, 63.625], [-181.486, 63.59], [-181.451, 63.619], [-181.469, 63.64], [-181.376, 63.621], [-181.356, 63.584], [-181.25, 63.602], [-181.34, 63.623], [-181.392, 63.672], [-181.22, 63.624], [-181.329, 63.961], [-181.346, 63.94], [-181.455, 63.973], [-181.609, 63.971], [-181.495, 63.984], [-181.606, 63.995], [-181.522, 64.062], [-181.396, 64.029], [-181.545, 64.158], [-181.70004677992503, 64.35115883756025], [-181.755, 64.307], [-181.909, 64.257], [-181.807, 64.202], [-182.03, 64.214], [-182.323, 64.302], [-182.548, 64.426], [-182.599, 64.49], [-182.624, 64.556], [-182.533, 64.645], [-182.496, 64.754], [-182.635, 64.775], [-183.009, 64.699], [-183.252, 64.562], [-183.292, 64.618], [-183.506, 64.69], [-183.649, 64.623], [-183.775, 64.618], [-183.877, 64.533], [-183.834, 64.63], [-183.676, 64.654], [-183.562, 64.708], [-183.684, 64.772], [-183.783, 64.873], [-183.951, 64.903], [-184.157, 64.784], [-184.283, 64.755], [-184.933, 64.738], [-185.344, 64.664], [-185.549, 64.687], [-185.291, 64.676], [-184.934, 64.761], [-184.255, 64.782], [-183.926, 64.946], [-183.579, 64.853], [-183.557, 64.803], [-183.453, 64.814], [-183.352, 64.868], [-183.109, 64.844], [-183.054, 64.794], [-182.95, 64.769], [-182.682, 64.826], [-182.763, 64.856], [-182.743, 64.881], [-182.773, 64.911], [-183.022, 65.035], [-183.419, 64.993], [-183.683, 65.048], [-183.6, 65.051], [-183.604, 65.081], [-183.565, 65.085], [-183.405, 65.022], [-183.086, 65.082], [-182.819, 65.023], [-182.732, 64.933], [-182.554, 64.923], [-182.499, 64.848], [-182.596, 64.833], [-182.348, 64.742], [-182.376, 64.716], [-182.064, 64.704], [-181.989, 64.663], [-181.743, 64.68], [-181.713, 64.663], [-181.732, 64.65], [-181.234, 64.688], [-181.292, 64.637], [-181.503, 64.606], [-181.362, 64.604], [-180.841, 64.784], [-180.519, 64.813], [-180.201, 65.015], [-179.726, 65.152], [-179.57, 65.262], [-179.542, 65.422], [-179.327, 65.524], [-179.371, 65.592], [-179.327, 65.626], [-179.736, 65.789], [-179.798, 65.871], [-179.815, 65.987], [-179.762, 66.117], [-179.696, 66.183], [-179.577, 66.147], [-179.687, 66.139], [-179.635, 66.117], [-179.288, 66.164], [-179.242, 66.197], [-179.424, 66.343], [-179.165, 66.288], [-179.176, 66.415], [-179.114, 66.376], [-179.08, 66.309], [-179.125, 66.247], [-179.021, 66.176], [-178.9, 66.172], [-178.777, 66.208], [-178.643, 66.323], [-178.637, 66.374], [-178.588, 66.364], [-178.517, 66.403], [-178.496, 66.304], [-178.538, 66.262], [-178.522, 66.221], [-178.571, 66.188], [-178.542, 66.163], [-178.593, 66.123], [-178.671, 66.117], [-178.708, 66.02], [-178.796, 65.99], [-178.977, 66.045], [-178.864, 65.941], [-178.901, 65.913], [-178.872, 65.887], [-178.633, 65.771], [-178.655, 65.761], [-178.46, 65.736], [-178.454, 65.696], [-178.54, 65.612], [-178.519, 65.572], [-178.572, 65.548], [-178.563, 65.516], [-178.37, 65.476], [-177.5, 65.486], [-177.218, 65.592], [-177.068, 65.61], [-176.572, 65.557], [-176.327, 65.491], [-176.093, 65.49], [-175.931, 65.402], [-175.938, 65.352], [-175.882, 65.307], [-175.919, 65.279], [-175.781, 65.161], [-175.813, 65.059], [-175.923, 65.014], [-175.804, 64.954], [-175.634, 64.923], [-175.531, 64.854], [-175.416, 64.846], [-175.512, 64.82], [-175.489, 64.782], [-175.016, 64.783], [-175.031, 64.853], [-175.008, 64.873], [-174.985, 64.853], [-175.006, 64.813], [-174.971, 64.801], [-174.417, 64.658], [-174.29, 64.664], [-174.343, 64.631], [-174.132, 64.56], [-174.051, 64.424], [-173.682, 64.347], [-173.473, 64.392], [-173.365, 64.462], [-173.351, 64.497], [-173.413, 64.62], [-173.287, 64.524], [-173.312, 64.449], [-173.264, 64.442], [-173.396, 64.383], [-173.436, 64.325], [-173.191, 64.254], [-172.993, 64.282], [-172.895, 64.338], [-172.906, 64.422], [-172.879, 64.445], [-173.068, 64.474], [-173.02, 64.499], [-172.821, 64.525], [-172.761, 64.469], [-172.796, 64.419], [-172.631, 64.389], [-172.291, 64.431], [-172.432, 64.499], [-172.462, 64.555], [-172.791, 64.625], [-173.022, 64.586], [-172.863, 64.669], [-172.904, 64.686], [-173.089, 64.663], [-172.863, 64.715], [-172.776, 64.79], [-172.978, 64.846], [-173.201, 64.786], [-172.999, 64.872], [-172.782, 64.851], [-172.541, 64.925], [-172.465, 64.92], [-172.126, 65.086], [-172.209, 65.08], [-172.254, 65.134], [-172.183, 65.138], [-172.307, 65.217], [-172.614, 65.213], [-172.702, 65.249], [-172.349, 65.269], [-172.247, 65.23], [-172.255, 65.353], [-172.149, 65.495], [-172.29, 65.436], [-172.416, 65.425], [-172.47, 65.469], [-172.326, 65.484], [-172.431, 65.532], [-172.398, 65.592], [-172.671, 65.623], [-172.691, 65.641], [-172.66, 65.668], [-172.855, 65.694], [-172.646, 65.703], [-172.353, 65.668], [-172.373, 65.636], [-172.289, 65.587], [-172.327, 65.553], [-172.221, 65.535], [-172.095, 65.564], [-172.036, 65.533], [-171.813, 65.517], [-172.083, 65.484], [-171.393, 65.538], [-171.116, 65.476], [-171.05, 65.496], [-171.024, 65.593], [-171.283, 65.664], [-171.373, 65.726], [-171.314, 65.727], [-171.432, 65.759], [-171.544, 65.834], [-171.384, 65.805], [-171.195, 65.698], [-170.887, 65.624], [-170.636, 65.611], [-170.529, 65.673], [-170.529, 65.727], [-170.565, 65.759], [-170.515, 65.825], [-170.613, 65.855], [-170.116, 66.025], [-169.987, 66.036], [-169.776, 65.993], [-169.691, 66.072], [-169.709, 66.131], [-169.951, 66.178], [-170.04, 66.19], [-169.908, 66.151], [-170.153, 66.172], [-170.216, 66.142], [-170.329, 66.177], [-170.136, 66.206], [-170.314, 66.305], [-170.645, 66.237], [-170.552, 66.276], [-170.568, 66.296], [-170.418, 66.319], [-170.584, 66.358], [-170.88, 66.514], [-171.343, 66.651], [-171.442, 66.715], [-171.393, 66.748], [-171.411, 66.77], [-171.592, 66.801], [-171.709, 66.857], [-171.688, 66.933], [-171.726, 66.955], [-171.898, 66.951], [-171.955, 66.99], [-172.052, 66.956], [-172.328, 66.962], [-172.783, 67.022], [-172.485, 67.0], [-172.655, 67.028], [-173.049, 67.058], [-173.067, 67.033], [-172.431, 66.934], [-172.82, 66.909], [-173.067, 66.94], [-173.136, 66.997], [-173.219, 66.982], [-173.227, 66.936], [-173.28, 66.92], [-173.216, 66.917], [-173.209, 66.881], [-173.154, 66.852], [-173.352, 66.839], [-173.363, 66.869], [-173.328, 66.883], [-173.365, 66.912], [-173.33, 66.925], [-173.353, 66.972], [-173.19, 67.013], [-173.296, 67.03], [-173.306, 67.062], [-173.126, 67.058], [-173.438, 67.088], [-173.5, 67.038], [-173.537, 67.051], [-173.492, 67.084], [-173.511, 67.096], [-173.667, 67.132], [-173.828, 67.087], [-174.432, 67.103], [-174.652, 67.064], [-174.417, 67.081], [-174.577, 67.037], [-174.285, 67.058], [-174.256, 67.016], [-174.313, 66.989], [-174.125, 66.989], [-174.024, 66.843], [-174.003, 66.698], [-173.957, 66.679], [-174.303, 66.578], [-173.911, 66.514], [-173.759, 66.448], [-173.784, 66.369], [-173.942, 66.341], [-173.855, 66.319], [-173.985, 66.263], [-174.023, 66.211], [-174.088, 66.254], [-174.071, 66.321], [-173.979, 66.355], [-174.049, 66.4], [-173.991, 66.454], [-174.032, 66.481], [-174.259, 66.475], [-174.211, 66.424], [-174.402, 66.353], [-174.348, 66.322], [-174.462, 66.301], [-174.494, 66.339], [-174.423, 66.356], [-174.5, 66.387], [-174.517, 66.451], [-174.492, 66.475], [-174.419, 66.456], [-174.488, 66.541], [-174.906, 66.616], [-174.997, 66.664], [-174.865, 66.744], [-174.756, 66.729], [-174.763, 66.861], [-174.804, 66.903], [-174.731, 66.929], [-174.912, 66.988], [-174.956, 67.1], [-174.893, 67.29], [-174.778, 67.303], [-174.837, 67.389], [-174.94, 67.392], [-174.956, 67.421], [-174.927, 67.425], [-175.076, 67.478], [-175.043, 67.444], [-175.094, 67.372], [-175.38, 67.345], [-175.218, 67.449], [-175.219, 67.493], [-175.263, 67.524], [-175.133, 67.501], [-175.273, 67.553], [-175.374, 67.649], [-175.299, 67.675], [-177.064, 68.161], [-177.17, 68.128], [-177.246, 68.154], [-177.226, 68.172], [-177.265, 68.206], [-177.198, 68.201], [-177.369, 68.251], [-177.633, 68.186], [-177.625, 68.221], [-177.761, 68.256], [-177.626, 68.303], [-177.528, 68.29], [-178.377, 68.551], [-177.703, 68.338], [-177.951, 68.29], [-177.975, 68.252], [-178.066, 68.253], [-177.948, 68.332], [-178.031, 68.421], [-178.245, 68.477], [-178.366, 68.472], [-178.738, 68.539], [-178.751, 68.671], [-178.486, 68.586], [-178.872, 68.75], [-179.385, 68.821], [-179.412, 68.854], [-179.341, 68.869], [-179.529, 68.961], [-179.547, 68.951], [-179.516, 68.912], [-179.626, 68.906], [-179.999, 68.982], [-180.243, 68.988], [-180.451, 69.108], [-180.163, 69.002], [-180.042, 68.992], [-180.71, 69.265], [-180.934, 69.292], [-181.292, 69.279], [-181.35, 69.306], [-181.337, 69.38], [-181.157, 69.356], [-181.112, 69.309], [-180.931, 69.325], [-181.299, 69.426], [-181.668, 69.476], [-181.791, 69.438], [-182.352, 69.528], [-182.395, 69.547], [-182.314, 69.548], [-182.557, 69.602], [-183.258, 69.666], [-183.495, 69.749], [-183.765, 69.774], [-183.717, 69.804], [-183.887, 69.889], [-184.276, 69.903], [-184.616, 69.847], [-185.126, 69.85], [-184.921, 75.824], [-184.77, 75.961], [-184.098, 75.937], [-176.674, 76.005], [-170.013, 76.011], [-169.472, 79.025], [-153.907, 78.984], [-152.34, 78.545], [-151.316, 77.995], [-151.866, 77.749], [-154.755, 76.008], [-155.404, 75.854]], [[-166.92466005665725, 65.14972031934073], [-166.924, 65.146], [-166.9208862808926, 65.14575050327664], [-166.92466005665725, 65.14972031934073]], [[-166.935, 65.208], [-166.856, 65.284], [-166.945, 65.235], [-166.962, 65.189], [-166.92466005665725, 65.14972031934073], [-166.935, 65.208]], [[-181.699, 64.352], [-181.724, 64.381], [-181.70004677992503, 64.35115883756025], [-181.699, 64.352]], [[-179.274, 70.908], [-178.819, 70.98], [-177.939, 71.037], [-177.62, 71.117], [-177.492, 71.171], [-177.439, 71.227], [-177.508, 71.291], [-177.621, 71.281], [-178.039, 71.404], [-178.018, 71.45], [-178.569, 71.564], [-179.034, 71.598], [-179.305, 71.551], [-179.728, 71.586], [-179.908, 71.552], [-179.863, 71.533], [-180.067, 71.53], [-180.149, 71.51], [-180.135, 71.487], [-180.526, 71.419], [-180.788, 71.306], [-181.15, 71.206], [-181.15, 71.177], [-181.325, 71.103], [-181.381, 71.049], [-181.25, 70.898], [-181.208, 70.795], [-180.726, 70.887], [-180.32, 70.894], [-180.194, 70.956], [-180.0, 70.994], [-179.486, 70.912], [-179.274, 70.908]], [[-169.056, 65.829], [-169.099, 65.766], [-169.077, 65.749], [-168.99, 65.809], [-169.056, 65.829]], [[-172.691, 64.732], [-172.591, 64.703], [-172.12, 64.781], [-172.317, 64.851], [-172.468, 64.855], [-172.557, 64.836], [-172.691, 64.732]], [[-172.488, 64.634], [-172.532, 64.661], [-172.758, 64.661], [-172.7, 64.63], [-172.563, 64.611], [-172.488, 64.634]], [[-171.74, 63.667], [-171.808, 63.636], [-171.851, 63.509], [-171.805, 63.419], [-171.731, 63.371], [-171.449, 63.314], [-171.326, 63.34], [-171.261, 63.394], [-171.02852362204723, 63.429397637795276], [-171.084, 63.433], [-170.845, 63.46], [-170.791, 63.423], [-170.569, 63.391], [-170.237, 63.282], [-170.216, 63.211], [-170.261, 63.196], [-170.083, 63.199], [-169.804, 63.059], [-169.973, 63.156], [-169.805, 63.125], [-169.707, 63.051], [-169.71, 63.021], [-169.758, 63.009], [-169.752, 62.965], [-169.666, 62.943], [-169.543, 62.986], [-169.578, 63.036], [-169.516, 63.093], [-169.317, 63.186], [-169.14, 63.194], [-169.326, 63.162], [-169.097, 63.181], [-168.85, 63.155], [-168.718, 63.227], [-168.737, 63.28], [-168.687, 63.298], [-169.218, 63.345], [-169.07, 63.315], [-169.177, 63.299], [-169.271, 63.356], [-169.545, 63.359], [-169.573, 63.411], [-169.654, 63.437], [-169.791, 63.43], [-169.84, 63.443], [-169.752, 63.446], [-170.083, 63.486], [-170.032, 63.537], [-170.066, 63.596], [-170.3, 63.694], [-170.652, 63.678], [-170.915, 63.571], [-171.091, 63.577], [-171.173, 63.6], [-171.067, 63.599], [-171.325, 63.634], [-171.379, 63.627], [-171.307, 63.622], [-171.489, 63.597], [-171.544, 63.619], [-171.48, 63.652], [-171.403, 63.643], [-171.635, 63.694], [-171.63, 63.774], [-171.679, 63.793], [-171.736, 63.79], [-171.74, 63.667]], [[-170.99594255874675, 63.42728198433421], [-171.018, 63.431], [-171.02852362204723, 63.429397637795276], [-170.99594255874675, 63.42728198433421]], [[-170.49, 63.342], [-170.853, 63.418], [-170.99594255874675, 63.42728198433421], [-170.49, 63.342]], [[-162.713, 63.574], [-162.562, 63.539], [-162.348, 63.548], [-162.367, 63.577], [-162.337, 63.597], [-162.431, 63.637], [-162.652, 63.619], [-162.713, 63.574]]]]}}