{"type": "Feature", "properties": {"geometry_method": "target polygon used as intended model envelope", "geometry_confidence": "medium"}, "geometry": {"type": "MultiPolygon", "coordinates": [[[[-134.246, 68.687], [-134.465, 68.707], [-134.5, 68.757], [-134.626, 68.808], [-134.669, 68.873], [-134.846, 68.929], [-134.977, 68.878], [-135.173, 68.886], [-135.242, 68.927], [-135.624, 68.886], [-135.338, 68.835], [-135.506, 68.832], [-135.16, 68.657], [-135.286, 68.684], [-135.399, 68.67], [-135.52, 68.746], [-135.725, 68.772], [-135.799, 68.822], [-136.028, 68.873], [-136.477, 68.911], [-136.745, 68.875], [-137.01, 68.947], [-137.255, 68.948], [-137.427, 68.993], [-137.378, 69.001], [-138.177, 69.16], [-138.329, 69.235], [-138.378, 69.305], [-138.446, 69.289], [-138.396, 69.293], [-138.45, 69.229], [-138.519, 69.254], [-138.601, 69.237], [-138.751, 69.346], [-138.958, 69.407], [-139.143, 69.511], [-139.273, 69.509], [-139.888, 69.617], [-140.488, 69.599], [-140.898, 69.622], [-141.306, 69.691], [-141.219, 69.668], [-141.26, 69.634], [-141.361, 69.636], [-141.731, 69.776], [-141.913, 69.811], [-142.033, 69.799], [-142.111, 69.85], [-142.269, 69.849], [-142.523, 69.964], [-142.482, 69.968], [-142.606, 69.969], [-142.586, 70.0], [-142.628, 70.014], [-143.281, 70.118], [-143.302, 70.104], [-143.281, 70.042], [-143.349, 70.109], [-143.52, 70.097], [-143.559, 70.122], [-143.61, 70.086], [-144.065, 70.079], [-144.024, 70.046], [-144.069, 69.984], [-144.067, 70.048], [-144.114, 70.064], [-144.395, 70.039], [-144.64, 69.974], [-144.883, 69.997], [-144.968, 69.969], [-145.299, 69.994], [-145.212, 70.04], [-145.425, 70.041], [-145.533, 70.093], [-145.608, 70.065], [-145.839, 70.171], [-145.89, 70.142], [-146.519, 70.194], [-147.166, 70.164], [-147.336, 70.2], [-147.69, 70.209], [-147.803, 70.23], [-147.803, 70.295], [-147.859, 70.31], [-148.052, 70.306], [-148.132, 70.354], [-148.223, 70.359], [-148.366, 70.312], [-148.505, 70.311], [-148.5, 70.352], [-148.607, 70.399], [-148.901, 70.439], [-148.959, 70.419], [-149.175, 70.491], [-149.487, 70.492], [-149.465, 70.505], [-149.495, 70.523], [-149.79, 70.489], [-149.888, 70.515], [-150.116, 70.438], [-150.404, 70.409], [-150.369, 70.486], [-150.78, 70.502], [-150.741, 70.47], [-151.18, 70.442], [-151.21, 70.412], [-151.173, 70.376], [-151.22, 70.371], [-151.522, 70.439], [-151.974, 70.448], [-151.766, 70.499], [-151.866, 70.513], [-151.784, 70.52], [-151.741, 70.56], [-152.629, 70.557], [-152.522, 70.587], [-152.076, 70.575], [-152.494, 70.644], [-152.508, 70.694], [-152.216, 70.811], [-152.379, 70.862], [-152.74, 70.882], [-152.662, 70.857], [-152.701, 70.811], [-152.81, 70.887], [-152.872, 70.856], [-152.945, 70.902], [-153.223, 70.929], [-153.52, 70.879], [-153.915, 70.889], [-154.213, 70.777], [-154.297, 70.822], [-154.618, 70.827], [-154.691, 70.887], [-154.806, 70.878], [-154.654, 70.917], [-154.592, 71.004], [-154.973, 71.121], [-155.015, 71.114], [-155.017, 71.019], [-155.083, 71.012], [-155.036, 71.052], [-155.04, 71.131], [-155.087, 71.151], [-155.121, 71.135], [-155.095, 71.084], [-155.17, 71.123], [-155.287, 71.086], [-155.18, 71.025], [-155.193, 70.989], [-155.283, 71.032], [-155.387, 71.004], [-155.535, 70.936], [-155.534, 70.871], [-155.583, 70.84], [-155.654, 70.868], [-155.65, 70.822], [-155.895, 70.828], [-155.925, 70.811], [-155.901, 70.767], [-155.974, 70.756], [-155.985, 70.824], [-155.941, 70.849], [-155.983, 70.899], [-156.182, 70.918], [-156.01, 70.933], [-156.095, 70.967], [-155.736, 71.0], [-155.548, 71.088], [-155.598, 71.174], [-155.913, 71.195], [-155.946, 71.22], [-156.109, 71.172], [-156.043, 71.21], [-156.194, 71.258], [-156.447, 71.264], [-156.44, 71.29], [-156.539, 71.294], [-156.601, 71.35], [-156.473, 71.396], [-156.369, 71.377], [-156.468, 71.408], [-156.737, 71.328], [-156.758, 73.711], [-156.702, 74.933], [-156.493, 75.134], [-155.404, 75.854], [-154.755, 76.008], [-141.712, 75.985], [-128.143, 76.066], [-126.179, 76.033], [-123.112, 76.046], [-122.683, 76.02], [-122.566, 76.013], [-122.729, 75.973], [-122.564, 75.932], [-122.416, 75.929], [-122.129, 75.983], [-121.003, 75.855], [-121.03, 75.811], [-121.288, 75.753], [-121.143, 75.726], [-121.033, 75.738], [-120.887, 75.841], [-119.325, 75.652], [-119.408, 75.606], [-119.314, 75.577], [-118.928, 75.563], [-118.874, 75.547], [-118.927, 75.529], [-118.605, 75.496], [-118.449, 75.541], [-117.437, 75.407], [-117.567, 75.343], [-117.556, 75.311], [-117.662, 75.298], [-117.683, 75.249], [-117.384, 75.179], [-116.733, 75.117], [-116.561, 75.179], [-116.247, 75.205], [-116.245, 75.163], [-116.331, 75.108], [-116.042, 75.123], [-116.254, 75.058], [-115.691, 74.964], [-115.537, 75.027], [-115.611, 75.099], [-115.595, 75.117], [-115.674, 75.138], [-115.404, 75.099], [-115.279, 75.141], [-115.261, 75.18], [-115.173, 75.108], [-115.225, 75.064], [-115.195, 74.99], [-115.066, 74.962], [-114.483, 75.056], [-114.349, 75.119], [-114.297, 75.179], [-114.443, 75.257], [-114.615, 75.275], [-114.513, 75.315], [-114.285, 75.235], [-114.171, 75.227], [-114.041, 75.362], [-114.094, 75.411], [-114.065, 75.466], [-113.992, 75.448], [-113.902, 75.374], [-113.471, 75.431], [-113.319, 75.418], [-113.806, 75.327], [-113.929, 75.174], [-113.646, 75.189], [-113.933, 75.141], [-113.969, 75.075], [-113.894, 75.052], [-113.255, 75.076], [-113.178, 75.092], [-113.134, 75.144], [-113.039, 75.094], [-112.807, 75.116], [-112.7, 75.138], [-112.689, 75.172], [-112.736, 75.203], [-112.713, 75.256], [-112.661, 75.266], [-112.679, 75.278], [-112.595, 75.25], [-112.637, 75.205], [-112.592, 75.182], [-112.433, 75.187], [-112.462, 75.219], [-112.409, 75.241], [-112.334, 75.219], [-112.387, 75.209], [-112.296, 75.203], [-112.471, 75.146], [-112.391, 75.123], [-111.901, 75.132], [-111.761, 75.185], [-111.695, 75.146], [-111.577, 75.144], [-111.619, 75.161], [-111.392, 75.181], [-111.231, 75.264], [-111.068, 75.272], [-110.913, 75.234], [-111.266, 75.103], [-111.36, 75.108], [-111.291, 75.091], [-111.306, 75.075], [-111.567, 75.06], [-111.481, 75.046], [-111.551, 75.011], [-111.753, 74.982], [-112.015, 75.002], [-112.911, 74.971], [-113.326, 74.878], [-113.207, 74.845], [-113.577, 74.844], [-113.972, 74.797], [-114.245, 74.75], [-114.448, 74.675], [-114.298, 74.603], [-113.696, 74.446], [-113.257, 74.405], [-112.37, 74.419], [-111.677, 74.493], [-110.586, 74.714], [-110.669, 74.767], [-110.646, 74.793], [-110.319, 74.798], [-110.411, 74.822], [-110.346, 74.847], [-110.066, 74.818], [-109.872, 74.869], [-109.523, 74.863], [-109.391, 74.899], [-109.407, 74.912], [-109.346, 74.945], [-108.996, 74.985], [-109.035, 75.003], [-108.937, 75.003], [-108.968, 75.019], [-108.95, 75.04], [-108.832, 75.07], [-108.651, 75.054], [-108.511, 74.976], [-108.807, 74.984], [-108.373, 74.911], [-107.942, 74.931], [-108.016, 74.944], [-107.949, 74.958], [-108.0, 75.002], [-107.744, 75.037], [-107.783, 75.094], [-107.739, 75.096], [-107.681, 75.053], [-107.724, 75.016], [-107.662, 74.967], [-107.16, 74.911], [-106.931, 74.934], [-106.726, 75.002], [-106.011, 75.051], [-105.994, 75.062], [-106.079, 75.097], [-106.019, 75.134], [-105.885, 75.14], [-105.884, 75.167], [-104.872, 75.161], [-104.931, 75.132], [-104.728, 75.07], [-104.229, 75.018], [-103.818, 75.072], [-103.603, 75.153], [-100.404, 75.133], [-100.378, 75.113], [-100.394, 75.037], [-100.348, 75.017], [-99.926, 74.982], [-100.515, 74.131], [-100.627, 73.864], [-100.596, 73.851], [-100.997, 73.802], [-101.027, 73.775], [-100.982, 73.764], [-101.12, 73.727], [-101.015, 73.713], [-101.057, 73.697], [-101.047, 73.673], [-100.854, 73.662], [-100.911, 73.623], [-100.552, 73.599], [-100.544, 73.556], [-100.606, 73.497], [-100.417, 73.413], [-100.673, 73.464], [-100.909, 73.6], [-101.217, 73.604], [-101.281, 73.552], [-101.427, 73.552], [-101.524, 73.489], [-101.621, 73.49], [-101.546, 73.46], [-101.581, 73.45], [-101.317, 73.402], [-101.305, 73.362], [-101.026, 73.324], [-101.039, 73.303], [-100.89, 73.264], [-100.345, 73.321], [-100.406, 73.361], [-100.374, 73.396], [-100.077, 73.251], [-99.772, 73.208], [-100.037, 73.184], [-100.135, 73.221], [-100.108, 73.241], [-100.197, 73.233], [-100.378, 73.29], [-100.456, 73.238], [-100.553, 73.224], [-100.469, 73.201], [-100.608, 73.146], [-100.518, 73.12], [-100.502, 73.082], [-100.232, 73.134], [-100.324, 73.094], [-100.17, 73.079], [-100.224, 73.049], [-100.113, 73.026], [-100.133, 73.016], [-100.109, 72.995], [-100.176, 72.988], [-100.048, 72.957], [-100.031, 72.935], [-100.087, 72.92], [-100.064, 72.891], [-100.326, 72.878], [-100.323, 72.911], [-100.253, 72.942], [-100.42, 72.974], [-100.381, 73.0], [-100.408, 73.011], [-100.309, 73.028], [-100.356, 73.049], [-100.463, 73.015], [-100.447, 72.999], [-100.5, 72.956], [-100.388, 72.945], [-100.442, 72.922], [-100.387, 72.897], [-100.417, 72.869], [-100.324, 72.839], [-100.314, 72.796], [-100.35, 72.771], [-100.448, 72.736], [-100.844, 72.76], [-100.871, 72.736], [-100.812, 72.72], [-100.828, 72.706], [-101.058, 72.687], [-101.378, 72.73], [-101.413, 72.748], [-101.307, 72.742], [-101.279, 72.779], [-101.467, 72.8], [-101.451, 72.816], [-101.51, 72.872], [-101.59455767562879, 72.90184388551604], [-101.634, 72.887], [-101.755, 72.931], [-101.818, 72.967], [-101.733, 72.967], [-101.791, 72.981], [-101.764, 73.017], [-101.968, 73.05], [-101.948, 73.087], [-102.276, 73.082], [-102.563, 72.991], [-102.647, 72.864], [-102.749, 72.817], [-102.756, 72.761], [-102.715, 72.746], [-102.742, 72.724], [-102.408, 72.581], [-101.912, 72.472], [-101.963, 72.463], [-101.916, 72.406], [-101.776, 72.389], [-101.88, 72.399], [-101.89, 72.362], [-101.777, 72.3], [-101.586, 72.301], [-101.465, 72.26], [-101.495, 72.244], [-101.402, 72.244], [-101.396, 72.287], [-101.221, 72.332], [-101.037, 72.276], [-101.083, 72.259], [-101.022, 72.257], [-101.054, 72.232], [-100.968, 72.174], [-100.885, 72.208], [-100.634, 72.186], [-100.491, 72.127], [-100.513, 72.108], [-100.482, 72.086], [-100.423, 72.096], [-100.444, 72.057], [-100.102, 71.885], [-99.872, 71.858], [-99.789, 71.786], [-99.678, 71.761], [-99.574, 71.62], [-99.369, 71.576], [-99.41, 71.538], [-99.314, 71.471], [-99.238, 71.345], [-98.979, 71.382], [-98.73, 71.271], [-98.495, 71.303], [-96.49, 70.375], [-96.569, 70.269], [-96.518, 70.114], [-96.247, 69.959], [-96.098, 69.947], [-96.116, 69.921], [-96.085, 69.911], [-96.119, 69.896], [-96.082, 69.874], [-96.201, 69.862], [-96.074, 69.842], [-95.976, 69.782], [-95.799, 69.796], [-95.829, 69.765], [-95.787, 69.741], [-95.739, 69.786], [-95.65, 69.786], [-95.408, 69.682], [-95.115, 69.613], [-95.009, 69.622], [-94.863, 69.567], [-94.731, 69.603], [-94.755, 69.662], [-94.629, 69.684], [-94.627, 69.636], [-94.578, 69.65], [-94.452, 69.519], [-94.279, 69.44], [-93.917, 69.433], [-93.873, 69.447], [-93.877, 69.476], [-93.789, 69.476], [-93.684, 69.522], [-93.51, 69.513], [-93.439, 69.475], [-93.586, 69.364], [-93.363, 69.372], [-93.837, 69.164], [-93.856, 69.177], [-93.813, 69.215], [-93.877, 69.224], [-93.812, 69.265], [-93.883, 69.25], [-93.526, 69.438], [-93.737, 69.4], [-93.809, 69.351], [-94.025, 69.36], [-94.284, 69.319], [-94.309, 69.294], [-94.259, 69.271], [-94.299, 69.246], [-94.281, 69.227], [-94.323, 69.15], [-94.235, 69.119], [-94.006, 69.154], [-94.168, 69.104], [-94.192, 69.084], [-94.151, 69.057], [-94.224, 69.028], [-94.348, 69.025], [-94.445, 68.938], [-94.502, 68.969], [-94.599, 68.966], [-94.563, 68.925], [-94.59, 68.908], [-94.545, 68.885], [-94.632, 68.75], [-94.413, 68.716], [-94.074, 68.766], [-93.814, 68.885], [-93.942, 68.856], [-93.929, 68.882], [-94.034, 68.833], [-94.08, 68.847], [-94.041, 68.86], [-94.068, 68.864], [-94.056, 68.902], [-93.926, 68.975], [-93.947, 68.993], [-93.898, 69.026], [-93.932, 69.029], [-93.804, 69.069], [-93.909, 68.995], [-93.837, 69.006], [-93.859, 68.959], [-93.642, 68.964], [-93.644, 68.896], [-93.566, 68.849], [-93.641, 68.806], [-93.64, 68.765], [-93.695, 68.752], [-93.674, 68.72], [-93.752, 68.614], [-93.376, 68.633], [-93.536, 68.599], [-93.545, 68.557], [-93.661, 68.521], [-94.123, 68.417], [-94.211, 68.361], [-94.199, 68.268], [-94.582, 68.156], [-94.722, 68.055], [-95.009, 68.044], [-95.102, 68.087], [-95.257, 68.035], [-95.219, 68.077], [-95.473, 68.061], [-95.413, 68.022], [-95.58, 67.899], [-95.527, 67.872], [-95.534, 67.821], [-95.709, 67.728], [-95.466, 67.637], [-95.344, 67.555], [-95.332, 67.506], [-95.419, 67.455], [-95.376, 67.44], [-95.315, 67.331], [-95.163, 67.287], [-95.249, 67.265], [-95.266, 67.213], [-95.352, 67.148], [-95.323, 67.106], [-95.348, 67.074], [-95.292, 67.035], [-95.296, 66.999], [-95.219, 66.974], [-95.311, 66.89], [-95.435, 66.931], [-95.517, 66.902], [-95.738, 66.901], [-95.785, 66.937], [-96.0, 66.951], [-96.092, 66.922], [-95.785, 66.737], [-95.766, 66.684], [-95.691, 66.679], [-95.681, 66.729], [-95.652, 66.729], [-95.63, 66.676], [-95.82, 66.584], [-95.777, 66.655], [-95.842, 66.748], [-96.109, 66.833], [-96.146, 66.895], [-96.397, 66.994], [-96.461, 67.062], [-96.392, 67.087], [-96.288, 67.068], [-96.261, 67.041], [-96.279, 66.999], [-96.134, 66.99], [-96.156, 66.962], [-96.123, 66.95], [-96.033, 66.967], [-96.052, 67.011], [-95.947, 67.072], [-95.994, 67.01], [-95.902, 66.947], [-95.622, 66.987], [-95.599, 66.981], [-95.632, 66.956], [-95.535, 66.941], [-95.343, 66.975], [-95.326, 67.027], [-95.422, 67.064], [-95.374, 67.11], [-95.379, 67.155], [-95.436, 67.194], [-95.437, 67.155], [-95.474, 67.136], [-95.488, 67.204], [-95.651, 67.199], [-95.65, 67.226], [-95.833, 67.163], [-95.553, 67.313], [-95.525, 67.351], [-95.566, 67.377], [-95.613, 67.379], [-95.676, 67.328], [-95.74, 67.377], [-95.899, 67.284], [-96.114, 67.213], [-96.136, 67.256], [-96.252, 67.247], [-96.227, 67.317], [-96.07, 67.428], [-96.097, 67.465], [-96.21, 67.419], [-96.332, 67.432], [-96.396, 67.494], [-96.465, 67.478], [-96.429, 67.537], [-96.46, 67.549], [-96.33, 67.61], [-96.336, 67.697], [-96.258, 67.627], [-96.185, 67.626], [-96.167, 67.69], [-96.22, 67.693], [-96.189, 67.73], [-96.215, 67.824], [-96.02, 68.106], [-96.079, 68.15], [-95.892, 68.294], [-96.432, 68.156], [-96.548, 68.089], [-96.48, 68.09], [-96.453, 68.039], [-96.54, 68.03], [-96.622, 68.062], [-96.708, 68.009], [-96.813, 68.039], [-96.623, 68.116], [-96.638, 68.139], [-96.509, 68.196], [-96.475, 68.272], [-96.404, 68.311], [-96.61, 68.243], [-96.631, 68.179], [-96.694, 68.217], [-96.625, 68.252], [-96.681, 68.281], [-96.925, 68.239], [-97.08, 68.259], [-97.07, 68.3], [-96.995, 68.29], [-97.002, 68.345], [-97.161, 68.375], [-97.106, 68.388], [-97.283, 68.474], [-97.531, 68.502], [-97.618, 68.463], [-97.501, 68.435], [-97.538, 68.418], [-97.646, 68.451], [-97.693, 68.517], [-97.852, 68.542], [-97.994, 68.541], [-98.011, 68.503], [-97.903, 68.45], [-97.9, 68.42], [-97.782, 68.407], [-97.749, 68.365], [-97.894, 68.386], [-97.922, 68.339], [-98.107, 68.364], [-98.073, 68.322], [-98.154, 68.332], [-98.2, 68.3], [-98.525, 68.421], [-98.544, 68.405], [-98.462, 68.354], [-98.537, 68.362], [-98.521, 68.328], [-98.637, 68.379], [-98.714, 68.372], [-98.491, 68.247], [-98.542, 68.234], [-98.501, 68.209], [-98.326, 68.171], [-98.368, 68.081], [-98.439, 68.104], [-98.424, 68.152], [-98.46, 68.184], [-98.536, 68.139], [-98.588, 68.149], [-98.449, 68.069], [-98.412, 68.012], [-98.251, 67.946], [-98.095, 67.833], [-98.052, 67.831], [-98.058, 67.912], [-98.03, 67.942], [-97.95, 67.92], [-97.834, 67.977], [-97.711, 67.971], [-97.683, 68.019], [-97.392, 67.876], [-97.291, 67.885], [-97.24, 67.926], [-97.116, 67.783], [-97.224, 67.713], [-97.145, 67.715], [-97.059, 67.675], [-97.179, 67.674], [-97.201, 67.624], [-97.283, 67.662], [-97.392, 67.618], [-97.577, 67.599], [-97.799, 67.686], [-97.927, 67.696], [-97.976, 67.746], [-98.089, 67.757], [-98.233, 67.902], [-98.585, 68.092], [-98.733, 68.07], [-98.724, 67.954], [-98.54, 67.872], [-98.449, 67.866], [-98.354, 67.796], [-98.598, 67.778], [-98.694, 67.808], [-98.761, 67.744], [-98.896, 67.748], [-98.931, 67.696], [-99.119, 67.728], [-99.211, 67.707], [-99.412, 67.788], [-99.478, 67.772], [-99.501, 67.8], [-99.632, 67.789], [-99.777, 67.824], [-99.82, 67.796], [-100.396, 67.847], [-100.588, 67.793], [-100.586, 67.839], [-100.7, 67.847], [-100.822, 67.792], [-100.916, 67.818], [-100.904, 67.757], [-101.099, 67.738], [-101.089, 67.786], [-101.166, 67.755], [-101.25, 67.771], [-101.233, 67.732], [-101.258, 67.719], [-101.447, 67.732], [-101.41, 67.688], [-101.672, 67.692], [-101.742, 67.728], [-101.8, 67.705], [-101.979, 67.788], [-102.039, 67.742], [-102.151, 67.766], [-102.224, 67.734], [-102.199, 67.696], [-102.228, 67.687], [-102.251, 67.725], [-102.312, 67.717], [-102.471, 67.787], [-102.8, 67.821], [-102.959, 67.927], [-103.093, 67.923], [-103.137, 67.958], [-103.366, 68.006], [-103.379, 68.083], [-103.341, 68.116], [-103.404, 68.164], [-103.553, 68.11], [-103.544, 68.06], [-103.698, 68.067], [-103.791, 68.025], [-103.985, 68.044], [-104.167, 68.017], [-104.303, 68.052], [-104.5, 68.032], [-104.495, 68.062], [-104.592, 68.084], [-104.601, 68.136], [-104.67, 68.139], [-104.597, 68.222], [-104.61, 68.241], [-104.822, 68.262], [-104.9, 68.225], [-104.952, 68.247], [-104.839, 68.289], [-104.894, 68.349], [-104.939, 68.31], [-105.082, 68.308], [-104.999, 68.275], [-105.056, 68.258], [-105.295, 68.339], [-105.35, 68.372], [-105.338, 68.412], [-105.541, 68.413], [-105.538, 68.446], [-105.434, 68.489], [-105.321, 68.474], [-105.326, 68.511], [-105.408, 68.519], [-105.544, 68.657], [-105.475, 68.721], [-105.798, 68.879], [-106.149, 68.934], [-106.229, 68.941], [-106.272, 68.905], [-106.655, 68.811], [-106.821, 68.811], [-107.306, 68.697], [-108.345, 68.602], [-108.581, 68.406], [-108.741, 68.343], [-108.742, 68.295], [-108.819, 68.267], [-108.716, 68.231], [-108.484, 68.305], [-108.402, 68.294], [-108.453, 68.186], [-108.392, 68.18], [-108.366, 68.231], [-108.324, 68.193], [-108.365, 68.134], [-108.367, 68.161], [-108.428, 68.154], [-108.403, 68.115], [-108.161, 68.173], [-107.968, 68.146], [-107.8, 68.183], [-107.603, 68.165], [-107.885, 68.269], [-107.826, 68.341], [-107.561, 68.349], [-107.338, 68.316], [-107.259, 68.26], [-107.141, 68.269], [-107.014, 68.369], [-106.796, 68.371], [-106.803, 68.414], [-106.713, 68.371], [-106.724, 68.35], [-106.644, 68.347], [-106.595, 68.297], [-106.543, 68.291], [-106.526, 68.306], [-106.564, 68.343], [-106.481, 68.396], [-106.632, 68.462], [-106.529, 68.443], [-106.505, 68.471], [-106.557, 68.493], [-106.419, 68.51], [-106.551, 68.515], [-106.029, 68.62], [-105.645, 68.634], [-105.774, 68.548], [-105.698, 68.492], [-105.74, 68.415], [-105.822, 68.45], [-105.846, 68.415], [-105.966, 68.422], [-105.982, 68.394], [-106.056, 68.399], [-106.124, 68.362], [-106.218, 68.392], [-106.465, 68.336], [-106.424, 68.3], [-106.496, 68.226], [-106.345, 68.183], [-106.432, 68.153], [-106.614, 68.248], [-106.648, 68.169], [-106.704, 68.194], [-106.685, 68.223], [-106.806, 68.213], [-106.748, 68.148], [-106.76, 68.102], [-106.953, 68.115], [-106.959, 68.089], [-107.119, 68.085], [-107.11, 68.127], [-107.154, 68.127], [-107.349, 68.049], [-107.68, 68.046], [-107.778, 67.987], [-107.833, 68.013], [-107.74, 68.038], [-107.809, 68.052], [-107.694, 68.072], [-107.852, 68.106], [-107.891, 68.082], [-107.91, 67.989], [-107.651, 67.941], [-107.715, 67.892], [-107.942, 67.847], [-108.014, 67.756], [-108.007, 67.707], [-107.583, 67.496], [-107.636, 67.402], [-107.722, 67.411], [-107.481, 67.181], [-107.2, 67.124], [-107.251, 67.072], [-107.404, 67.042], [-107.227, 66.962], [-107.084, 66.821], [-107.435, 66.972], [-107.394, 66.885], [-107.486, 66.877], [-107.409, 66.811], [-107.564, 66.834], [-107.533, 66.874], [-107.629, 66.888], [-107.694, 66.947], [-107.484, 66.924], [-107.524, 67.02], [-107.651, 67.076], [-107.613, 66.965], [-107.734, 67.008], [-107.766, 66.99], [-107.694, 66.756], [-107.801, 66.761], [-107.649, 66.694], [-107.551, 66.583], [-107.235, 66.407], [-107.196, 66.366], [-107.235, 66.349], [-107.446, 66.462], [-107.51, 66.542], [-107.57, 66.531], [-107.647, 66.575], [-107.724, 66.63], [-107.691, 66.642], [-107.853, 66.756], [-107.888, 66.756], [-107.851, 66.73], [-107.883, 66.663], [-107.949, 66.721], [-107.941, 66.788], [-107.991, 66.833], [-108.232, 66.846], [-108.118, 66.862], [-108.111, 66.924], [-108.197, 66.972], [-108.331, 66.987], [-108.456, 67.071], [-108.516, 67.034], [-108.623, 67.15], [-108.233, 67.019], [-108.149, 67.077], [-107.881, 67.048], [-107.914, 67.132], [-107.875, 67.141], [-108.015, 67.293], [-108.367, 67.445], [-108.44, 67.427], [-108.425, 67.364], [-108.484, 67.349], [-108.523, 67.441], [-108.511, 67.487], [-108.587, 67.577], [-108.579, 67.606], [-108.655, 67.628], [-108.736, 67.603], [-108.744, 67.446], [-108.825, 67.349], [-108.859, 67.409], [-108.93, 67.406], [-108.929, 67.433], [-109.018, 67.462], [-109.015, 67.494], [-108.919, 67.536], [-109.066, 67.714], [-109.37, 67.729], [-109.395, 67.767], [-109.506, 67.733], [-109.485, 67.71], [-109.522, 67.687], [-109.726, 67.717], [-109.752, 67.734], [-109.623, 67.741], [-109.744, 67.776], [-109.696, 67.804], [-109.823, 67.866], [-109.942, 67.884], [-109.917, 67.839], [-109.982, 67.837], [-110.004, 67.866], [-109.971, 67.958], [-110.084, 68.007], [-110.199, 67.972], [-110.14, 67.917], [-110.34, 67.966], [-110.329, 67.945], [-110.732, 67.864], [-110.841, 67.8], [-111.006, 67.765], [-111.085, 67.787], [-111.201, 67.756], [-111.169, 67.784], [-111.206, 67.794], [-111.144, 67.829], [-111.176, 67.837], [-111.323, 67.807], [-111.441, 67.732], [-111.474, 67.736], [-111.459, 67.763], [-111.532, 67.766], [-111.573, 67.744], [-111.539, 67.712], [-111.925, 67.752], [-111.902, 67.733], [-111.929, 67.718], [-111.873, 67.697], [-111.894, 67.679], [-111.985, 67.693], [-112.011, 67.742], [-112.345, 67.74], [-112.369, 67.728], [-112.334, 67.696], [-112.37, 67.682], [-112.709, 67.668], [-113.05, 67.666], [-113.241, 67.704], [-113.846, 67.691], [-114.148, 67.737], [-114.298, 67.719], [-114.517, 67.789], [-114.609, 67.771], [-114.719, 67.813], [-115.114, 67.799], [-115.281, 67.866], [-115.253, 67.883], [-115.507, 67.889], [-115.543, 67.922], [-115.11, 68.012], [-115.241, 68.036], [-115.227, 68.09], [-115.173, 68.129], [-115.237, 68.182], [-114.896, 68.147], [-114.755, 68.19], [-114.96, 68.286], [-114.702, 68.25], [-114.442, 68.264], [-114.32, 68.229], [-114.207, 68.254], [-114.036, 68.239], [-114.011, 68.25], [-114.047, 68.312], [-113.907, 68.395], [-113.975, 68.436], [-114.007, 68.394], [-114.095, 68.402], [-114.128, 68.424], [-114.058, 68.434], [-114.064, 68.467], [-114.188, 68.566], [-114.405, 68.615], [-114.465, 68.664], [-114.448, 68.69], [-114.729, 68.744], [-114.792, 68.799], [-115.016, 68.868], [-115.08, 68.848], [-115.593, 68.972], [-115.935, 69.007], [-115.767, 68.939], [-115.868, 68.923], [-116.205, 68.985], [-116.33, 68.956], [-116.082, 68.883], [-116.123, 68.866], [-115.96, 68.805], [-116.214, 68.831], [-116.381, 68.882], [-116.5, 68.857], [-116.847, 68.883], [-116.951, 68.94], [-117.01, 68.936], [-116.966, 68.902], [-117.154, 68.886], [-117.382, 68.952], [-118.011, 69.014], [-118.458, 69.117], [-118.645, 69.212], [-118.841, 69.251], [-119.982, 69.345], [-120.232, 69.392], [-120.616, 69.52], [-120.826, 69.624], [-121.684, 69.794], [-122.742, 69.83], [-122.755, 69.799], [-122.808, 69.794], [-122.959, 69.834], [-123.152, 69.768], [-123.109, 69.748], [-123.096, 69.671], [-123.162, 69.619], [-123.127, 69.571], [-123.169, 69.495], [-123.4, 69.49], [-123.451, 69.447], [-123.391, 69.407], [-123.68, 69.353], [-123.817, 69.389], [-123.89, 69.365], [-123.985, 69.405], [-124.016, 69.379], [-123.993, 69.346], [-124.053, 69.387], [-124.162, 69.349], [-124.447, 69.367], [-124.519, 69.404], [-124.414, 69.413], [-124.42, 69.47], [-124.241, 69.55], [-124.204, 69.62], [-124.035, 69.679], [-124.07, 69.724], [-124.201, 69.729], [-124.295, 69.695], [-124.501, 69.726], [-124.479, 69.756], [-124.502, 69.784], [-124.403, 69.858], [-124.506, 69.903], [-124.442, 69.92], [-124.439, 69.953], [-124.538, 69.964], [-124.418, 69.989], [-124.489, 70.016], [-124.377, 70.023], [-124.361, 70.074], [-124.446, 70.109], [-124.383, 70.14], [-124.407, 70.152], [-124.694, 70.149], [-124.753, 70.122], [-124.685, 70.108], [-124.736, 70.089], [-124.52, 70.104], [-124.578, 70.081], [-124.449, 70.08], [-124.418, 70.046], [-124.526, 70.054], [-124.569, 70.011], [-124.645, 70.072], [-124.834, 70.068], [-124.957, 70.032], [-124.863, 70.027], [-125.045, 70.018], [-124.987, 70.042], [-125.0, 70.08], [-125.198, 70.005], [-125.177, 69.976], [-125.207, 69.933], [-125.111, 69.942], [-125.121, 69.968], [-124.99, 70.006], [-124.795, 70.009], [-124.853, 69.986], [-124.765, 69.971], [-124.684, 70.019], [-124.628, 69.985], [-124.893, 69.94], [-125.021, 69.865], [-125.059, 69.79], [-125.165, 69.796], [-125.184, 69.856], [-125.276, 69.808], [-125.241, 69.76], [-124.897, 69.751], [-124.822, 69.715], [-124.871, 69.714], [-124.862, 69.689], [-124.925, 69.645], [-124.967, 69.727], [-125.017, 69.741], [-125.241, 69.686], [-125.366, 69.69], [-125.414, 69.638], [-125.373, 69.615], [-125.437, 69.609], [-125.225, 69.587], [-125.293, 69.549], [-125.118, 69.486], [-125.324, 69.524], [-125.307, 69.5], [-125.465, 69.512], [-125.511, 69.492], [-125.499, 69.475], [-125.578, 69.472], [-125.622, 69.419], [-125.295, 69.471], [-125.266, 69.442], [-125.089, 69.45], [-125.136, 69.439], [-125.112, 69.416], [-125.165, 69.382], [-125.457, 69.41], [-125.458, 69.384], [-125.366, 69.342], [-125.426, 69.312], [-125.669, 69.39], [-125.911, 69.406], [-126.256, 69.527], [-126.706, 69.766], [-126.812, 69.905], [-126.766, 69.928], [-126.795, 69.944], [-126.774, 69.974], [-126.893, 70.009], [-127.174, 70.272], [-127.463, 70.409], [-127.997, 70.591], [-128.136, 70.523], [-128.193, 70.387], [-127.902, 70.393], [-127.973, 70.345], [-128.112, 70.36], [-128.028, 70.286], [-127.515, 70.222], [-128.109, 70.182], [-128.343, 70.117], [-128.37, 70.096], [-128.309, 70.008], [-128.311, 69.958], [-128.588, 69.872], [-128.796, 69.757], [-128.97, 69.728], [-128.925, 69.681], [-129.15, 69.696], [-129.13, 69.749], [-129.169, 69.825], [-128.934, 69.844], [-128.956, 69.89], [-128.898, 69.914], [-128.899, 69.963], [-128.855, 69.955], [-128.901, 69.972], [-128.965, 69.962], [-129.099, 69.859], [-129.602, 69.819], [-130.365, 69.694], [-130.334, 69.681], [-130.452, 69.613], [-130.444, 69.582], [-130.748, 69.454], [-130.645, 69.455], [-130.69, 69.406], [-130.813, 69.38], [-130.794, 69.346], [-130.942, 69.271], [-130.957, 69.162], [-130.923, 69.135], [-131.014, 69.137], [-131.025, 69.21], [-130.989, 69.237], [-130.999, 69.268], [-130.906, 69.329], [-130.898, 69.386], [-130.936, 69.388], [-131.017, 69.307], [-131.048, 69.336], [-130.932, 69.419], [-130.942, 69.534], [-130.99, 69.539], [-130.963, 69.472], [-131.031, 69.372], [-131.116, 69.322], [-131.028, 69.464], [-131.104, 69.572], [-131.083, 69.601], [-131.138, 69.614], [-131.195, 69.579], [-131.071, 69.52], [-131.059, 69.477], [-131.128, 69.362], [-131.114, 69.513], [-131.248, 69.583], [-131.164, 69.496], [-131.161, 69.389], [-131.325, 69.32], [-131.415, 69.297], [-131.213, 69.387], [-131.246, 69.498], [-131.275, 69.495], [-131.242, 69.406], [-131.322, 69.493], [-131.331, 69.442], [-131.371, 69.454], [-131.358, 69.42], [-131.406, 69.418], [-131.413, 69.367], [-131.526, 69.329], [-131.481, 69.359], [-131.486, 69.402], [-131.416, 69.436], [-131.652, 69.472], [-131.68, 69.452], [-131.646, 69.422], [-131.97, 69.406], [-131.887, 69.405], [-131.85, 69.369], [-131.714, 69.398], [-131.865, 69.283], [-131.914, 69.281], [-131.877, 69.311], [-131.91, 69.31], [-131.953, 69.26], [-132.076, 69.226], [-132.164, 69.241], [-132.223, 69.142], [-132.237, 69.161], [-132.197, 69.212], [-132.29, 69.177], [-132.342, 69.189], [-132.292, 69.204], [-132.321, 69.234], [-132.385, 69.139], [-132.467, 69.107], [-132.424, 69.15], [-132.404, 69.216], [-132.425, 69.234], [-132.496, 69.132], [-132.865, 69.068], [-132.827, 69.04], [-132.868, 69.027], [-132.856, 68.984], [-132.676, 68.927], [-132.833, 68.924], [-132.705, 68.881], [-132.787, 68.847], [-132.665, 68.842], [-132.599, 68.894], [-132.485, 68.88], [-132.576, 68.911], [-132.553, 68.916], [-132.393, 68.86], [-132.47, 68.807], [-132.743, 68.827], [-132.7, 68.81], [-132.723, 68.787], [-132.937, 68.855], [-132.962, 68.846], [-132.938, 68.796], [-133.122, 68.806], [-133.238, 68.861], [-133.388, 68.84], [-133.335, 68.79], [-133.14, 68.767], [-133.266, 68.779], [-133.152, 68.721], [-132.955, 68.715], [-132.918, 68.69], [-133.054, 68.691], [-133.406, 68.772], [-133.493, 68.827], [-133.426, 68.852], [-133.461, 68.893], [-133.369, 68.911], [-133.399, 68.881], [-133.335, 68.866], [-133.234, 68.909], [-133.211, 68.944], [-133.251, 68.964], [-133.199, 68.977], [-133.201, 69.032], [-133.099, 69.067], [-133.017, 69.045], [-132.919, 69.075], [-132.946, 69.037], [-132.923, 68.986], [-132.888, 68.98], [-132.902, 69.072], [-132.83, 69.107], [-132.907, 69.124], [-132.823, 69.192], [-132.838, 69.217], [-132.76, 69.254], [-132.524, 69.278], [-132.485, 69.163], [-132.484, 69.236], [-132.432, 69.256], [-132.443, 69.294], [-132.381, 69.305], [-132.316, 69.248], [-132.339, 69.311], [-132.095, 69.363], [-132.085, 69.391], [-132.142, 69.413], [-132.094, 69.418], [-132.099, 69.451], [-132.042, 69.449], [-132.08, 69.481], [-131.997, 69.531], [-131.756, 69.567], [-131.657, 69.532], [-131.668, 69.572], [-131.646, 69.577], [-131.333, 69.575], [-131.332, 69.603], [-131.04, 69.641], [-131.04, 69.602], [-130.929, 69.563], [-130.844, 69.6], [-130.78, 69.677], [-130.578, 69.708], [-130.522, 69.782], [-129.497, 70.021], [-129.554, 70.043], [-129.459, 70.053], [-129.405, 70.123], [-129.473, 70.093], [-129.503, 70.115], [-129.459, 70.147], [-129.629, 70.161], [-129.592, 70.189], [-129.673, 70.267], [-129.74, 70.248], [-129.731, 70.219], [-129.833, 70.196], [-129.788, 70.178], [-129.853, 70.149], [-129.855, 70.101], [-129.894, 70.078], [-129.997, 70.073], [-129.932, 70.093], [-129.951, 70.099], [-130.083, 70.074], [-130.075, 70.106], [-130.105, 70.11], [-130.185, 70.054], [-130.162, 70.101], [-130.33, 70.079], [-130.285, 70.102], [-130.332, 70.105], [-130.325, 70.134], [-130.387, 70.166], [-130.411, 70.132], [-130.504, 70.134], [-130.477, 70.111], [-130.536, 70.107], [-130.522, 70.159], [-130.461, 70.171], [-130.543, 70.168], [-130.578, 70.135], [-130.657, 70.134], [-130.658, 70.097], [-130.721, 70.076], [-130.748, 70.082], [-130.707, 70.121], [-130.729, 70.127], [-130.898, 70.066], [-130.892, 70.099], [-130.93, 70.083], [-131.02, 70.028], [-130.931, 70.021], [-131.005, 70.004], [-131.081, 69.885], [-131.17, 69.882], [-131.186, 69.863], [-131.152, 69.854], [-131.185, 69.824], [-131.221, 69.843], [-131.201, 69.884], [-131.237, 69.927], [-131.41, 69.957], [-131.448, 69.919], [-131.419, 69.902], [-131.645, 69.865], [-131.845, 69.765], [-132.107, 69.724], [-132.134, 69.687], [-132.318, 69.713], [-132.303, 69.734], [-132.482, 69.736], [-132.259, 69.772], [-132.541, 69.741], [-132.622, 69.68], [-132.57, 69.667], [-132.458, 69.705], [-132.423, 69.683], [-132.449, 69.654], [-132.327, 69.678], [-132.417, 69.636], [-132.894, 69.654], [-132.989, 69.595], [-132.952, 69.569], [-132.966, 69.512], [-133.053, 69.466], [-133.047, 69.433], [-133.217, 69.396], [-133.408, 69.415], [-133.67, 69.387], [-133.691, 69.359], [-133.661, 69.349], [-133.689, 69.337], [-133.86, 69.337], [-133.906, 69.287], [-134.154, 69.259], [-134.339, 69.106], [-134.562, 69.083], [-134.624, 68.993], [-134.406, 68.801], [-134.3046886870355, 68.75526919900909], [-134.417, 68.784], [-134.489, 68.87], [-134.667, 68.956], [-134.674, 69.018], [-134.568, 69.107], [-134.384, 69.118], [-134.28, 69.18], [-134.276, 69.226], [-134.211, 69.276], [-134.099, 69.294], [-134.098, 69.329], [-134.03, 69.382], [-133.858, 69.441], [-133.748, 69.542], [-133.792, 69.577], [-133.827, 69.56], [-133.806, 69.539], [-133.947, 69.506], [-134.048, 69.527], [-134.001, 69.546], [-134.02, 69.559], [-134.113, 69.539], [-134.191, 69.591], [-134.242, 69.568], [-134.147, 69.636], [-134.225, 69.676], [-134.351, 69.669], [-134.31, 69.716], [-134.377, 69.725], [-134.491, 69.722], [-134.402, 69.638], [-134.493, 69.561], [-134.469, 69.543], [-134.576, 69.548], [-134.596, 69.514], [-134.549, 69.473], [-134.507, 69.516], [-134.408, 69.491], [-134.469, 69.444], [-134.79, 69.498], [-135.108, 69.458], [-135.151, 69.477], [-135.287, 69.419], [-135.241, 69.308], [-135.158, 69.274], [-135.171, 69.258], [-135.572, 69.339], [-135.611, 69.32], [-135.549, 69.235], [-135.585, 69.223], [-135.678, 69.324], [-135.833, 69.306], [-135.852, 69.268], [-135.64, 69.155], [-135.411, 69.097], [-135.657, 69.144], [-135.915, 69.257], [-135.967, 69.215], [-135.935, 69.096], [-135.759, 69.06], [-135.691, 69.012], [-135.518, 69.024], [-135.803, 68.989], [-135.969, 69.044], [-135.988, 69.012], [-135.919, 68.959], [-136.005, 68.952], [-135.769, 68.896], [-135.522, 68.908], [-135.535, 68.945], [-135.455, 68.978], [-135.461, 68.943], [-135.421, 68.929], [-135.202, 68.933], [-135.142, 68.901], [-134.961, 68.892], [-134.92, 68.915], [-134.915, 68.967], [-134.834, 68.987], [-134.607, 68.863], [-134.559, 68.799], [-134.468, 68.762], [-134.458, 68.719], [-134.22961608154023, 68.69626047565119], [-134.246, 68.687]], [[-101.541, 72.922], [-101.595, 72.902], [-101.59455767562879, 72.90184388551604], [-101.541, 72.922]], [[-122.363, 75.858], [-122.324, 75.9], [-122.696, 75.908], [-122.665, 75.894], [-122.363, 75.858]], [[-124.693, 74.269], [-124.516, 74.25], [-124.535, 74.207], [-124.427, 74.11], [-124.47, 74.101], [-124.463, 74.07], [-124.381, 74.038], [-124.353, 73.976], [-124.196, 73.916], [-124.217, 73.873], [-123.848, 73.825], [-123.775, 73.764], [-123.838, 73.744], [-123.844, 73.696], [-124.068, 73.655], [-124.079, 73.623], [-124.039, 73.587], [-124.069, 73.536], [-124.433, 73.421], [-124.404, 73.372], [-124.482, 73.347], [-124.668, 73.193], [-124.645, 73.156], [-124.785, 73.139], [-124.869, 73.081], [-124.726, 73.007], [-124.625, 73.021], [-124.497, 72.977], [-124.522, 72.953], [-124.476, 72.927], [-124.943, 72.854], [-125.1, 72.871], [-125.113, 72.85], [-125.026, 72.821], [-124.972, 72.756], [-125.019, 72.703], [-124.941, 72.702], [-125.098, 72.631], [-124.969, 72.605], [-124.953, 72.565], [-125.083, 72.556], [-125.301, 72.483], [-125.359, 72.447], [-125.344, 72.415], [-125.43, 72.414], [-125.392, 72.397], [-125.532, 72.302], [-125.478, 72.299], [-125.488, 72.276], [-125.657, 72.251], [-125.677, 72.224], [-125.654, 72.187], [-125.569, 72.174], [-125.694, 72.165], [-125.793, 72.113], [-125.715, 72.09], [-125.779, 71.986], [-125.993, 71.968], [-124.948, 71.961], [-124.954, 71.938], [-125.254, 71.95], [-124.679, 71.801], [-124.013, 71.686], [-123.899, 71.633], [-123.802, 71.536], [-123.666, 71.496], [-123.43, 71.237], [-123.303, 71.15], [-123.095, 71.08], [-122.781, 71.086], [-122.605, 71.175], [-122.122, 71.267], [-121.744, 71.453], [-121.57, 71.452], [-121.532, 71.418], [-121.603, 71.399], [-121.429, 71.378], [-120.877, 71.441], [-120.543, 71.517], [-120.377, 71.688], [-120.426, 71.744], [-120.379, 71.884], [-120.449, 71.947], [-120.194, 72.078], [-120.145, 72.144], [-120.18, 72.204], [-120.259, 72.234], [-120.251, 72.259], [-120.14, 72.268], [-120.192, 72.237], [-120.029, 72.219], [-119.801, 72.221], [-119.311, 72.352], [-119.332, 72.387], [-119.309, 72.439], [-119.171, 72.543], [-119.184, 72.596], [-119.137, 72.632], [-118.753, 72.737], [-118.496, 72.764], [-118.366, 72.824], [-117.466, 73.036], [-117.244, 73.055], [-116.456, 73.257], [-115.835, 73.34], [-115.315, 73.48], [-115.402, 73.568], [-115.614, 73.668], [-115.894, 73.719], [-116.785, 74.06], [-117.439, 74.229], [-118.102, 74.276], [-118.674, 74.22], [-118.881, 74.178], [-118.79, 74.108], [-118.973, 74.0], [-119.074, 74.015], [-119.187, 73.988], [-119.147, 74.062], [-119.065, 74.103], [-119.131, 74.126], [-119.091, 74.157], [-119.149, 74.212], [-119.489, 74.217], [-119.611, 74.129], [-119.751, 74.091], [-119.745, 74.026], [-119.834, 74.083], [-119.651, 74.182], [-119.663, 74.224], [-119.519, 74.225], [-119.865, 74.238], [-120.445, 74.32], [-120.972, 74.418], [-121.011, 74.472], [-121.254, 74.526], [-121.61, 74.551], [-122.338, 74.471], [-123.022, 74.445], [-124.082, 74.399], [-124.114, 74.372], [-124.781, 74.336], [-124.604, 74.312], [-124.693, 74.269]], [[-106.194, 73.285], [-106.044, 73.219], [-106.094, 73.186], [-105.896, 73.161], [-105.904, 73.131], [-105.463, 72.941], [-105.383, 72.867], [-105.276, 72.846], [-105.204, 72.864], [-105.324, 72.906], [-105.293, 72.925], [-105.354, 72.953], [-105.199, 72.939], [-104.985, 73.021], [-104.976, 73.085], [-104.739, 73.18], [-104.76, 73.204], [-104.568, 73.329], [-104.587, 73.374], [-104.549, 73.415], [-104.576, 73.454], [-104.483, 73.534], [-104.581, 73.6], [-104.824, 73.637], [-105.149, 73.754], [-105.517, 73.763], [-105.666, 73.738], [-106.618, 73.705], [-107.036, 73.481], [-106.466, 73.401], [-106.137, 73.295], [-106.194, 73.285]], [[-105.832, 73.05], [-106.048, 73.045], [-106.24, 73.086], [-106.463, 73.18], [-106.487, 73.225], [-106.651, 73.222], [-106.761, 73.293], [-106.882, 73.312], [-107.084, 73.283], [-107.124, 73.24], [-107.011, 73.191], [-107.07, 73.174], [-107.614, 73.317], [-108.084, 73.35], [-108.013, 73.309], [-108.154, 73.302], [-108.116, 73.264], [-107.864, 73.189], [-108.166, 73.204], [-108.3, 73.136], [-108.156, 73.049], [-108.233, 73.033], [-108.135, 72.982], [-108.171, 72.961], [-108.106, 72.912], [-108.146, 72.879], [-108.051, 72.781], [-108.078, 72.743], [-108.006, 72.702], [-108.021, 72.662], [-107.954, 72.639], [-108.012, 72.62], [-107.881, 72.577], [-107.877, 72.524], [-107.981, 72.511], [-107.781, 72.456], [-107.878, 72.424], [-107.802, 72.382], [-107.844, 72.354], [-107.714, 72.301], [-107.864, 72.298], [-107.792, 72.255], [-107.779, 72.137], [-107.635, 72.122], [-107.66, 72.114], [-107.61, 72.089], [-107.653, 72.066], [-107.614, 72.012], [-107.422, 71.975], [-107.413, 71.928], [-107.253, 71.896], [-107.471, 71.871], [-107.26, 71.799], [-107.536, 71.78], [-107.664, 71.702], [-107.815, 71.723], [-107.836, 71.682], [-107.724, 71.624], [-107.845, 71.604], [-107.983, 71.633], [-107.976, 71.666], [-108.066, 71.718], [-108.243, 71.719], [-108.165, 71.755], [-108.281, 71.787], [-108.242, 71.836], [-108.295, 71.876], [-108.187, 71.956], [-108.333, 71.926], [-108.294, 71.976], [-108.412, 71.99], [-108.399, 72.114], [-108.433, 72.129], [-108.404, 72.147], [-108.536, 72.142], [-108.524, 72.2], [-108.663, 72.346], [-108.637, 72.444], [-108.589, 72.494], [-108.621, 72.55], [-108.867, 72.606], [-108.887, 72.592], [-108.842, 72.572], [-109.043, 72.567], [-109.03, 72.647], [-108.937, 72.667], [-109.155, 72.717], [-109.112, 72.74], [-109.166, 72.759], [-109.401, 72.75], [-109.38, 72.771], [-109.755, 72.879], [-109.619, 72.904], [-109.659, 72.925], [-109.854, 72.917], [-109.902, 72.965], [-110.391, 73.012], [-110.678, 73.007], [-110.757, 72.971], [-110.536, 72.847], [-110.212, 72.818], [-110.168, 72.781], [-110.266, 72.735], [-110.074, 72.756], [-109.77, 72.722], [-109.857, 72.703], [-109.817, 72.676], [-109.833, 72.663], [-110.078, 72.727], [-110.188, 72.726], [-110.213, 72.712], [-110.178, 72.681], [-110.291, 72.671], [-109.959, 72.613], [-109.923, 72.562], [-109.785, 72.498], [-109.889, 72.485], [-110.104, 72.558], [-110.256, 72.557], [-109.783, 72.429], [-109.952, 72.46], [-110.051, 72.434], [-110.343, 72.554], [-110.531, 72.502], [-110.304, 72.431], [-110.351, 72.428], [-110.602, 72.493], [-110.479, 72.552], [-110.701, 72.576], [-110.828, 72.526], [-110.797, 72.473], [-110.993, 72.476], [-110.988, 72.434], [-111.091, 72.402], [-111.033, 72.282], [-111.242, 72.365], [-111.364, 72.342], [-111.281, 72.398], [-111.372, 72.404], [-111.202, 72.46], [-111.294, 72.463], [-111.609, 72.367], [-111.562, 72.337], [-111.419, 72.344], [-111.653, 72.293], [-111.763, 72.199], [-111.786, 72.223], [-111.714, 72.274], [-111.726, 72.301], [-111.652, 72.319], [-111.643, 72.348], [-111.813, 72.323], [-111.906, 72.35], [-111.561, 72.429], [-111.437, 72.489], [-111.489, 72.505], [-111.277, 72.567], [-111.202, 72.671], [-111.22, 72.718], [-112.062, 72.889], [-112.362, 72.905], [-112.515, 72.951], [-113.028, 73.009], [-113.303, 72.949], [-113.608, 72.769], [-113.42, 72.739], [-113.443, 72.672], [-113.7, 72.604], [-113.729, 72.616], [-113.506, 72.699], [-113.807, 72.639], [-113.893, 72.66], [-114.063, 72.64], [-114.319, 72.59], [-114.351, 72.557], [-114.558, 72.561], [-114.552, 72.586], [-114.605, 72.602], [-114.249, 72.689], [-114.328, 72.689], [-114.351, 72.747], [-114.224, 72.795], [-113.969, 72.813], [-114.053, 72.872], [-114.017, 72.926], [-114.051, 72.96], [-113.954, 73.126], [-114.017, 73.206], [-114.226, 73.318], [-114.658, 73.373], [-115.408, 73.228], [-116.574, 73.054], [-116.941, 72.956], [-117.354, 72.916], [-117.869, 72.7], [-118.191, 72.629], [-118.537, 72.494], [-118.589, 72.417], [-118.491, 72.353], [-118.145, 72.327], [-118.113, 72.232], [-118.576, 72.179], [-118.692, 72.131], [-118.725, 72.062], [-118.929, 72.001], [-119.088, 71.908], [-119.134, 71.765], [-119.075, 71.644], [-118.898, 71.578], [-118.866, 71.587], [-118.904, 71.615], [-118.842, 71.665], [-118.455, 71.651], [-118.386, 71.62], [-118.412, 71.577], [-118.177, 71.596], [-118.173, 71.628], [-118.028, 71.672], [-117.696, 71.666], [-117.967, 71.626], [-117.957, 71.599], [-117.887, 71.614], [-117.651, 71.567], [-117.836, 71.555], [-117.766, 71.523], [-118.086, 71.54], [-118.309, 71.466], [-118.284, 71.405], [-118.112, 71.374], [-117.777, 71.369], [-117.72, 71.401], [-117.539, 71.373], [-117.483, 71.432], [-117.633, 71.462], [-117.563, 71.5], [-117.448, 71.474], [-117.471, 71.455], [-117.378, 71.454], [-117.417, 71.391], [-117.377, 71.383], [-115.706, 71.556], [-115.456, 71.532], [-115.559, 71.508], [-115.443, 71.488], [-115.058, 71.523], [-115.378, 71.45], [-115.621, 71.499], [-115.762, 71.484], [-115.741, 71.504], [-116.202, 71.433], [-115.727, 71.376], [-116.149, 71.341], [-116.169, 71.348], [-116.078, 71.366], [-116.209, 71.364], [-116.801, 71.286], [-116.842, 71.247], [-117.797, 71.166], [-118.42, 70.992], [-118.206, 70.844], [-117.736, 70.712], [-117.709, 70.694], [-117.742, 70.661], [-117.725, 70.641], [-117.559, 70.597], [-117.377, 70.626], [-117.338, 70.599], [-116.715, 70.603], [-116.364, 70.639], [-116.171, 70.627], [-116.216, 70.608], [-116.056, 70.572], [-115.7, 70.599], [-115.581, 70.573], [-115.399, 70.605], [-114.641, 70.622], [-114.408, 70.674], [-114.171, 70.665], [-113.938, 70.715], [-113.592, 70.646], [-113.511, 70.678], [-113.207, 70.644], [-113.186, 70.604], [-113.092, 70.609], [-112.882, 70.539], [-112.849, 70.568], [-112.71, 70.567], [-112.528, 70.514], [-112.445, 70.534], [-112.408, 70.507], [-112.199, 70.502], [-111.981, 70.371], [-111.487, 70.337], [-111.589, 70.306], [-111.445, 70.284], [-111.926, 70.252], [-112.283, 70.3], [-112.305, 70.293], [-112.138, 70.271], [-112.379, 70.257], [-112.341, 70.235], [-112.391, 70.225], [-112.543, 70.237], [-112.581, 70.221], [-112.517, 70.207], [-112.565, 70.198], [-113.333, 70.277], [-113.842, 70.269], [-114.218, 70.316], [-115.168, 70.278], [-117.082, 70.109], [-117.436, 69.993], [-117.247, 69.757], [-116.848, 69.649], [-116.91, 69.59], [-116.725, 69.542], [-116.759, 69.571], [-116.581, 69.561], [-116.609, 69.524], [-116.561, 69.489], [-116.63, 69.459], [-116.526, 69.407], [-115.956, 69.292], [-115.5, 69.256], [-115.191, 69.237], [-114.992, 69.28], [-114.764, 69.252], [-114.311, 69.285], [-113.521, 69.179], [-113.692, 69.189], [-113.696, 69.155], [-113.638, 69.139], [-113.676, 69.122], [-113.658, 69.091], [-113.545, 69.048], [-113.64, 69.032], [-113.571, 69.023], [-113.57, 68.957], [-113.677, 68.901], [-113.617, 68.845], [-113.677, 68.811], [-113.453, 68.701], [-113.448, 68.645], [-113.382, 68.603], [-113.118, 68.544], [-113.034, 68.495], [-113.31, 68.473], [-113.251, 68.452], [-112.67, 68.469], [-112.612, 68.502], [-112.124, 68.528], [-111.601, 68.544], [-111.238, 68.514], [-111.204, 68.545], [-111.417, 68.571], [-110.843, 68.602], [-111.039, 68.559], [-110.95, 68.552], [-110.577, 68.617], [-110.427, 68.608], [-110.378, 68.574], [-110.22, 68.629], [-109.683, 68.631], [-109.4, 68.693], [-109.105, 68.711], [-108.597, 68.859], [-108.53, 68.896], [-108.564, 68.928], [-108.534, 68.945], [-107.956, 68.931], [-107.342, 69.019], [-107.138, 69.151], [-107.026, 69.151], [-107.038, 69.186], [-106.929, 69.217], [-106.985, 69.346], [-106.753, 69.379], [-106.733, 69.442], [-106.602, 69.499], [-106.31, 69.404], [-106.312, 69.338], [-106.268, 69.292], [-106.394, 69.237], [-106.406, 69.181], [-106.178, 69.144], [-105.617, 69.161], [-105.451, 69.095], [-105.036, 69.057], [-105.123, 69.091], [-105.083, 69.106], [-104.915, 69.071], [-104.945, 69.026], [-105.041, 69.019], [-105.039, 68.99], [-105.173, 68.992], [-105.274, 68.949], [-105.145, 68.899], [-104.584, 68.86], [-104.503, 68.878], [-104.457, 68.937], [-104.271, 68.901], [-104.304, 68.93], [-104.265, 68.942], [-104.241, 68.897], [-104.11, 68.859], [-103.549, 68.827], [-103.42, 68.779], [-103.353, 68.784], [-103.368, 68.808], [-103.321, 68.83], [-103.195, 68.844], [-103.006, 68.795], [-102.895, 68.8], [-102.7, 68.84], [-102.753, 68.894], [-102.536, 68.864], [-102.398, 68.909], [-102.392, 68.953], [-102.156, 68.945], [-102.062, 68.997], [-101.963, 68.967], [-101.818, 68.994], [-101.868, 69.042], [-101.78, 69.104], [-101.755, 69.176], [-101.922, 69.26], [-102.037, 69.232], [-102.094, 69.179], [-102.217, 69.225], [-102.213, 69.276], [-102.089, 69.232], [-102.037, 69.276], [-102.102, 69.335], [-102.17, 69.317], [-102.169, 69.349], [-102.036, 69.35], [-101.931, 69.413], [-102.058, 69.484], [-102.313, 69.498], [-102.472, 69.479], [-102.531, 69.409], [-102.841, 69.383], [-102.884, 69.322], [-103.195, 69.114], [-103.218, 69.137], [-103.204, 69.201], [-103.023, 69.272], [-103.008, 69.332], [-103.034, 69.36], [-102.991, 69.419], [-103.023, 69.494], [-103.089, 69.522], [-103.095, 69.452], [-103.128, 69.432], [-103.217, 69.551], [-103.504, 69.613], [-103.477, 69.694], [-103.416, 69.706], [-103.362, 69.676], [-103.298, 69.697], [-103.187, 69.629], [-102.813, 69.53], [-102.603, 69.538], [-102.508, 69.564], [-102.478, 69.682], [-102.592, 69.694], [-102.681, 69.76], [-102.576, 69.737], [-102.487, 69.786], [-102.402, 69.774], [-102.388, 69.812], [-102.364, 69.795], [-102.38, 69.761], [-102.35, 69.756], [-102.299, 69.794], [-102.341, 69.836], [-102.237, 69.851], [-102.258, 69.89], [-102.23, 69.917], [-102.169, 69.887], [-102.15, 69.827], [-102.051, 69.856], [-102.018, 69.829], [-102.03, 69.801], [-101.949, 69.741], [-101.766, 69.722], [-101.673, 69.646], [-101.445, 69.909], [-101.416, 69.887], [-101.473, 69.833], [-101.33, 69.67], [-101.155, 69.688], [-101.064, 69.649], [-100.928, 69.684], [-100.949, 69.734], [-100.878, 69.772], [-100.87, 69.814], [-100.904, 69.911], [-100.961, 69.929], [-100.922, 69.965], [-100.926, 70.021], [-101.003, 70.089], [-100.973, 70.145], [-101.0, 70.173], [-101.112, 70.197], [-101.135, 70.16], [-101.222, 70.132], [-101.376, 70.178], [-101.413, 70.124], [-101.54, 70.107], [-101.651, 70.211], [-101.589, 70.272], [-101.715, 70.309], [-101.893, 70.254], [-102.131, 70.343], [-102.195, 70.324], [-102.377, 70.412], [-102.854, 70.508], [-102.848, 70.594], [-103.025, 70.66], [-103.149, 70.672], [-103.126, 70.574], [-102.92, 70.495], [-103.122, 70.502], [-103.309, 70.595], [-103.556, 70.601], [-103.839, 70.743], [-103.994, 70.753], [-104.117, 70.91], [-104.224, 70.962], [-104.316, 70.967], [-104.586, 71.067], [-104.649, 71.119], [-104.444, 71.225], [-104.489, 71.34], [-104.408, 71.365], [-104.278, 71.351], [-104.344, 71.411], [-104.319, 71.462], [-104.402, 71.498], [-104.355, 71.574], [-104.673, 71.823], [-104.79, 71.841], [-104.872, 71.99], [-104.955, 72.057], [-105.019, 72.067], [-105.037, 72.118], [-104.957, 72.181], [-105.302, 72.455], [-105.218, 72.445], [-105.196, 72.482], [-105.252, 72.49], [-105.224, 72.512], [-105.238, 72.548], [-105.318, 72.557], [-105.311, 72.595], [-105.343, 72.617], [-105.291, 72.652], [-105.457, 72.703], [-105.432, 72.729], [-105.51, 72.777], [-105.378, 72.729], [-105.322, 72.742], [-105.399, 72.767], [-105.364, 72.785], [-105.453, 72.843], [-105.555, 72.86], [-105.525, 72.875], [-105.637, 72.929], [-105.608, 72.945], [-105.822, 73.002], [-105.832, 73.05]], [[-100.388, 70.579], [-100.2, 70.581], [-100.336, 70.604], [-100.48, 70.673], [-100.71, 70.679], [-100.662, 70.633], [-100.663, 70.555], [-100.224, 70.457], [-100.297, 70.541], [-100.388, 70.579]], [[-97.466, 69.961], [-97.493, 69.918], [-97.284, 69.853], [-97.227, 69.874], [-97.347, 69.897], [-97.336, 69.946], [-97.466, 69.961]], [[-98.332, 69.635], [-98.368, 69.601], [-98.263, 69.579], [-98.004, 69.436], [-98.092, 69.425], [-98.103, 69.46], [-98.219, 69.473], [-98.358, 69.559], [-98.557, 69.581], [-98.602, 69.521], [-98.419, 69.471], [-98.577, 69.479], [-98.612, 69.444], [-98.397, 69.338], [-98.393, 69.308], [-98.556, 69.275], [-98.654, 69.295], [-98.707, 69.261], [-98.72, 69.194], [-98.936, 69.172], [-99.007, 69.136], [-99.311, 69.159], [-99.342, 69.124], [-99.467, 69.135], [-99.594, 69.016], [-99.461, 68.951], [-99.438, 68.891], [-99.189, 68.824], [-99.044, 68.86], [-99.118, 68.921], [-99.007, 68.908], [-98.981, 68.951], [-98.849, 68.934], [-98.811, 68.916], [-98.87, 68.874], [-98.859, 68.829], [-98.575, 68.787], [-98.519, 68.747], [-98.4, 68.771], [-98.425, 68.841], [-98.383, 68.86], [-98.244, 68.822], [-98.291, 68.756], [-98.12, 68.671], [-98.036, 68.695], [-97.761, 68.654], [-97.506, 68.542], [-97.181, 68.511], [-97.099, 68.529], [-97.144, 68.584], [-97.099, 68.588], [-96.928, 68.521], [-96.531, 68.445], [-96.291, 68.473], [-96.001, 68.619], [-95.852, 68.609], [-95.86, 68.653], [-95.799, 68.694], [-95.791, 68.737], [-95.594, 68.753], [-95.539, 68.723], [-95.566, 68.675], [-95.535, 68.672], [-95.207, 68.85], [-95.351, 68.899], [-95.626, 68.827], [-95.757, 68.891], [-95.834, 68.873], [-95.858, 68.972], [-95.979, 69.044], [-95.924, 69.089], [-96.048, 69.228], [-96.156, 69.169], [-96.135, 69.125], [-96.158, 69.087], [-96.119, 69.026], [-96.219, 69.046], [-96.21, 69.123], [-96.251, 69.154], [-96.171, 69.261], [-96.218, 69.311], [-96.79, 69.495], [-96.879, 69.491], [-97.274, 69.695], [-97.304, 69.698], [-97.391, 69.593], [-97.489, 69.674], [-97.341, 69.706], [-97.468, 69.773], [-97.61, 69.789], [-97.689, 69.815], [-97.695, 69.845], [-97.913, 69.891], [-98.012, 69.886], [-98.108, 69.815], [-98.23, 69.789], [-98.322, 69.714], [-98.332, 69.635]], [[-95.979, 69.349], [-95.862, 69.348], [-95.867, 69.383], [-95.781, 69.463], [-95.823, 69.514], [-95.816, 69.563], [-95.708, 69.549], [-95.669, 69.507], [-95.69, 69.465], [-95.648, 69.403], [-95.728, 69.379], [-95.723, 69.321], [-95.54, 69.325], [-95.402, 69.383], [-95.36, 69.509], [-95.612, 69.614], [-95.686, 69.606], [-95.677, 69.626], [-95.789, 69.634], [-95.928, 69.584], [-95.952, 69.511], [-96.011, 69.478], [-95.946, 69.414], [-95.993, 69.389], [-95.979, 69.349]], [[-96.401, 69.453], [-96.27, 69.371], [-96.147, 69.346], [-96.126, 69.394], [-96.148, 69.422], [-96.096, 69.468], [-96.133, 69.556], [-96.17, 69.567], [-96.316, 69.526], [-96.374, 69.561], [-96.737, 69.577], [-96.549, 69.475], [-96.401, 69.453]], [[-104.519, 68.398], [-104.431, 68.43], [-104.469, 68.503], [-104.592, 68.547], [-104.91, 68.584], [-105.082, 68.546], [-104.919, 68.46], [-104.693, 68.402], [-104.519, 68.398]], [[-101.681, 68.672], [-101.704, 68.787], [-102.023, 68.819], [-102.073, 68.757], [-102.349, 68.683], [-101.905, 68.584], [-101.831, 68.567], [-101.795, 68.624], [-101.825, 68.65], [-101.702, 68.638], [-101.681, 68.672]], [[-100.487, 68.753], [-100.367, 68.711], [-100.299, 68.773], [-100.221, 68.764], [-100.221, 68.8], [-100.176, 68.795], [-100.205, 68.847], [-100.126, 68.906], [-100.239, 68.924], [-100.351, 69.015], [-100.544, 69.037], [-100.628, 68.991], [-100.574, 68.937], [-100.626, 68.912], [-100.63, 68.802], [-100.628, 68.766], [-100.586, 68.754], [-100.469, 68.797], [-100.447, 68.774], [-100.487, 68.753]], [[-100.237, 69.081], [-100.259, 69.032], [-100.206, 68.981], [-100.038, 68.941], [-99.999, 68.944], [-99.977, 69.004], [-100.033, 69.095], [-100.137, 69.145], [-100.237, 69.081]], [[-101.71, 69.169], [-101.602, 69.157], [-101.698, 69.095], [-101.651, 69.086], [-101.564, 69.1], [-101.495, 69.166], [-101.559, 69.217], [-101.695, 69.207], [-101.71, 69.169]], [[-101.174, 69.566], [-101.231, 69.542], [-101.262, 69.582], [-101.358, 69.567], [-101.384, 69.533], [-101.186, 69.475], [-101.229, 69.435], [-101.3, 69.442], [-101.232, 69.406], [-101.279, 69.382], [-101.201, 69.382], [-101.099, 69.402], [-101.063, 69.456], [-100.999, 69.442], [-100.96, 69.473], [-101.174, 69.566]], [[-111.098, 68.477], [-110.696, 68.486], [-110.803, 68.546], [-110.985, 68.516], [-111.098, 68.477]], [[-112.323, 70.356], [-112.17, 70.307], [-111.672, 70.307], [-112.323, 70.356]], [[-116.879, 70.547], [-117.199, 70.592], [-117.302, 70.562], [-117.183, 70.537], [-116.879, 70.547]], [[-128.231, 70.598], [-128.117, 70.581], [-128.088, 70.616], [-128.234, 70.656], [-128.342, 70.542], [-128.242, 70.57], [-128.231, 70.598]], [[-107.681, 73.621], [-108.007, 73.619], [-108.085, 73.586], [-107.931, 73.539], [-107.585, 73.587], [-107.681, 73.621]], [[-124.308, 73.556], [-124.114, 73.564], [-124.168, 73.603], [-124.359, 73.63], [-124.352, 73.571], [-124.308, 73.556]], [[-135.311, 69.306], [-135.272, 69.358], [-135.339, 69.351], [-135.338, 69.389], [-135.566, 69.391], [-135.311, 69.306]], [[-139.252, 69.58], [-139.101, 69.536], [-139.023, 69.581], [-138.867, 69.588], [-139.12, 69.65], [-139.333, 69.566], [-139.252, 69.58]], [[-111.499, 68.297], [-111.589, 68.301], [-111.715, 68.297], [-111.779, 68.241], [-111.672, 68.225], [-111.605, 68.281], [-111.499, 68.297]], [[-109.877, 68.127], [-110.256, 68.037], [-109.921, 68.082], [-109.877, 68.127]], [[-109.447, 68.092], [-109.505, 68.089], [-109.49, 68.075], [-109.47, 68.045], [-109.543, 68.052], [-109.314, 67.986], [-109.33, 68.044], [-109.447, 68.092]], [[-108.884, 67.949], [-108.951, 67.973], [-109.074, 67.974], [-109.059, 67.952], [-109.198, 67.984], [-109.136, 67.93], [-108.917, 67.871], [-108.866, 67.9], [-108.911, 67.924], [-108.884, 67.949]], [[-108.091, 67.881], [-108.051, 67.959], [-108.198, 67.951], [-108.245, 67.878], [-108.091, 67.881]], [[-108.03, 67.499], [-108.067, 67.54], [-107.922, 67.541], [-107.995, 67.655], [-108.114, 67.675], [-108.132, 67.639], [-108.12, 67.576], [-108.074, 67.558], [-108.143, 67.542], [-108.103, 67.467], [-108.03, 67.499]], [[-107.911, 67.311], [-107.934, 67.362], [-107.893, 67.384], [-107.883, 67.462], [-107.903, 67.489], [-107.97, 67.476], [-107.949, 67.469], [-108.069, 67.437], [-108.041, 67.387], [-108.125, 67.422], [-108.151, 67.406], [-107.911, 67.311]], [[-108.295, 67.497], [-108.292, 67.547], [-108.481, 67.566], [-108.467, 67.541], [-108.496, 67.524], [-108.368, 67.467], [-108.295, 67.497]], [[-107.506, 67.072], [-107.32, 67.099], [-107.62, 67.206], [-107.598, 67.146], [-107.506, 67.072]], [[-97.327, 67.682], [-97.36, 67.732], [-97.411, 67.728], [-97.428, 67.695], [-97.561, 67.693], [-97.53, 67.676], [-97.549, 67.638], [-97.479, 67.627], [-97.327, 67.682]]], [[[-134.288, 68.751], [-134.28075094816688, 68.74446396965867], [-134.3046886870355, 68.75526919900909], [-134.288, 68.751]]], [[[-134.262, 68.736], [-134.223, 68.7], [-134.228185617104, 68.69706899902819], [-134.28075094816688, 68.74446396965867], [-134.262, 68.736]]], [[[-134.227, 68.696], [-134.22961608154023, 68.69626047565119], [-134.228185617104, 68.69706899902819], [-134.227, 68.696]]]]}}