{"type": "Feature", "properties": {"geometry_method": "Selected ecosystem polygon used as intended study envelope, not a recovered author boundary", "geometry_confidence": "low"}, "geometry": {"type": "Polygon", "coordinates": [[[43.304, 12.469], [43.02, 12.884], [42.997, 12.892], [42.986, 12.823], [42.932, 12.787], [42.834, 12.861], [42.79, 12.844], [42.727, 13.037], [42.659, 13.068], [42.543, 13.224], [42.475, 13.189], [42.368, 13.223], [42.34, 13.427], [42.283, 13.576], [42.21697443093234, 13.635042095416276], [42.196, 13.595], [42.228, 13.551], [42.141, 13.649], [42.109, 13.636], [41.954, 13.859], [41.839, 13.876], [41.793, 13.934], [41.677, 13.936], [41.612, 14.068], [41.53, 14.133], [41.507, 14.211], [41.171, 14.632], [40.977, 14.658], [40.883, 14.716], [40.768, 14.695], [40.718, 14.767], [40.729, 14.836], [40.673, 14.875], [40.695, 14.89], [40.619, 14.886], [40.618, 14.951], [40.566, 14.945], [40.519, 15.012], [40.494, 14.96], [40.455, 15.009], [40.402, 14.963], [40.386, 14.998], [40.301, 14.912], [40.171, 14.974], [40.025, 15.237], [40.084, 15.329], [39.877, 15.499], [39.77, 15.391], [39.784, 15.256], [39.817, 15.282], [39.855, 15.19], [39.818, 15.081], [39.768, 15.063], [39.696, 15.121], [39.714, 15.258], [39.652, 15.347], [39.617, 15.481], [39.556, 15.538], [39.46, 15.521], [39.432, 15.602], [39.482, 15.63], [39.444, 15.623], [39.475, 15.66], [39.423, 15.758], [39.437, 15.798], [39.306, 15.902], [39.269, 15.989], [39.176, 16.515], [39.146, 16.532], [39.16, 16.679], [39.063, 17.014], [39.009, 17.176], [38.961, 17.231], [38.934, 17.388], [38.613, 17.956], [38.615, 18.031], [38.592, 18.027], [38.538, 18.121], [38.524, 18.063], [38.491, 18.14], [38.429, 18.139], [38.392, 18.218], [38.369, 18.187], [38.217, 18.214], [38.272, 18.233], [38.305, 18.301], [38.243, 18.236], [38.111, 18.288], [38.089, 18.311], [38.126, 18.373], [37.954, 18.538], [37.79, 18.621], [37.786, 18.672], [37.76, 18.626], [37.768, 18.695], [37.688, 18.729], [37.516, 18.724], [37.433, 18.858], [37.408, 19.021], [37.375, 19.031], [37.336, 19.152], [37.29, 19.475], [37.238, 19.572], [37.265, 19.763], [37.185, 20.019], [37.21, 20.071], [37.177, 20.225], [37.178, 20.448], [37.232, 20.47], [37.23, 20.547], [37.172, 20.695], [37.155, 20.92], [37.082, 21.046], [37.123, 21.081], [37.105, 21.212], [37.157, 21.206], [37.162, 21.141], [37.23, 21.129], [37.272, 21.052], [37.191, 21.087], [37.248, 21.002], [37.308, 21.013], [37.309, 21.06], [37.069, 21.331], [36.889, 21.646], [36.879, 21.935], [36.841, 21.964], [36.898, 22.012], [36.89, 22.049], [36.77, 22.167], [36.73, 22.159], [36.551, 22.297], [36.466, 22.318], [36.233, 22.633], [35.977, 22.688], [35.849, 22.759], [35.779, 22.833], [35.755, 22.921], [35.724, 22.926], [35.753, 22.864], [35.671, 22.966], [35.643, 23.111], [35.571, 23.234], [35.544, 23.403], [35.491, 23.49], [35.516, 23.712], [35.512, 23.782], [35.476, 23.812], [35.483, 23.938], [35.537, 23.986], [35.606, 23.935], [35.761, 23.943], [35.817, 23.907], [35.72, 24.009], [35.624, 24.018], [35.572, 24.106], [35.505, 24.144], [35.501, 24.113], [35.383, 24.291], [35.139, 24.517], [35.17, 24.571], [35.112, 24.628], [35.07, 24.748], [34.999, 24.808], [34.986, 24.924], [34.701, 25.384], [34.549, 25.727], [34.333, 26.007], [34.01, 26.614], [33.935, 26.659], [33.946, 26.831], [34.002, 26.84], [33.999, 26.898], [33.946, 26.931], [33.89, 27.029], [33.911, 27.044], [33.836, 27.114], [33.832, 27.252], [33.704, 27.32], [33.633, 27.49], [33.554, 27.533], [33.558, 27.586], [33.495, 27.644], [33.533, 27.678], [33.593, 27.644], [33.537, 27.704], [33.559, 27.754], [33.523, 27.749], [33.476, 27.833], [33.59, 27.789], [33.583, 27.847], [33.48, 27.989], [33.339, 28.046], [33.122, 28.288], [32.999, 28.484], [32.866, 28.575], [32.808, 28.772], [32.689, 28.868], [32.62, 28.978], [32.624, 29.056], [32.666, 29.103], [32.596, 29.341], [32.341, 29.593], [32.366, 29.691], [32.509, 29.863], [32.459, 29.896], [32.474, 29.933], [32.552, 29.961], [32.565, 29.938], [32.575, 30.005], [32.567, 29.928], [32.627, 29.87], [32.606, 29.826], [32.696, 29.728], [32.681, 29.599], [32.724, 29.55], [32.715, 29.455], [32.731, 29.482], [32.814, 29.408], [32.885, 29.239], [33.17, 29.005], [33.171, 28.837], [33.223, 28.768], [33.196, 28.671], [33.234, 28.559], [33.259, 28.578], [33.282, 28.511], [33.411, 28.38], [33.566, 28.294], [33.763, 28.022], [33.88, 27.934], [33.918, 27.939], [34.049, 27.815], [34.191, 27.786], [34.25, 27.729], [34.255, 27.766], [34.21, 27.788], [34.262, 27.792], [34.276, 27.858], [34.321, 27.854], [34.331, 27.91], [34.442, 27.997], [34.453, 28.166], [34.406, 28.31], [34.628, 28.734], [34.639, 28.958], [34.685, 28.992], [34.666, 29.043], [34.696, 29.166], [34.737, 29.207], [34.737, 29.308], [34.863, 29.476], [34.958, 29.552], [35.004, 29.532], [34.928, 29.288], [34.94, 29.248], [34.909, 29.229], [34.855, 29.039], [34.841, 28.821], [34.781, 28.671], [34.808, 28.536], [34.645, 28.194], [34.66, 28.164], [34.627, 28.174], [34.572, 28.089], [34.607, 28.095], [34.631, 28.024], [34.665, 28.067], [34.649, 28.094], [34.707, 28.139], [34.771, 28.092], [34.818, 28.11], [34.803, 28.071], [34.844, 28.114], [34.845, 28.071], [35.003, 28.112], [35.028, 28.094], [35.014, 28.119], [35.222, 28.046], [35.163, 28.001], [35.252, 27.958], [35.336, 27.855], [35.351, 27.794], [35.496, 27.633], [35.566, 27.443], [35.725, 27.311], [35.812, 27.191], [35.822, 27.096], [36.029, 26.901], [36.1, 26.745], [36.209, 26.651], [36.499, 26.124], [36.698, 26.021], [36.708, 25.964], [36.653, 25.862], [36.719, 25.753], [36.8, 25.717], [36.791, 25.755], [36.813, 25.756], [36.932, 25.645], [37.006, 25.499], [37.081, 25.432], [37.058, 25.409], [37.098, 25.332], [37.236, 25.183], [37.279, 24.976], [37.259, 24.875], [37.154, 24.829], [37.186, 24.789], [37.226, 24.801], [37.229, 24.728], [37.45, 24.454], [37.476, 24.403], [37.442, 24.371], [37.532, 24.274], [37.626, 24.252], [37.623, 24.284], [37.681, 24.297], [37.821, 24.177], [37.896, 24.17], [37.89, 24.206], [37.929, 24.223], [37.913, 24.181], [37.947, 24.179], [37.917, 24.16], [38.029, 24.076], [38.075, 24.085], [38.453, 23.782], [38.548, 23.531], [38.588, 23.515], [38.557, 23.552], [38.603, 23.56], [38.675, 23.423], [38.706, 23.245], [38.801, 23.156], [38.791, 23.008], [38.893, 22.962], [38.944, 22.9], [38.952, 22.848], [38.913, 22.85], [38.888, 22.913], [38.847, 22.925], [38.969, 22.748], [38.941, 22.831], [39.017, 22.763], [38.979, 22.725], [39.079, 22.57], [39.089, 22.374], [39.113, 22.412], [39.145, 22.404], [39.031, 22.215], [39.019, 22.117], [39.048, 22.144], [39.004, 21.947], [39.031, 21.833], [38.992, 21.907], [38.945, 21.911], [39.062, 21.724], [39.114, 21.741], [39.075, 21.688], [39.087, 21.576], [39.118, 21.512], [39.151, 21.533], [39.171, 21.416], [39.082, 21.313], [39.16, 21.209], [39.177, 21.099], [39.235, 21.062], [39.295, 20.924], [39.355, 20.919], [39.348, 20.869], [39.449, 20.822], [39.456, 20.794], [39.415, 20.801], [39.437, 20.747], [39.503, 20.745], [39.49, 20.706], [39.592, 20.583], [39.568, 20.568], [39.599, 20.521], [39.768, 20.343], [39.936, 20.257], [39.9, 20.304], [39.983, 20.265], [40.099, 20.271], [40.165, 20.197], [40.232, 20.184], [40.273, 20.112], [40.526, 19.967], [40.53, 19.903], [40.639, 19.765], [40.681, 19.795], [40.76, 19.76], [40.803, 19.659], [40.796, 19.599], [40.756, 19.613], [40.842, 19.534], [40.943, 19.503], [40.952, 19.333], [41.055, 19.233], [41.043, 19.182], [41.083, 19.111], [41.174, 19.072], [41.135, 18.941], [41.172, 18.868], [41.251, 18.831], [41.205, 18.695], [41.261, 18.599], [41.358, 18.564], [41.437, 18.468], [41.47, 18.279], [41.509, 18.27], [41.495, 18.222], [41.559, 18.184], [41.598, 18.086], [41.679, 18.001], [41.679, 17.949], [41.785, 17.832], [41.88, 17.811], [42.306, 17.45], [42.361, 17.021], [42.382, 17.119], [42.361, 17.177], [42.414, 17.157], [42.454, 17.041], [42.548, 17.003], [42.542, 16.871], [42.71, 16.736], [42.739, 16.669], [42.721, 16.562], [42.793, 16.459], [42.846, 16.093], [42.836, 15.885], [42.758, 15.83], [42.746, 15.753], [42.694, 15.7], [42.719, 15.682], [42.715, 15.562], [42.787, 15.462], [42.811, 15.263], [42.792, 15.203], [42.778, 15.256], [42.701, 15.306], [42.71, 15.361], [42.676, 15.306], [42.684, 15.239], [42.608, 15.239], [42.64, 15.177], [42.726, 15.209], [42.861, 15.137], [42.884, 15.003], [42.936, 14.958], [42.947, 14.814], [42.884, 14.911], [42.882, 14.861], [42.943, 14.783], [43.027, 14.556], [43.02, 14.441], [42.979, 14.522], [42.957, 14.513], [43.102, 14.176], [43.087, 13.993], [43.233, 13.875], [43.28, 13.718], [43.294, 13.585], [43.255, 13.524], [43.228, 13.278], [43.482, 12.828], [43.467, 12.678], [43.304, 12.469]], [[42.218, 13.637], [42.213161812297734, 13.63845145631068], [42.21697443093234, 13.635042095416276], [42.218, 13.637]], [[42.179, 13.669], [42.158, 13.655], [42.213161812297734, 13.63845145631068], [42.179, 13.669]], [[40.419, 15.574], [40.411, 15.636], [40.284, 15.701], [40.222, 15.687], [40.284, 15.655], [40.237, 15.628], [40.162, 15.643], [40.129, 15.719], [40.139, 15.808], [40.09, 15.786], [40.087, 15.852], [39.95, 15.892], [40.041, 15.835], [39.986, 15.818], [39.993, 15.766], [39.929, 15.789], [39.927, 15.741], [40.019, 15.732], [40.081, 15.667], [40.034, 15.639], [39.973, 15.655], [39.942, 15.7], [39.974, 15.609], [40.312, 15.568], [40.419, 15.574]], [[42.168, 16.709], [42.107, 16.736], [42.074, 16.811], [42.042, 16.806], [42.014, 16.743], [42.075, 16.71], [41.945, 16.711], [41.754, 16.876], [41.771, 16.777], [41.932, 16.656], [42.086, 16.664], [42.11, 16.639], [42.083, 16.609], [42.177, 16.563], [42.159, 16.653], [42.168, 16.709]], [[41.992, 16.761], [41.931, 16.828], [41.97, 16.848], [41.943, 16.969], [41.846, 17.009], [41.93, 16.96], [41.928, 16.93], [41.834, 16.879], [41.929, 16.764], [41.992, 16.761]]]}}