{"type": "Feature", "properties": {"geometry_method": "target polygon used as intended article/model envelope", "geometry_confidence": "medium"}, "geometry": {"type": "MultiPolygon", "coordinates": [[[[-110.699, 21.946], [-112.192, 21.98], [-113.031, 21.99], [-113.329, 21.94], [-114.916, 22.08], [-115.681, 22.071], [-116.411, 22.183], [-117.513, 22.264], [-118.039, 22.392], [-118.626, 22.746], [-119.155, 22.994], [-120.024, 23.332], [-120.559, 23.735], [-120.784, 24.324], [-121.656, 25.174], [-123.31, 26.705], [-124.166, 27.355], [-124.8, 28.017], [-125.188, 28.625], [-125.606, 29.397], [-126.061, 30.081], [-126.716, 30.614], [-127.864, 31.967], [-128.267, 32.572], [-129.135, 34.482], [-129.42, 35.393], [-129.919, 36.487], [-130.483, 37.585], [-131.014, 38.47], [-131.241, 39.164], [-131.472, 39.685], [-131.679, 40.326], [-131.697, 40.812], [-131.806, 41.401], [-132.061, 42.209], [-132.032, 42.597], [-132.112, 43.214], [-131.992, 43.339], [-131.131, 43.937], [-130.172, 44.548], [-129.263, 44.965], [-127.187, 46.145], [-124.598, 47.903], [-124.465, 47.826], [-124.362, 47.676], [-124.301, 47.371], [-124.256, 47.36], [-124.183, 47.221], [-124.149, 47.061], [-124.162, 46.941], [-124.109, 46.976], [-124.133, 47.045], [-124.084, 47.067], [-123.974, 46.991], [-123.797, 46.976], [-124.026, 46.908], [-124.041, 46.879], [-124.011, 46.881], [-124.002, 46.849], [-124.061, 46.861], [-124.097, 46.926], [-124.12, 46.914], [-124.073, 46.743], [-123.954, 46.723], [-123.956, 46.745], [-123.872, 46.756], [-123.753, 46.693], [-123.783, 46.675], [-123.842, 46.716], [-123.903, 46.69], [-123.917, 46.658], [-123.885, 46.616], [-123.941, 46.637], [-123.88, 46.555], [-123.924, 46.497], [-123.828, 46.425], [-123.909, 46.457], [-123.942, 46.391], [-123.99, 46.398], [-124.016, 46.654], [-124.043, 46.658], [-124.041, 46.347], [-124.071, 46.287], [-124.016, 46.284], [-123.983, 46.326], [-123.853, 46.26], [-123.677, 46.325], [-123.612, 46.275], [-123.426, 46.286], [-123.284, 46.173], [-123.164, 46.195], [-123.259, 46.144], [-123.399, 46.175], [-123.488, 46.251], [-123.693, 46.188], [-123.759, 46.223], [-123.838, 46.204], [-123.768, 46.157], [-123.785, 46.121], [-123.808, 46.175], [-123.982, 46.24], [-123.909, 46.034], [-123.922, 45.987], [-123.975, 45.957], [-123.936, 45.888], [-123.975, 45.776], [-123.916, 45.689], [-123.857, 45.712], [-123.896, 45.692], [-123.931, 45.592], [-123.876, 45.576], [-123.873, 45.531], [-123.839, 45.519], [-123.869, 45.486], [-123.92, 45.525], [-123.953, 45.5], [-123.905, 45.414], [-123.936, 45.395], [-123.938, 45.431], [-123.977, 45.356], [-123.926, 45.291], [-123.956, 45.222], [-123.944, 45.164], [-123.994, 45.061], [-123.995, 44.92], [-124.056, 44.834], [-124.056, 44.687], [-123.994, 44.619], [-124.049, 44.623], [-124.07, 44.457], [-124.016, 44.456], [-124.003, 44.424], [-124.066, 44.43], [-124.098, 44.329], [-124.12, 44.075], [-124.099, 44.009], [-124.123, 44.005], [-124.18, 43.709], [-124.16018130311615, 43.70321954674221], [-124.191, 43.671], [-124.313, 43.381], [-124.186, 43.481], [-124.198, 43.45], [-124.14, 43.366], [-124.197, 43.382], [-124.215, 43.43], [-124.293, 43.366], [-124.27, 43.353], [-124.298, 43.34], [-124.294, 43.297], [-124.316, 43.361], [-124.362, 43.352], [-124.426, 43.04], [-124.545, 42.846], [-124.495, 42.751], [-124.389, 42.659], [-124.429, 42.341], [-124.331, 42.11], [-124.185, 41.998], [-124.19, 41.869], [-124.243, 41.79], [-124.146, 41.747], [-124.116, 41.701], [-124.051, 41.546], [-124.04, 41.424], [-124.14, 41.143], [-124.099, 40.992], [-124.208, 40.774], [-124.125, 40.861], [-124.063, 40.848], [-124.161, 40.798], [-124.204, 40.696], [-124.246, 40.711], [-124.219, 40.759], [-124.254, 40.724], [-124.377, 40.446], [-124.322, 40.331], [-124.332, 40.266], [-124.064, 40.094], [-124.052, 40.035], [-123.949, 39.976], [-123.822, 39.829], [-123.736, 39.56], [-123.797, 39.359], [-123.683, 39.114], [-123.667, 39.019], [-123.715, 38.969], [-123.704, 38.932], [-123.451, 38.738], [-123.309, 38.57], [-123.105, 38.461], [-123.042, 38.361], [-123.045, 38.312], [-123.029, 38.334], [-122.97, 38.297], [-122.804, 38.088], [-122.966, 38.24], [-122.926, 38.15], [-122.996, 38.001], [-122.949, 37.999], [-122.909, 38.085], [-122.684, 37.904], [-122.652, 37.934], [-122.491, 37.828], [-122.449, 37.841], [-122.467, 37.891], [-122.419, 37.885], [-122.479, 37.934], [-122.435, 37.999], [-122.483, 38.024], [-122.481, 38.119], [-122.409, 38.127], [-122.383, 38.169], [-122.235, 38.079], [-122.128, 38.055], [-121.998, 38.153], [-121.961, 38.142], [-121.978, 38.097], [-121.886, 38.085], [-121.902, 38.062], [-121.757, 38.082], [-121.669, 38.156], [-121.694, 38.094], [-121.758, 38.056], [-121.714, 38.047], [-121.659, 38.101], [-121.577, 38.116], [-121.42, 38.013], [-121.596, 38.106], [-121.693, 38.044], [-121.676, 38.019], [-121.989, 38.066], [-122.133, 38.035], [-122.216, 38.067], [-122.346, 38.017], [-122.395, 37.963], [-122.295, 37.897], [-122.297, 37.786], [-122.193, 37.757], [-122.227, 37.741], [-122.157, 37.695], [-122.082, 37.512], [-122.006, 37.471], [-122.077, 37.462], [-122.238, 37.58], [-122.357, 37.613], [-122.363, 37.72], [-122.335, 37.734], [-122.387, 37.817], [-122.486, 37.791], [-122.488, 37.518], [-122.42, 37.472], [-122.372, 37.336], [-122.39, 37.225], [-122.307, 37.121], [-122.062, 36.959], [-121.871, 36.969], [-121.758, 36.822], [-121.775, 36.759], [-121.74, 36.734], [-121.783, 36.742], [-121.82, 36.633], [-121.855, 36.613], [-121.905, 36.643], [-121.945, 36.593], [-121.893, 36.541], [-121.923, 36.524], [-121.868, 36.312], [-121.801, 36.244], [-121.658, 36.178], [-121.556, 36.031], [-121.474, 36.0], [-121.435, 35.891], [-121.299, 35.77], [-121.263, 35.669], [-121.147, 35.648], [-120.993, 35.474], [-120.857, 35.433], [-120.806, 35.346], [-120.839, 35.325], [-120.838, 35.359], [-120.859, 35.307], [-120.851, 35.221], [-120.614, 35.136], [-120.603, 35.062], [-120.656, 34.93], [-120.596, 34.856], [-120.62, 34.571], [-120.494, 34.53], [-120.447, 34.454], [-120.123, 34.479], [-119.709, 34.394], [-119.655, 34.423], [-119.542, 34.414], [-119.273, 34.28], [-119.223, 34.168], [-119.129, 34.114], [-118.801, 34.011], [-118.752, 34.04], [-118.535, 34.051], [-118.387, 33.85], [-118.421, 33.779], [-118.4, 33.749], [-118.29, 33.715], [-118.27, 33.766], [-118.226, 33.784], [-118.116, 33.761], [-117.481, 33.327], [-117.329, 33.124], [-117.272, 32.985], [-117.256, 32.659], [-117.212, 32.73], [-117.132, 32.67], [-117.115, 32.615], [-117.213, 32.694], [-117.027, 32.3], [-116.91, 32.228], [-116.861, 32.014], [-116.599, 31.831], [-116.626, 31.739], [-116.722, 31.748], [-116.635, 31.659], [-116.637, 31.587], [-116.677, 31.555], [-116.593, 31.47], [-116.494, 31.425], [-116.337, 31.214], [-116.302, 31.09], [-116.327, 30.974], [-116.257, 30.958], [-116.207, 30.892], [-116.054, 30.798], [-116.036, 30.443], [-115.991, 30.373], [-116.013, 30.439], [-115.958, 30.445], [-115.981, 30.497], [-115.929, 30.446], [-115.968, 30.398], [-115.868, 30.384], [-115.826, 30.332], [-115.783, 30.108], [-115.808, 29.954], [-115.729, 29.93], [-115.695, 29.867], [-115.694, 29.768], [-115.573, 29.696], [-115.526, 29.628], [-115.469, 29.626], [-115.233, 29.489], [-115.188, 29.428], [-114.95, 29.377], [-114.744, 29.199], [-114.71, 29.135], [-114.648, 29.114], [-114.55, 28.935], [-114.491, 28.939], [-114.405, 28.886], [-114.393, 28.83], [-114.262, 28.714], [-114.264, 28.684], [-114.162, 28.672], [-114.143, 28.594], [-114.064, 28.527], [-114.098, 28.399], [-114.183, 28.262], [-114.112, 28.178], [-114.129, 28.024], [-114.161, 27.963], [-114.148, 28.049], [-114.285, 27.946], [-114.311, 27.866], [-114.237, 27.833], [-114.226, 27.769], [-114.161, 27.717], [-114.036, 27.771], [-113.976, 27.733], [-113.987, 27.699], [-114.166, 27.693], [-114.279, 27.733], [-114.332, 27.781], [-114.347, 27.879], [-114.501, 27.769], [-114.614, 27.767], [-114.856, 27.836], [-114.999, 27.832], [-115.048, 27.862], [-115.014, 27.729], [-114.951, 27.721], [-114.908, 27.671], [-114.872, 27.694], [-114.844, 27.658], [-114.863, 27.646], [-114.799, 27.622], [-114.737, 27.534], [-114.521, 27.421], [-114.482, 27.347], [-114.479, 27.242], [-114.434, 27.232], [-114.411, 27.185], [-114.281, 27.144], [-114.244, 27.166], [-114.17, 27.147], [-114.088, 27.097], [-114.001, 26.983], [-113.849, 26.983], [-113.726, 26.827], [-113.598, 26.737], [-113.533, 26.746], [-113.439, 26.845], [-113.401, 26.824], [-113.446, 26.822], [-113.25, 26.743], [-113.243, 26.796], [-113.204, 26.822], [-113.241, 26.817], [-113.185, 26.875], [-113.179, 26.97], [-113.128, 26.959], [-113.128, 26.881], [-113.232, 26.781], [-113.229, 26.711], [-113.117, 26.672], [-113.08, 26.689], [-113.103, 26.645], [-112.771, 26.436], [-112.781, 26.412], [-112.671, 26.329], [-112.537, 26.326], [-112.542, 26.296], [-112.486, 26.269], [-112.43, 26.291], [-112.378, 26.255], [-112.342, 26.083], [-112.309, 26.094], [-112.228, 26.015], [-112.113, 25.774], [-112.1, 25.517], [-112.075, 25.714], [-112.068, 25.272], [-112.128, 25.167], [-112.124, 25.054], [-112.179, 24.894], [-112.149, 24.901], [-112.096, 25.026], [-112.079, 24.956], [-112.126, 24.878], [-112.071, 24.769], [-112.094, 24.736], [-112.052, 24.77], [-112.041, 24.853], [-112.034, 24.761], [-111.974, 24.757], [-112.002, 24.886], [-111.931, 24.747], [-111.827, 24.642], [-111.808, 24.514], [-111.766, 24.523], [-111.794, 24.562], [-111.706, 24.547], [-111.685, 24.594], [-111.655, 24.58], [-111.603, 24.46], [-111.375, 24.306], [-111.471, 24.334], [-111.042, 24.112], [-110.634, 23.732], [-110.317, 23.567], [-110.249, 23.415], [-110.172, 23.328], [-110.081, 22.987], [-110.005, 22.886], [-109.911, 22.878], [-108.755, 21.837], [-110.699, 21.946]], [[-111.826, 24.492], [-111.837, 24.541], [-112.017, 24.532], [-111.704, 24.337], [-111.7, 24.4], [-111.826, 24.492]], [[-112.133, 24.715], [-112.202, 24.845], [-112.136, 25.282], [-112.212, 24.984], [-112.304, 24.811], [-112.181, 24.784], [-112.153, 24.709], [-112.179, 24.662], [-112.109, 24.603], [-112.088, 24.535], [-112.04, 24.528], [-112.142, 24.648], [-112.133, 24.715]], [[-115.179, 28.309], [-115.241, 28.371], [-115.281, 28.316], [-115.25, 28.228], [-115.355, 28.09], [-115.304, 28.099], [-115.218, 28.03], [-115.168, 28.036], [-115.146, 28.179], [-115.179, 28.309]], [[-118.238, 29.03], [-118.316, 29.133], [-118.31, 29.195], [-118.404, 29.148], [-118.393, 29.08], [-118.333, 29.023], [-118.301, 28.87], [-118.244, 28.924], [-118.238, 29.03]], [[-118.52, 32.975], [-118.551, 33.042], [-118.592, 33.047], [-118.494, 32.867], [-118.401, 32.819], [-118.341, 32.836], [-118.52, 32.975]], [[-119.508, 33.222], [-119.42, 33.224], [-119.511, 33.286], [-119.567, 33.283], [-119.508, 33.222]], [[-118.478, 33.431], [-118.454, 33.331], [-118.302, 33.309], [-118.297, 33.346], [-118.353, 33.416], [-118.592, 33.487], [-118.478, 33.431]], [[-119.967, 33.99], [-120.02, 34.003], [-120.034, 34.048], [-120.24, 34.019], [-120.164, 33.928], [-120.107, 33.906], [-119.967, 33.959], [-119.967, 33.99]], [[-119.717, 33.97], [-119.536, 34.013], [-119.514, 34.043], [-119.56, 34.067], [-119.654, 34.026], [-119.917, 34.084], [-119.87, 34.035], [-119.882, 34.012], [-119.837, 33.974], [-119.717, 33.97]]], [[[-124.14991519434629, 43.713952296819784], [-124.156, 43.702], [-124.16018130311615, 43.70321954674221], [-124.14991519434629, 43.713952296819784]]], [[[-124.125, 43.74], [-124.14991519434629, 43.713952296819784], [-124.128, 43.757], [-124.062, 43.717], [-124.125, 43.74]]]]}}