{"type": "Feature", "properties": {"geometry_method": "target polygon used as intended article/model envelope", "geometry_confidence": "medium"}, "geometry": {"type": "Polygon", "coordinates": [[[77.0, 0.0], [80.0, 0.0], [80.0, -35.121], [79.609, -34.909], [78.962, -34.673], [78.279, -34.529], [77.545, -34.478], [76.842, -34.526], [76.127, -34.678], [75.481, -34.914], [74.89, -35.235], [74.371, -35.633], [73.94, -36.096], [73.601, -36.63], [73.383, -37.185], [73.286, -37.761], [73.311, -38.224], [73.241, -38.635], [73.271, -39.217], [73.436, -39.803], [73.726, -40.339], [74.139, -40.827], [74.666, -41.253], [75.288, -41.6], [75.985, -41.857], [76.759, -42.017], [77.539, -42.07], [78.318, -42.017], [79.081, -41.857], [79.779, -41.6], [80.0, -41.477], [80.0, -45.0], [56.619, -45.0], [56.348, -44.651], [55.843, -44.197], [55.196, -43.78], [54.519, -43.468], [53.778, -43.24], [52.852, -43.091], [52.057, -42.818], [51.292, -42.67], [50.504, -42.617], [49.716, -42.659], [48.948, -42.796], [48.219, -43.024], [47.296, -43.451], [46.684, -43.851], [46.182, -44.306], [45.781, -44.826], [45.696, -45.0], [42.148, -45.0], [42.057, -44.881], [41.552, -44.418], [40.951, -44.023], [40.273, -43.706], [39.492, -43.457], [38.717, -43.316], [37.922, -43.269], [37.096, -43.317], [36.322, -43.46], [35.588, -43.693], [34.915, -44.011], [34.293, -44.421], [33.678, -45.0], [30.0, -45.0], [30.0, -35.892], [30.635, -35.493], [31.281, -35.014], [32.296, -34.047], [32.735, -33.711], [33.402, -33.028], [34.498, -31.404], [34.998, -30.999], [35.501, -30.485], [35.861, -29.939], [36.224, -29.01], [36.347, -28.322], [36.478, -27.963], [36.533, -27.702], [36.994, -27.483], [37.563, -27.11], [38.01, -26.688], [38.691, -25.774], [38.871, -25.4], [39.046, -25.478], [39.67, -25.64], [40.315, -25.699], [40.782, -26.594], [41.315, -27.318], [41.762, -27.741], [42.289, -28.087], [43.815, -28.704], [44.452, -28.861], [45.143, -28.917], [46.166, -28.866], [46.804, -28.713], [48.032, -28.303], [48.624, -28.047], [49.012, -27.86], [49.539, -27.515], [49.987, -27.093], [50.343, -26.608], [50.691, -25.858], [50.825, -25.39], [51.035, -24.875], [51.16, -24.444], [51.434, -23.258], [51.648, -22.743], [51.835, -22.12], [52.164, -22.851], [52.554, -23.378], [53.001, -23.802], [53.517, -24.143], [54.238, -24.467], [54.982, -24.657], [55.658, -24.71], [56.295, -24.658], [57.038, -24.479], [57.62, -24.222], [58.24, -23.801], [58.821, -23.639], [59.397, -23.398], [60.042, -22.97], [60.488, -22.559], [60.827, -22.11], [61.057, -22.322], [61.612, -22.677], [62.186, -22.918], [62.797, -23.061], [63.499, -23.114], [64.127, -23.052], [64.732, -22.888], [65.294, -22.629], [65.797, -22.282], [66.29, -21.791], [66.63, -21.303], [66.872, -20.767], [67.011, -20.197], [67.039, -19.592], [66.963, -19.017], [66.782, -18.463], [66.505, -17.946], [66.137, -17.478], [65.694, -17.081], [65.187, -16.761], [64.625, -16.525], [64.0, -16.374], [63.333, -16.331], [63.148, -16.349], [63.111, -16.001], [62.895, -15.235], [62.581, -14.572], [62.232, -14.098], [61.806, -13.691], [61.315, -13.36], [60.773, -13.116], [60.198, -12.965], [59.605, -12.913], [58.92, -12.984], [59.306, -12.6], [59.642, -12.122], [59.889, -11.589], [60.036, -11.027], [60.081, -10.442], [60.023, -9.864], [59.863, -9.3], [59.609, -8.775], [59.387, -8.437], [59.612, -7.664], [59.657, -7.085], [59.6, -6.489], [59.443, -5.93], [59.185, -5.396], [59.249, -5.149], [59.296, -4.571], [59.214, -3.743], [59.06, -3.182], [58.556, -2.128], [58.219, -1.65], [57.806, -1.24], [57.329, -0.908], [56.803, -0.664], [55.783, -0.429], [55.204, -0.379], [54.625, -0.43], [54.065, -0.581], [53.539, -0.826], [53.063, -1.158], [52.592, -1.653], [52.26, -1.741], [51.733, -1.985], [51.245, -2.327], [50.842, -2.726], [50.507, -3.199], [50.258, -3.724], [50.112, -4.178], [49.947, -4.41], [49.697, -4.934], [49.542, -5.493], [49.469, -6.223], [49.038, -6.421], [48.832, -6.563], [48.153, -6.362], [47.827, -6.335], [47.639, -6.249], [47.038, -6.09], [46.397, -6.031], [45.646, -6.084], [45.074, -6.236], [44.538, -6.481], [44.057, -6.81], [43.637, -7.221], [43.271, -7.744], [43.246, -7.368], [43.285, -6.891], [43.229, -6.313], [43.123, -5.928], [43.159, -5.777], [43.216, -5.06], [43.192, -4.681], [43.288, -4.681], [43.401, -4.589], [44.036, -3.941], [44.528, -3.233], [45.065, -2.601], [45.254, -2.332], [45.818, -1.732], [46.169, -1.466], [46.532, -1.128], [47.573, -0.53], [48.164, -0.114], [49.145, 0.832], [50.516, 2.329], [51.799, 4.236], [52.136, 4.923], [52.278, 5.347], [52.552, 5.742], [52.763, 6.143], [53.241, 6.871], [53.38, 7.164], [53.745, 7.748], [53.991, 8.262], [54.298, 8.691], [54.43, 8.958], [54.653, 9.053], [55.269, 9.202], [56.205, 9.636], [56.693, 9.962], [57.117, 10.366], [57.466, 10.838], [57.727, 11.359], [57.892, 11.916], [57.957, 12.493], [57.917, 13.087], [57.776, 13.65], [57.535, 14.18], [57.433, 14.335], [57.573, 14.368], [58.118, 14.609], [58.613, 14.937], [59.043, 15.341], [59.396, 15.812], [59.527, 16.07], [60.016, 16.386], [60.494, 16.818], [60.854, 17.285], [61.113, 17.781], [61.431, 18.074], [61.998, 18.767], [62.276, 19.283], [62.448, 19.81], [63.135, 20.983], [63.343, 21.604], [63.37, 21.79], [63.876, 21.774], [64.609, 21.82], [65.1, 21.35], [65.606, 21.059], [65.906, 20.505], [66.31, 20.002], [67.859, 18.527], [68.079, 18.352], [68.721, 17.945], [69.492, 17.611], [69.828, 16.487], [69.901, 15.931], [70.045, 15.43], [70.063, 15.244], [69.765, 15.04], [69.44, 14.754], [69.212, 14.5], [68.869, 14.0], [68.642, 13.5], [68.423, 12.805], [68.334, 12.3], [68.324, 11.8], [68.402, 11.246], [68.727, 10.267], [69.045, 8.916], [69.478, 7.933], [69.556, 7.949], [69.274, 6.919], [69.217, 6.5], [69.216, 6.0], [69.383, 4.271], [69.382, 3.414], [69.572, 2.0], [69.66, 0.319], [69.781, -1.027], [69.928, -1.664], [70.093, -2.068], [70.207, -2.284], [69.911, -2.458], [69.399, -2.878], [69.1, -3.218], [68.752, -3.774], [68.493, -4.464], [68.205, -5.003], [68.008, -5.561], [67.897, -6.208], [67.893, -6.655], [67.949, -7.104], [68.133, -7.79], [68.299, -8.198], [68.644, -8.758], [68.933, -9.089], [69.278, -9.392], [69.644, -9.637], [70.08, -9.847], [70.552, -10.229], [70.934, -10.448], [71.554, -10.679], [72.208, -10.785], [72.872, -10.762], [73.522, -10.609], [74.126, -10.335], [74.661, -9.951], [75.166, -9.41], [75.511, -8.849], [75.677, -8.444], [75.788, -8.02], [75.842, -7.586], [75.841, -7.063], [75.781, -6.629], [75.64, -6.14], [75.662, -5.453], [75.552, -4.668], [75.358, -4.04], [75.153, -3.626], [75.039, -3.465], [75.507, -3.098], [75.859, -2.704], [76.388, -1.87], [76.626, -1.287], [76.89, 0.0], [76.918, 0.5], [76.918, 1.885], [77.0, 2.479], [77.0, 0.0]]]}}