{
  "type": "Feature",
  "properties": {
    "article_id": "CAN-2009",
    "unit_id": "LME_027",
    "geometry_method": "reported/inferred bounding box shown against the target polygon"
  },
  "geometry": {
    "type": "Polygon",
    "coordinates": [
      [
        [
          -30,
          8.5
        ],
        [
          -6.5,
          8.5
        ],
        [
          -6.5,
          36
        ],
        [
          -30,
          36
        ],
        [
          -30,
          8.5
        ]
      ]
    ]
  }
}