{
  "type": "Feature",
  "properties": {
    "article_id": "HAW-2013",
    "unit_id": "LME_010",
    "geometry_method": "published/inferred bounding box; not a clipped or exact author polygon"
  },
  "geometry": {
    "type": "Polygon",
    "coordinates": [
      [
        [
          -161,
          18
        ],
        [
          -154,
          18
        ],
        [
          -154,
          28
        ],
        [
          -161,
          28
        ],
        [
          -161,
          18
        ]
      ]
    ]
  }
}