{
  "type": "Feature",
  "properties": {
    "article_id": "FAR-2004",
    "unit_id": "LME_060",
    "geometry_method": "target polygon used as intended model envelope"
  },
  "geometry": {
    "type": "MultiPolygon",
    "coordinates": [
      [
        [
          [
            -5.231,
            63.001
          ],
          [
            -4.21,
            63.001
          ],
          [
            -3.756,
            62.007
          ],
          [
            -7.367,
            60.01
          ],
          [
            -12.782,
            60.007
          ],
          [
            -10.443,
            62.026
          ],
          [
            -8.849,
            63.001
          ],
          [
            -5.231,
            63.001
          ]
        ],
        [
          [
            -6.574,
            62.349
          ],
          [
            -6.545,
            62.263
          ],
          [
            -6.588,
            62.24
          ],
          [
            -6.573,
            62.212
          ],
          [
            -6.518,
            62.169
          ],
          [
            -6.534,
            62.227
          ],
          [
            -6.412,
            62.185
          ],
          [
            -6.417,
            62.217
          ],
          [
            -6.495,
            62.252
          ],
          [
            -6.389,
            62.255
          ],
          [
            -6.489,
            62.288
          ],
          [
            -6.541,
            62.364
          ],
          [
            -6.574,
            62.349
          ]
        ],
        [
          [
            -6.723,
            62.181
          ],
          [
            -6.598,
            62.194
          ],
          [
            -6.782,
            62.23
          ],
          [
            -6.735,
            62.26
          ],
          [
            -6.824,
            62.269
          ],
          [
            -6.807,
            62.29
          ],
          [
            -6.907,
            62.279
          ],
          [
            -6.916,
            62.238
          ],
          [
            -6.933,
            62.287
          ],
          [
            -6.878,
            62.312
          ],
          [
            -6.95,
            62.338
          ],
          [
            -7.085,
            62.312
          ],
          [
            -6.948,
            62.182
          ],
          [
            -6.744,
            62.092
          ],
          [
            -6.729,
            62.136
          ],
          [
            -6.811,
            62.19
          ],
          [
            -6.753,
            62.176
          ],
          [
            -6.67,
            62.059
          ],
          [
            -6.654,
            62.1
          ],
          [
            -6.592,
            62.107
          ],
          [
            -6.665,
            62.144
          ],
          [
            -6.564,
            62.132
          ],
          [
            -6.723,
            62.181
          ]
        ],
        [
          [
            -6.798,
            62.089
          ],
          [
            -6.902,
            62.097
          ],
          [
            -6.839,
            62.129
          ],
          [
            -6.997,
            62.183
          ],
          [
            -7.071,
            62.285
          ],
          [
            -7.192,
            62.308
          ],
          [
            -7.211,
            62.285
          ],
          [
            -7.19,
            62.237
          ],
          [
            -7.232,
            62.173
          ],
          [
            -7.011,
            62.108
          ],
          [
            -6.961,
            62.047
          ],
          [
            -6.703,
            61.94
          ],
          [
            -6.735,
            62.044
          ],
          [
            -6.847,
            62.054
          ],
          [
            -6.778,
            62.062
          ],
          [
            -6.798,
            62.089
          ]
        ],
        [
          [
            -7.159,
            62.042
          ],
          [
            -7.063,
            62.049
          ],
          [
            -7.041,
            62.091
          ],
          [
            -7.223,
            62.159
          ],
          [
            -7.332,
            62.124
          ],
          [
            -7.435,
            62.14
          ],
          [
            -7.396,
            62.096
          ],
          [
            -7.285,
            62.071
          ],
          [
            -7.382,
            62.068
          ],
          [
            -7.346,
            62.052
          ],
          [
            -7.216,
            62.027
          ],
          [
            -7.227,
            62.064
          ],
          [
            -7.202,
            62.019
          ],
          [
            -7.124,
            62.036
          ],
          [
            -7.159,
            62.042
          ]
        ],
        [
          [
            -6.847,
            61.824
          ],
          [
            -6.747,
            61.821
          ],
          [
            -6.652,
            61.743
          ],
          [
            -6.604,
            61.826
          ],
          [
            -6.783,
            61.897
          ],
          [
            -6.905,
            61.908
          ],
          [
            -6.847,
            61.824
          ]
        ],
        [
          [
            -6.668,
            61.389
          ],
          [
            -6.642,
            61.397
          ],
          [
            -6.658,
            61.437
          ],
          [
            -6.786,
            61.466
          ],
          [
            -6.676,
            61.476
          ],
          [
            -6.719,
            61.501
          ],
          [
            -6.703,
            61.517
          ],
          [
            -6.807,
            61.556
          ],
          [
            -6.728,
            61.544
          ],
          [
            -6.724,
            61.573
          ],
          [
            -6.912,
            61.592
          ],
          [
            -6.864,
            61.621
          ],
          [
            -6.904,
            61.621
          ],
          [
            -6.889,
            61.645
          ],
          [
            -6.96,
            61.623
          ],
          [
            -6.846,
            61.468
          ],
          [
            -6.668,
            61.389
          ]
        ]
      ]
    ]
  }
}