{
  "type": "Feature",
  "properties": {
    "article_id": "KUR-2019",
    "unit_id": "LME_049",
    "geometry_method": "reported/inferred bounding box shown against the target polygon"
  },
  "geometry": {
    "type": "Polygon",
    "coordinates": [
      [
        [
          130,
          30
        ],
        [
          155,
          30
        ],
        [
          155,
          45
        ],
        [
          130,
          45
        ],
        [
          130,
          30
        ]
      ]
    ]
  }
}