{
  "type": "Feature",
  "properties": {
    "article_id": "NZ-2003",
    "unit_id": "LME_046",
    "geometry_method": "published/inferred bounding box; not a clipped or exact author polygon"
  },
  "geometry": {
    "type": "Polygon",
    "coordinates": [
      [
        [
          165,
          -54
        ],
        [
          175,
          -54
        ],
        [
          175,
          -46
        ],
        [
          165,
          -46
        ],
        [
          165,
          -54
        ]
      ]
    ]
  }
}