{
  "type": "Feature",
  "properties": {
    "article_id": "SBR-2004",
    "unit_id": "LME_015",
    "geometry_method": "target polygon used as intended model envelope"
  },
  "geometry": {
    "type": "MultiPolygon",
    "coordinates": [
      [
        [
          [
            -37.856,
            -22.967
          ],
          [
            -38.456,
            -23.305
          ],
          [
            -38.912,
            -23.473
          ],
          [
            -39.705,
            -23.93
          ],
          [
            -40.728,
            -24.606
          ],
          [
            -42.982,
            -26.24
          ],
          [
            -44.178,
            -27.179
          ],
          [
            -45.453,
            -28.331
          ],
          [
            -47.085,
            -30.055
          ],
          [
            -47.829,
            -30.993
          ],
          [
            -48.982,
            -32.025
          ],
          [
            -49.565,
            -32.839
          ],
          [
            -50.629,
            -33.827
          ],
          [
            -50.997,
            -34.471
          ],
          [
            -51.634,
            -35.097
          ],
          [
            -51.743,
            -35.247
          ],
          [
            -53.481,
            -33.852
          ],
          [
            -53.417,
            -33.77
          ],
          [
            -52.741,
            -33.257
          ],
          [
            -52.637,
            -33.129
          ],
          [
            -52.501,
            -32.878
          ],
          [
            -52.378,
            -32.504
          ],
          [
            -52.267,
            -32.307
          ],
          [
            -52.09,
            -32.167
          ],
          [
            -52.084,
            -32.072
          ],
          [
            -52.145,
            -32.126
          ],
          [
            -52.164,
            -32.109
          ],
          [
            -52.082,
            -32.032
          ],
          [
            -52.217,
            -32.092
          ],
          [
            -52.234,
            -32.08
          ],
          [
            -52.203,
            -32.054
          ],
          [
            -52.255,
            -32.055
          ],
          [
            -52.239,
            -31.969
          ],
          [
            -52.133,
            -31.932
          ],
          [
            -52.244,
            -31.873
          ],
          [
            -52.248,
            -31.839
          ],
          [
            -52.201,
            -31.8
          ],
          [
            -52.221,
            -31.747
          ],
          [
            -52.064,
            -31.67
          ],
          [
            -52.039,
            -31.615
          ],
          [
            -52.087,
            -31.616
          ],
          [
            -52.086,
            -31.562
          ],
          [
            -52.034,
            -31.567
          ],
          [
            -52.001,
            -31.641
          ],
          [
            -51.997,
            -31.415
          ],
          [
            -51.942,
            -31.366
          ],
          [
            -51.962,
            -31.335
          ],
          [
            -51.862,
            -31.319
          ],
          [
            -51.796,
            -31.265
          ],
          [
            -51.641,
            -31.259
          ],
          [
            -51.656,
            -31.218
          ],
          [
            -51.621,
            -31.136
          ],
          [
            -51.445,
            -31.084
          ],
          [
            -51.479,
            -31.047
          ],
          [
            -51.485,
            -30.958
          ],
          [
            -51.456,
            -30.891
          ],
          [
            -51.356,
            -30.881
          ],
          [
            -51.388,
            -30.76
          ],
          [
            -51.372,
            -30.645
          ],
          [
            -51.322,
            -30.637
          ],
          [
            -51.288,
            -30.769
          ],
          [
            -51.311,
            -30.782
          ],
          [
            -51.271,
            -30.796
          ],
          [
            -51.294,
            -30.614
          ],
          [
            -51.267,
            -30.504
          ],
          [
            -51.203,
            -30.4
          ],
          [
            -51.127,
            -30.414
          ],
          [
            -51.084,
            -30.361
          ],
          [
            -51.107,
            -30.342
          ],
          [
            -51.174,
            -30.371
          ],
          [
            -51.196,
            -30.295
          ],
          [
            -51.278,
            -30.294
          ],
          [
            -51.28,
            -30.227
          ],
          [
            -51.326,
            -30.223
          ],
          [
            -51.285,
            -30.014
          ],
          [
            -51.234,
            -30.046
          ],
          [
            -51.249,
            -30.108
          ],
          [
            -51.216,
            -30.155
          ],
          [
            -51.237,
            -30.191
          ],
          [
            -51.19,
            -30.193
          ],
          [
            -51.135,
            -30.259
          ],
          [
            -51.067,
            -30.238
          ],
          [
            -51.021,
            -30.267
          ],
          [
            -51.039,
            -30.381
          ],
          [
            -50.928,
            -30.438
          ],
          [
            -50.913,
            -30.317
          ],
          [
            -50.806,
            -30.329
          ],
          [
            -50.774,
            -30.288
          ],
          [
            -50.673,
            -30.293
          ],
          [
            -50.653,
            -30.255
          ],
          [
            -50.681,
            -30.221
          ],
          [
            -50.609,
            -30.191
          ],
          [
            -50.538,
            -30.287
          ],
          [
            -50.569,
            -30.462
          ],
          [
            -50.619,
            -30.479
          ],
          [
            -50.655,
            -30.427
          ],
          [
            -50.638,
            -30.4
          ],
          [
            -50.694,
            -30.352
          ],
          [
            -50.729,
            -30.369
          ],
          [
            -50.673,
            -30.599
          ],
          [
            -50.707,
            -30.759
          ],
          [
            -50.896,
            -30.891
          ],
          [
            -50.976,
            -30.892
          ],
          [
            -50.957,
            -30.937
          ],
          [
            -50.99,
            -31.048
          ],
          [
            -50.937,
            -31.089
          ],
          [
            -50.978,
            -31.136
          ],
          [
            -51.002,
            -31.138
          ],
          [
            -51.011,
            -31.06
          ],
          [
            -51.163,
            -31.078
          ],
          [
            -51.17,
            -31.333
          ],
          [
            -51.251,
            -31.472
          ],
          [
            -51.355,
            -31.527
          ],
          [
            -51.429,
            -31.492
          ],
          [
            -51.466,
            -31.573
          ],
          [
            -51.444,
            -31.618
          ],
          [
            -51.494,
            -31.582
          ],
          [
            -51.644,
            -31.759
          ],
          [
            -51.708,
            -31.799
          ],
          [
            -51.836,
            -31.803
          ],
          [
            -51.811,
            -31.83
          ],
          [
            -51.852,
            -31.871
          ],
          [
            -52.086,
            -31.824
          ],
          [
            -52.015,
            -31.954
          ],
          [
            -52.057,
            -31.987
          ],
          [
            -52.036,
            -32.041
          ],
          [
            -52.072,
            -32.174
          ],
          [
            -51.871,
            -31.936
          ],
          [
            -51.462,
            -31.724
          ],
          [
            -50.879,
            -31.229
          ],
          [
            -50.679,
            -30.996
          ],
          [
            -50.311,
            -30.462
          ],
          [
            -50.055,
            -29.839
          ],
          [
            -49.752,
            -29.37
          ],
          [
            -49.388,
            -28.967
          ],
          [
            -49.189,
            -28.811
          ],
          [
            -48.939,
            -28.65
          ],
          [
            -48.81,
            -28.612
          ],
          [
            -48.775,
            -28.568
          ],
          [
            -48.751,
            -28.514
          ],
          [
            -48.793,
            -28.524
          ],
          [
            -48.858,
            -28.479
          ],
          [
            -48.836,
            -28.439
          ],
          [
            -48.874,
            -28.418
          ],
          [
            -48.872,
            -28.346
          ],
          [
            -48.848,
            -28.32
          ],
          [
            -48.794,
            -28.376
          ],
          [
            -48.808,
            -28.445
          ],
          [
            -48.762,
            -28.492
          ],
          [
            -48.69,
            -28.293
          ],
          [
            -48.633,
            -28.233
          ],
          [
            -48.653,
            -28.189
          ],
          [
            -48.597,
            -28.04
          ],
          [
            -48.621,
            -27.98
          ],
          [
            -48.564,
            -27.864
          ],
          [
            -48.628,
            -27.766
          ],
          [
            -48.607,
            -27.751
          ],
          [
            -48.644,
            -27.647
          ],
          [
            -48.574,
            -27.581
          ],
          [
            -48.649,
            -27.471
          ],
          [
            -48.549,
            -27.376
          ],
          [
            -48.567,
            -27.317
          ],
          [
            -48.605,
            -27.316
          ],
          [
            -48.623,
            -27.242
          ],
          [
            -48.538,
            -27.187
          ],
          [
            -48.515,
            -27.194
          ],
          [
            -48.525,
            -27.224
          ],
          [
            -48.489,
            -27.216
          ],
          [
            -48.477,
            -27.164
          ],
          [
            -48.519,
            -27.121
          ],
          [
            -48.574,
            -27.164
          ],
          [
            -48.614,
            -27.106
          ],
          [
            -48.574,
            -27.012
          ],
          [
            -48.617,
            -26.993
          ],
          [
            -48.629,
            -26.876
          ],
          [
            -48.576,
            -26.78
          ],
          [
            -48.672,
            -26.742
          ],
          [
            -48.684,
            -26.673
          ],
          [
            -48.676,
            -26.577
          ],
          [
            -48.608,
            -26.439
          ],
          [
            -48.674,
            -26.362
          ],
          [
            -48.792,
            -26.31
          ],
          [
            -48.756,
            -26.289
          ],
          [
            -48.776,
            -26.275
          ],
          [
            -48.757,
            -26.203
          ],
          [
            -48.803,
            -26.067
          ],
          [
            -48.734,
            -26.223
          ],
          [
            -48.679,
            -26.243
          ],
          [
            -48.582,
            -26.18
          ],
          [
            -48.611,
            -26.049
          ],
          [
            -48.559,
            -25.866
          ],
          [
            -48.771,
            -25.88
          ],
          [
            -48.657,
            -25.838
          ],
          [
            -48.583,
            -25.86
          ],
          [
            -48.622,
            -25.822
          ],
          [
            -48.593,
            -25.801
          ],
          [
            -48.536,
            -25.842
          ],
          [
            -48.451,
            -25.653
          ],
          [
            -48.361,
            -25.576
          ],
          [
            -48.384,
            -25.549
          ],
          [
            -48.497,
            -25.579
          ],
          [
            -48.472,
            -25.548
          ],
          [
            -48.512,
            -25.517
          ],
          [
            -48.607,
            -25.545
          ],
          [
            -48.651,
            -25.516
          ],
          [
            -48.625,
            -25.497
          ],
          [
            -48.704,
            -25.501
          ],
          [
            -48.729,
            -25.472
          ],
          [
            -48.679,
            -25.464
          ],
          [
            -48.744,
            -25.356
          ],
          [
            -48.634,
            -25.458
          ],
          [
            -48.515,
            -25.454
          ],
          [
            -48.477,
            -25.48
          ],
          [
            -48.413,
            -25.428
          ],
          [
            -48.459,
            -25.383
          ],
          [
            -48.441,
            -25.35
          ],
          [
            -48.496,
            -25.333
          ],
          [
            -48.431,
            -25.324
          ],
          [
            -48.456,
            -25.253
          ],
          [
            -48.429,
            -25.242
          ],
          [
            -48.364,
            -25.308
          ],
          [
            -48.371,
            -25.274
          ],
          [
            -48.326,
            -25.233
          ],
          [
            -48.318,
            -25.364
          ],
          [
            -48.28,
            -25.293
          ],
          [
            -48.253,
            -25.323
          ],
          [
            -48.131,
            -25.272
          ],
          [
            -48.226,
            -25.34
          ],
          [
            -48.248,
            -25.452
          ],
          [
            -48.209,
            -25.462
          ],
          [
            -48.173,
            -25.377
          ],
          [
            -47.908,
            -25.14
          ],
          [
            -47.891,
            -25.06
          ],
          [
            -47.965,
            -25.081
          ],
          [
            -48.051,
            -25.06
          ],
          [
            -48.026,
            -25.015
          ],
          [
            -47.963,
            -25.013
          ],
          [
            -48.007,
            -25.046
          ],
          [
            -47.957,
            -25.059
          ],
          [
            -47.838,
            -24.899
          ],
          [
            -47.617,
            -24.746
          ],
          [
            -47.215,
            -24.563
          ],
          [
            -47.053,
            -24.408
          ],
          [
            -47.045,
            -24.436
          ],
          [
            -46.995,
            -24.407
          ],
          [
            -46.986,
            -24.319
          ],
          [
            -46.924,
            -24.271
          ],
          [
            -46.478,
            -24.038
          ],
          [
            -46.378,
            -24.032
          ],
          [
            -46.372,
            -23.989
          ],
          [
            -46.415,
            -23.987
          ],
          [
            -46.454,
            -23.933
          ],
          [
            -46.406,
            -23.934
          ],
          [
            -46.383,
            -23.868
          ],
          [
            -46.306,
            -23.918
          ],
          [
            -46.273,
            -23.983
          ],
          [
            -46.315,
            -24.012
          ],
          [
            -46.293,
            -24.027
          ],
          [
            -46.222,
            -23.981
          ],
          [
            -46.17,
            -23.993
          ],
          [
            -46.167,
            -23.933
          ],
          [
            -46.11,
            -23.868
          ],
          [
            -46.234,
            -23.923
          ],
          [
            -46.146,
            -23.85
          ],
          [
            -46.033,
            -23.836
          ],
          [
            -45.89,
            -23.768
          ],
          [
            -45.556,
            -23.798
          ],
          [
            -45.5,
            -23.844
          ],
          [
            -45.418,
            -23.831
          ],
          [
            -45.391,
            -23.792
          ],
          [
            -45.428,
            -23.708
          ],
          [
            -45.409,
            -23.623
          ],
          [
            -45.294,
            -23.571
          ],
          [
            -45.205,
            -23.58
          ],
          [
            -45.21,
            -23.53
          ],
          [
            -45.151,
            -23.539
          ],
          [
            -45.149,
            -23.491
          ],
          [
            -45.069,
            -23.516
          ],
          [
            -45.005,
            -23.458
          ],
          [
            -45.046,
            -23.414
          ],
          [
            -44.987,
            -23.407
          ],
          [
            -44.902,
            -23.338
          ],
          [
            -44.835,
            -23.391
          ],
          [
            -44.65,
            -23.335
          ],
          [
            -44.583,
            -23.358
          ],
          [
            -44.499,
            -23.296
          ],
          [
            -44.565,
            -23.265
          ],
          [
            -44.575,
            -23.229
          ],
          [
            -44.655,
            -23.292
          ],
          [
            -44.627,
            -23.235
          ],
          [
            -44.688,
            -23.241
          ],
          [
            -44.624,
            -23.198
          ],
          [
            -44.708,
            -23.225
          ],
          [
            -44.697,
            -23.109
          ],
          [
            -44.652,
            -23.044
          ],
          [
            -44.597,
            -23.059
          ],
          [
            -44.442,
            -23.011
          ],
          [
            -44.408,
            -22.936
          ],
          [
            -44.374,
            -22.96
          ],
          [
            -44.325,
            -22.919
          ],
          [
            -44.306,
            -22.959
          ],
          [
            -44.355,
            -22.986
          ],
          [
            -44.342,
            -23.012
          ],
          [
            -44.247,
            -22.996
          ],
          [
            -44.242,
            -23.048
          ],
          [
            -44.181,
            -23.054
          ],
          [
            -44.098,
            -23.013
          ],
          [
            -44.051,
            -22.935
          ],
          [
            -44.031,
            -22.979
          ],
          [
            -43.985,
            -22.929
          ],
          [
            -43.852,
            -22.897
          ],
          [
            -43.604,
            -23.019
          ],
          [
            -43.793,
            -23.055
          ],
          [
            -43.972,
            -23.038
          ],
          [
            -44.004,
            -23.102
          ],
          [
            -43.626,
            -23.045
          ],
          [
            -43.562,
            -23.07
          ],
          [
            -43.151,
            -22.962
          ],
          [
            -43.166,
            -22.89
          ],
          [
            -43.228,
            -22.872
          ],
          [
            -43.202,
            -22.857
          ],
          [
            -43.262,
            -22.807
          ],
          [
            -43.265,
            -22.744
          ],
          [
            -43.076,
            -22.668
          ],
          [
            -43.019,
            -22.682
          ],
          [
            -43.025,
            -22.741
          ],
          [
            -43.064,
            -22.76
          ],
          [
            -43.037,
            -22.778
          ],
          [
            -43.129,
            -22.891
          ],
          [
            -43.091,
            -22.922
          ],
          [
            -43.127,
            -22.931
          ],
          [
            -43.042,
            -22.974
          ],
          [
            -42.688,
            -22.971
          ],
          [
            -42.549,
            -22.939
          ],
          [
            -42.057,
            -22.954
          ],
          [
            -42.017,
            -22.987
          ],
          [
            -41.996,
            -22.959
          ],
          [
            -42.033,
            -22.906
          ],
          [
            -41.987,
            -22.831
          ],
          [
            -41.868,
            -22.761
          ],
          [
            -41.876,
            -22.74
          ],
          [
            -41.932,
            -22.772
          ],
          [
            -41.985,
            -22.723
          ],
          [
            -41.993,
            -22.577
          ],
          [
            -41.969,
            -22.536
          ],
          [
            -41.699,
            -22.301
          ],
          [
            -41.207,
            -22.131
          ],
          [
            -41.002,
            -22.023
          ],
          [
            -40.967,
            -21.954
          ],
          [
            -37.856,
            -22.967
          ]
        ],
        [
          [
            -44.224,
            -23.074
          ],
          [
            -44.369,
            -23.165
          ],
          [
            -44.329,
            -23.22
          ],
          [
            -44.296,
            -23.176
          ],
          [
            -44.239,
            -23.198
          ],
          [
            -44.084,
            -23.172
          ],
          [
            -44.112,
            -23.118
          ],
          [
            -44.152,
            -23.137
          ],
          [
            -44.224,
            -23.074
          ]
        ],
        [
          [
            -45.381,
            -23.833
          ],
          [
            -45.454,
            -23.892
          ],
          [
            -45.438,
            -23.933
          ],
          [
            -45.294,
            -23.916
          ],
          [
            -45.26,
            -23.966
          ],
          [
            -45.215,
            -23.952
          ],
          [
            -45.211,
            -23.903
          ],
          [
            -45.277,
            -23.873
          ],
          [
            -45.222,
            -23.792
          ],
          [
            -45.253,
            -23.746
          ],
          [
            -45.32,
            -23.725
          ],
          [
            -45.381,
            -23.833
          ]
        ],
        [
          [
            -47.458,
            -24.69
          ],
          [
            -47.533,
            -24.709
          ],
          [
            -47.817,
            -24.9
          ],
          [
            -47.88,
            -24.962
          ],
          [
            -47.897,
            -25.044
          ],
          [
            -47.807,
            -24.934
          ],
          [
            -47.458,
            -24.69
          ]
        ],
        [
          [
            -48.623,
            -26.236
          ],
          [
            -48.708,
            -26.31
          ],
          [
            -48.586,
            -26.426
          ],
          [
            -48.485,
            -26.229
          ],
          [
            -48.538,
            -26.167
          ],
          [
            -48.567,
            -26.218
          ],
          [
            -48.623,
            -26.236
          ]
        ],
        [
          [
            -48.418,
            -27.389
          ],
          [
            -48.517,
            -27.431
          ],
          [
            -48.537,
            -27.479
          ],
          [
            -48.501,
            -27.556
          ],
          [
            -48.549,
            -27.582
          ],
          [
            -48.517,
            -27.619
          ],
          [
            -48.558,
            -27.678
          ],
          [
            -48.563,
            -27.821
          ],
          [
            -48.482,
            -27.777
          ],
          [
            -48.497,
            -27.711
          ],
          [
            -48.406,
            -27.593
          ],
          [
            -48.414,
            -27.528
          ],
          [
            -48.371,
            -27.45
          ],
          [
            -48.418,
            -27.389
          ]
        ]
      ]
    ]
  }
}