{
  "type": "Feature",
  "properties": {
    "article_id": "WCP-2007",
    "unit_id": "HS_071",
    "geometry_method": "target polygon used as intended article/model envelope"
  },
  "geometry": {
    "type": "MultiPolygon",
    "coordinates": [
      [
        [
          [
            161.611,
            -24.631
          ],
          [
            162.252,
            -24.106
          ],
          [
            162.451,
            -23.878
          ],
          [
            163.388,
            -24.48
          ],
          [
            163.943,
            -24.991
          ],
          [
            160.835,
            -24.994
          ],
          [
            160.955,
            -24.963
          ],
          [
            161.611,
            -24.631
          ]
        ]
      ],
      [
        [
          [
            177.613,
            -23.63
          ],
          [
            177.917,
            -23.119
          ],
          [
            178.063,
            -22.723
          ],
          [
            178.379,
            -23.153
          ],
          [
            178.818,
            -23.572
          ],
          [
            179.331,
            -23.913
          ],
          [
            180.001,
            -24.192
          ],
          [
            180.0,
            -25.0
          ],
          [
            175.425,
            -25.0
          ],
          [
            176.187,
            -24.762
          ],
          [
            176.468,
            -24.624
          ],
          [
            176.984,
            -24.284
          ],
          [
            177.215,
            -24.083
          ],
          [
            177.613,
            -23.63
          ]
        ]
      ],
      [
        [
          [
            158.078,
            2.574
          ],
          [
            158.489,
            2.686
          ],
          [
            159.017,
            2.93
          ],
          [
            159.353,
            3.163
          ],
          [
            159.557,
            3.069
          ],
          [
            160.118,
            2.92
          ],
          [
            160.613,
            2.878
          ],
          [
            160.764,
            2.728
          ],
          [
            161.241,
            2.394
          ],
          [
            161.767,
            2.149
          ],
          [
            162.352,
            1.991
          ],
          [
            162.993,
            1.932
          ],
          [
            163.577,
            1.982
          ],
          [
            164.138,
            2.13
          ],
          [
            164.665,
            2.373
          ],
          [
            165.151,
            2.71
          ],
          [
            165.632,
            3.211
          ],
          [
            165.758,
            2.959
          ],
          [
            165.954,
            2.678
          ],
          [
            165.656,
            2.593
          ],
          [
            165.217,
            2.37
          ],
          [
            164.852,
            2.114
          ],
          [
            164.524,
            1.811
          ],
          [
            164.244,
            1.481
          ],
          [
            164.0,
            1.1
          ],
          [
            163.814,
            0.702
          ],
          [
            163.679,
            0.274
          ],
          [
            163.582,
            -0.451
          ],
          [
            163.594,
            -0.83
          ],
          [
            163.645,
            -1.188
          ],
          [
            163.859,
            -1.881
          ],
          [
            164.218,
            -2.513
          ],
          [
            164.651,
            -3.016
          ],
          [
            164.929,
            -3.237
          ],
          [
            165.357,
            -3.51
          ],
          [
            165.821,
            -3.714
          ],
          [
            166.472,
            -3.876
          ],
          [
            166.87,
            -3.904
          ],
          [
            167.461,
            -3.863
          ],
          [
            167.758,
            -3.801
          ],
          [
            167.816,
            -3.753
          ],
          [
            168.405,
            -4.038
          ],
          [
            168.967,
            -4.189
          ],
          [
            169.546,
            -4.239
          ],
          [
            170.125,
            -4.189
          ],
          [
            170.687,
            -4.038
          ],
          [
            171.213,
            -3.792
          ],
          [
            171.689,
            -3.459
          ],
          [
            171.956,
            -3.192
          ],
          [
            172.339,
            -3.685
          ],
          [
            172.602,
            -3.965
          ],
          [
            172.996,
            -4.292
          ],
          [
            172.833,
            -4.747
          ],
          [
            172.733,
            -5.617
          ],
          [
            172.778,
            -6.195
          ],
          [
            172.923,
            -6.757
          ],
          [
            173.101,
            -7.146
          ],
          [
            173.172,
            -7.42
          ],
          [
            173.414,
            -7.949
          ],
          [
            173.748,
            -8.433
          ],
          [
            174.205,
            -8.882
          ],
          [
            174.567,
            -9.423
          ],
          [
            174.95,
            -9.783
          ],
          [
            174.503,
            -10.162
          ],
          [
            174.128,
            -10.612
          ],
          [
            173.836,
            -11.12
          ],
          [
            173.637,
            -11.669
          ],
          [
            173.575,
            -11.954
          ],
          [
            173.445,
            -11.352
          ],
          [
            173.285,
            -10.793
          ],
          [
            173.028,
            -10.271
          ],
          [
            172.431,
            -9.423
          ],
          [
            172.011,
            -9.017
          ],
          [
            171.528,
            -8.687
          ],
          [
            170.994,
            -8.445
          ],
          [
            170.427,
            -8.297
          ],
          [
            170.175,
            -8.276
          ],
          [
            169.817,
            -7.768
          ],
          [
            169.241,
            -7.212
          ],
          [
            168.74,
            -6.867
          ],
          [
            168.209,
            -6.624
          ],
          [
            167.637,
            -6.473
          ],
          [
            167.055,
            -6.424
          ],
          [
            166.473,
            -6.475
          ],
          [
            165.813,
            -6.669
          ],
          [
            165.496,
            -6.226
          ],
          [
            165.082,
            -5.818
          ],
          [
            164.596,
            -5.483
          ],
          [
            164.01,
            -5.213
          ],
          [
            163.447,
            -5.064
          ],
          [
            163.022,
            -5.027
          ],
          [
            163.001,
            -4.797
          ],
          [
            162.802,
            -4.142
          ],
          [
            162.629,
            -3.426
          ],
          [
            162.366,
            -2.857
          ],
          [
            162.014,
            -2.36
          ],
          [
            161.539,
            -1.891
          ],
          [
            161.062,
            -1.56
          ],
          [
            160.53,
            -1.313
          ],
          [
            159.969,
            -1.164
          ],
          [
            159.389,
            -1.114
          ],
          [
            158.756,
            -1.173
          ],
          [
            158.195,
            -1.323
          ],
          [
            157.814,
            -1.501
          ],
          [
            157.44,
            -1.415
          ],
          [
            157.274,
            -1.18
          ],
          [
            157.684,
            -0.627
          ],
          [
            157.929,
            -0.1
          ],
          [
            158.084,
            0.478
          ],
          [
            158.135,
            1.072
          ],
          [
            158.085,
            1.651
          ],
          [
            157.924,
            2.245
          ],
          [
            158.078,
            2.574
          ]
        ]
      ],
      [
        [
          [
            139.312,
            4.976
          ],
          [
            139.877,
            4.833
          ],
          [
            140.3,
            4.801
          ],
          [
            140.485,
            4.542
          ],
          [
            140.9,
            4.136
          ],
          [
            141.379,
            3.807
          ],
          [
            141.95,
            3.549
          ],
          [
            142.513,
            3.402
          ],
          [
            143.099,
            3.355
          ],
          [
            143.678,
            3.408
          ],
          [
            144.24,
            3.56
          ],
          [
            144.766,
            3.806
          ],
          [
            144.977,
            3.954
          ],
          [
            145.632,
            4.122
          ],
          [
            146.168,
            4.075
          ],
          [
            146.365,
            4.092
          ],
          [
            147.024,
            4.018
          ],
          [
            147.282,
            4.04
          ],
          [
            147.623,
            3.8
          ],
          [
            148.15,
            3.552
          ],
          [
            148.711,
            3.399
          ],
          [
            149.29,
            3.345
          ],
          [
            149.871,
            3.391
          ],
          [
            150.434,
            3.537
          ],
          [
            150.665,
            3.641
          ],
          [
            150.918,
            3.275
          ],
          [
            151.326,
            2.861
          ],
          [
            151.778,
            2.539
          ],
          [
            151.636,
            2.231
          ],
          [
            151.481,
            1.578
          ],
          [
            150.126,
            1.965
          ],
          [
            149.547,
            2.015
          ],
          [
            148.969,
            1.964
          ],
          [
            148.407,
            1.813
          ],
          [
            147.828,
            1.557
          ],
          [
            147.707,
            1.678
          ],
          [
            147.231,
            2.011
          ],
          [
            146.442,
            2.373
          ],
          [
            145.881,
            2.524
          ],
          [
            145.303,
            2.574
          ],
          [
            144.724,
            2.524
          ],
          [
            144.163,
            2.373
          ],
          [
            143.713,
            2.177
          ],
          [
            141.909,
            1.674
          ],
          [
            141.383,
            1.43
          ],
          [
            140.801,
            1.099
          ],
          [
            140.146,
            1.433
          ],
          [
            139.732,
            1.597
          ],
          [
            139.328,
            1.701
          ],
          [
            138.595,
            1.819
          ],
          [
            137.734,
            2.034
          ],
          [
            137.407,
            2.237
          ],
          [
            136.863,
            3.064
          ],
          [
            136.42,
            3.509
          ],
          [
            135.886,
            3.874
          ],
          [
            135.746,
            3.946
          ],
          [
            136.119,
            4.185
          ],
          [
            136.592,
            4.587
          ],
          [
            136.976,
            5.008
          ],
          [
            137.501,
            4.963
          ],
          [
            138.081,
            5.015
          ],
          [
            138.766,
            5.224
          ],
          [
            139.312,
            4.976
          ]
        ]
      ],
      [
        [
          [
            178.586,
            1.237
          ],
          [
            178.11,
            1.571
          ],
          [
            177.583,
            1.816
          ],
          [
            177.022,
            1.967
          ],
          [
            176.865,
            1.982
          ],
          [
            176.615,
            2.377
          ],
          [
            176.599,
            2.563
          ],
          [
            176.449,
            3.124
          ],
          [
            176.334,
            3.38
          ],
          [
            176.286,
            3.936
          ],
          [
            176.136,
            4.498
          ],
          [
            175.891,
            5.024
          ],
          [
            175.484,
            5.569
          ],
          [
            175.512,
            5.858
          ],
          [
            175.467,
            6.437
          ],
          [
            175.284,
            7.178
          ],
          [
            175.242,
            7.679
          ],
          [
            175.097,
            8.241
          ],
          [
            174.853,
            8.771
          ],
          [
            174.576,
            9.171
          ],
          [
            174.422,
            9.836
          ],
          [
            174.261,
            10.184
          ],
          [
            174.223,
            10.851
          ],
          [
            174.076,
            11.413
          ],
          [
            173.829,
            11.946
          ],
          [
            173.539,
            12.359
          ],
          [
            173.501,
            12.827
          ],
          [
            173.352,
            13.389
          ],
          [
            173.105,
            13.918
          ],
          [
            172.766,
            14.396
          ],
          [
            172.452,
            14.703
          ],
          [
            172.42,
            15.175
          ],
          [
            172.277,
            15.739
          ],
          [
            172.028,
            16.28
          ],
          [
            171.691,
            16.762
          ],
          [
            171.265,
            17.184
          ],
          [
            170.773,
            17.524
          ],
          [
            170.223,
            17.777
          ],
          [
            169.839,
            17.88
          ],
          [
            169.96,
            18.122
          ],
          [
            170.126,
            18.681
          ],
          [
            170.187,
            19.259
          ],
          [
            170.142,
            19.839
          ],
          [
            170.101,
            20.0
          ],
          [
            180.0,
            20.0
          ],
          [
            180.0,
            -1.608
          ],
          [
            179.81,
            -1.166
          ],
          [
            179.78,
            -0.821
          ],
          [
            179.626,
            -0.249
          ],
          [
            179.38,
            0.278
          ],
          [
            179.006,
            0.818
          ],
          [
            178.586,
            1.237
          ]
        ]
      ],
      [
        [
          [
            139.719,
            13.422
          ],
          [
            139.121,
            13.373
          ],
          [
            138.508,
            13.209
          ],
          [
            137.906,
            12.943
          ],
          [
            137.561,
            12.912
          ],
          [
            136.987,
            12.759
          ],
          [
            136.45,
            12.51
          ],
          [
            135.962,
            12.17
          ],
          [
            135.547,
            11.756
          ],
          [
            135.275,
            11.377
          ],
          [
            134.938,
            11.435
          ],
          [
            134.3,
            11.415
          ],
          [
            133.878,
            11.335
          ],
          [
            133.278,
            11.119
          ],
          [
            132.732,
            10.796
          ],
          [
            132.406,
            10.527
          ],
          [
            132.118,
            10.219
          ],
          [
            131.763,
            9.695
          ],
          [
            131.564,
            9.253
          ],
          [
            131.337,
            8.893
          ],
          [
            131.171,
            8.538
          ],
          [
            130.591,
            8.283
          ],
          [
            130.237,
            8.055
          ],
          [
            129.944,
            7.81
          ],
          [
            129.883,
            8.308
          ],
          [
            129.543,
            9.937
          ],
          [
            129.492,
            10.406
          ],
          [
            129.255,
            11.549
          ],
          [
            129.13,
            11.951
          ],
          [
            128.96,
            12.323
          ],
          [
            128.875,
            12.896
          ],
          [
            128.668,
            13.491
          ],
          [
            128.298,
            14.137
          ],
          [
            127.855,
            14.688
          ],
          [
            127.321,
            15.689
          ],
          [
            127.094,
            16.047
          ],
          [
            126.665,
            16.531
          ],
          [
            126.333,
            16.803
          ],
          [
            126.005,
            17.01
          ],
          [
            125.986,
            17.511
          ],
          [
            125.715,
            19.398
          ],
          [
            125.695,
            20.0
          ],
          [
            132.574,
            20.0
          ],
          [
            132.595,
            19.812
          ],
          [
            132.767,
            19.254
          ],
          [
            133.037,
            18.733
          ],
          [
            133.397,
            18.262
          ],
          [
            133.835,
            17.857
          ],
          [
            134.338,
            17.53
          ],
          [
            134.893,
            17.288
          ],
          [
            135.481,
            17.141
          ],
          [
            136.086,
            17.091
          ],
          [
            136.693,
            17.141
          ],
          [
            137.281,
            17.288
          ],
          [
            137.834,
            17.529
          ],
          [
            138.339,
            17.858
          ],
          [
            138.777,
            18.262
          ],
          [
            139.136,
            18.732
          ],
          [
            139.406,
            19.254
          ],
          [
            139.578,
            19.811
          ],
          [
            139.599,
            20.0
          ],
          [
            141.391,
            20.0
          ],
          [
            141.59,
            19.33
          ],
          [
            141.772,
            18.96
          ],
          [
            142.143,
            18.371
          ],
          [
            142.215,
            18.037
          ],
          [
            142.301,
            17.349
          ],
          [
            142.171,
            16.69
          ],
          [
            142.159,
            16.311
          ],
          [
            142.195,
            15.904
          ],
          [
            142.157,
            15.832
          ],
          [
            141.662,
            15.153
          ],
          [
            141.376,
            14.543
          ],
          [
            141.279,
            14.205
          ],
          [
            141.215,
            13.831
          ],
          [
            141.215,
            13.109
          ],
          [
            140.313,
            13.37
          ],
          [
            139.719,
            13.422
          ]
        ]
      ],
      [
        [
          [
            163.423,
            14.804
          ],
          [
            162.814,
            14.959
          ],
          [
            162.21,
            15.008
          ],
          [
            161.612,
            14.955
          ],
          [
            161.033,
            14.801
          ],
          [
            160.427,
            14.519
          ],
          [
            159.94,
            14.181
          ],
          [
            159.523,
            13.765
          ],
          [
            159.184,
            13.281
          ],
          [
            158.941,
            12.752
          ],
          [
            158.894,
            12.583
          ],
          [
            158.593,
            12.37
          ],
          [
            158.18,
            11.953
          ],
          [
            157.848,
            11.471
          ],
          [
            157.607,
            10.941
          ],
          [
            157.473,
            10.402
          ],
          [
            157.188,
            10.36
          ],
          [
            157.072,
            10.442
          ],
          [
            156.501,
            10.706
          ],
          [
            156.006,
            11.059
          ],
          [
            155.473,
            11.31
          ],
          [
            154.903,
            11.466
          ],
          [
            154.198,
            11.512
          ],
          [
            154.003,
            11.647
          ],
          [
            153.467,
            11.896
          ],
          [
            152.886,
            12.053
          ],
          [
            152.27,
            12.106
          ],
          [
            151.513,
            12.017
          ],
          [
            151.278,
            12.124
          ],
          [
            150.705,
            12.273
          ],
          [
            150.107,
            12.322
          ],
          [
            149.515,
            12.269
          ],
          [
            148.943,
            12.115
          ],
          [
            148.349,
            11.833
          ],
          [
            147.861,
            11.489
          ],
          [
            147.745,
            11.64
          ],
          [
            148.305,
            12.596
          ],
          [
            148.544,
            13.132
          ],
          [
            148.948,
            13.821
          ],
          [
            149.199,
            14.59
          ],
          [
            149.386,
            15.05
          ],
          [
            149.511,
            15.59
          ],
          [
            149.536,
            16.289
          ],
          [
            149.474,
            16.723
          ],
          [
            149.341,
            17.199
          ],
          [
            149.343,
            17.745
          ],
          [
            149.29,
            18.594
          ],
          [
            149.139,
            19.496
          ],
          [
            148.971,
            20.0
          ],
          [
            163.152,
            20.0
          ],
          [
            163.108,
            19.828
          ],
          [
            163.071,
            19.249
          ],
          [
            163.141,
            18.67
          ],
          [
            163.314,
            18.113
          ],
          [
            163.584,
            17.593
          ],
          [
            163.944,
            17.124
          ],
          [
            164.396,
            16.71
          ],
          [
            164.906,
            16.38
          ],
          [
            165.491,
            16.129
          ],
          [
            165.859,
            16.037
          ],
          [
            165.691,
            15.682
          ],
          [
            165.533,
            15.016
          ],
          [
            165.322,
            15.033
          ],
          [
            164.723,
            14.986
          ],
          [
            164.142,
            14.838
          ],
          [
            163.741,
            14.661
          ],
          [
            163.423,
            14.804
          ]
        ]
      ]
    ]
  }
}