{
  "type": "Feature",
  "properties": {
    "article_id": "GOM-2021",
    "unit_id": "LME_005",
    "geometry_method": "target polygon used as intended model envelope"
  },
  "geometry": {
    "type": "MultiPolygon",
    "coordinates": [
      [
        [
          [
            -90.3827537143856,
            20.846440832022367
          ],
          [
            -90.384,
            20.843
          ],
          [
            -90.38701075268817,
            20.839827956989254
          ],
          [
            -90.3827537143856,
            20.846440832022367
          ]
        ]
      ],
      [
        [
          [
            -90.3827537143856,
            20.846440832022367
          ],
          [
            -90.338,
            20.97
          ],
          [
            -90.356,
            20.888
          ],
          [
            -90.3827537143856,
            20.846440832022367
          ]
        ]
      ],
      [
        [
          [
            -80.927,
            24.68
          ],
          [
            -82.636,
            23.925
          ],
          [
            -83.263,
            23.587
          ],
          [
            -84.055,
            23.338
          ],
          [
            -84.89,
            22.861
          ],
          [
            -85.65,
            22.33
          ],
          [
            -86.823,
            21.421
          ],
          [
            -86.908,
            21.429
          ],
          [
            -87.003,
            21.578
          ],
          [
            -87.113,
            21.623
          ],
          [
            -87.269,
            21.562
          ],
          [
            -87.36,
            21.58
          ],
          [
            -87.414,
            21.527
          ],
          [
            -87.396,
            21.504
          ],
          [
            -87.342,
            21.552
          ],
          [
            -87.257,
            21.527
          ],
          [
            -87.17,
            21.567
          ],
          [
            -87.129,
            21.555
          ],
          [
            -87.141,
            21.488
          ],
          [
            -87.241,
            21.437
          ],
          [
            -87.486,
            21.464
          ],
          [
            -87.502,
            21.494
          ],
          [
            -87.655,
            21.529
          ],
          [
            -87.692,
            21.525
          ],
          [
            -87.612,
            21.501
          ],
          [
            -87.742,
            21.503
          ],
          [
            -87.865,
            21.551
          ],
          [
            -87.704,
            21.533
          ],
          [
            -88.139,
            21.609
          ],
          [
            -88.243,
            21.567
          ],
          [
            -88.086,
            21.585
          ],
          [
            -88.271,
            21.554
          ],
          [
            -88.451,
            21.569
          ],
          [
            -88.602,
            21.534
          ],
          [
            -88.708,
            21.448
          ],
          [
            -88.849,
            21.412
          ],
          [
            -89.828,
            21.27
          ],
          [
            -90.28,
            21.063
          ],
          [
            -90.349,
            21.01
          ],
          [
            -90.44,
            20.784
          ],
          [
            -90.38701075268817,
            20.839827956989254
          ],
          [
            -90.459,
            20.728
          ],
          [
            -90.501,
            20.085
          ],
          [
            -90.455,
            19.975
          ],
          [
            -90.523,
            19.881
          ],
          [
            -90.681,
            19.762
          ],
          [
            -90.714,
            19.676
          ],
          [
            -90.734,
            19.356
          ],
          [
            -90.998,
            19.119
          ],
          [
            -91.174,
            19.003
          ],
          [
            -91.43,
            18.897
          ],
          [
            -91.511,
            18.809
          ],
          [
            -91.42,
            18.82
          ],
          [
            -91.375,
            18.882
          ],
          [
            -91.237,
            18.957
          ],
          [
            -91.414,
            18.811
          ],
          [
            -91.264,
            18.741
          ],
          [
            -91.298,
            18.628
          ],
          [
            -91.19,
            18.644
          ],
          [
            -91.303,
            18.619
          ],
          [
            -91.334,
            18.565
          ],
          [
            -91.491,
            18.518
          ],
          [
            -91.538,
            18.461
          ],
          [
            -91.482,
            18.493
          ],
          [
            -91.475,
            18.439
          ],
          [
            -91.802,
            18.484
          ],
          [
            -91.771,
            18.441
          ],
          [
            -91.814,
            18.443
          ],
          [
            -91.803,
            18.38
          ],
          [
            -91.857,
            18.431
          ],
          [
            -91.826,
            18.496
          ],
          [
            -91.89,
            18.517
          ],
          [
            -91.871,
            18.529
          ],
          [
            -91.903,
            18.575
          ],
          [
            -91.971,
            18.59
          ],
          [
            -91.886,
            18.501
          ],
          [
            -91.957,
            18.543
          ],
          [
            -92.051,
            18.545
          ],
          [
            -92.034,
            18.595
          ],
          [
            -91.992,
            18.591
          ],
          [
            -92.005,
            18.615
          ],
          [
            -91.946,
            18.628
          ],
          [
            -91.941,
            18.592
          ],
          [
            -91.878,
            18.581
          ],
          [
            -91.859,
            18.611
          ],
          [
            -91.995,
            18.728
          ],
          [
            -92.687,
            18.619
          ],
          [
            -92.661,
            18.552
          ],
          [
            -92.669,
            18.429
          ],
          [
            -92.718,
            18.589
          ],
          [
            -92.885,
            18.461
          ],
          [
            -93.139,
            18.432
          ],
          [
            -93.088,
            18.404
          ],
          [
            -93.127,
            18.339
          ],
          [
            -93.118,
            18.388
          ],
          [
            -93.172,
            18.373
          ],
          [
            -93.153,
            18.439
          ],
          [
            -93.578,
            18.423
          ],
          [
            -93.844,
            18.312
          ],
          [
            -93.57,
            18.408
          ],
          [
            -93.58,
            18.352
          ],
          [
            -93.739,
            18.334
          ],
          [
            -93.794,
            18.262
          ],
          [
            -93.887,
            18.254
          ],
          [
            -93.868,
            18.303
          ],
          [
            -94.168,
            18.199
          ],
          [
            -94.479,
            18.147
          ],
          [
            -94.58,
            18.19
          ],
          [
            -94.622,
            18.286
          ],
          [
            -94.736,
            18.394
          ],
          [
            -94.785,
            18.511
          ],
          [
            -95.019,
            18.558
          ],
          [
            -95.051,
            18.613
          ],
          [
            -95.187,
            18.704
          ],
          [
            -95.574,
            18.717
          ],
          [
            -95.732,
            18.796
          ],
          [
            -95.733,
            18.751
          ],
          [
            -95.572,
            18.672
          ],
          [
            -95.775,
            18.744
          ],
          [
            -95.862,
            18.723
          ],
          [
            -95.872,
            18.757
          ],
          [
            -95.809,
            18.746
          ],
          [
            -95.95,
            18.864
          ],
          [
            -95.758,
            18.763
          ],
          [
            -95.753,
            18.804
          ],
          [
            -95.902,
            18.872
          ],
          [
            -95.971,
            19.058
          ],
          [
            -96.053,
            19.069
          ],
          [
            -96.116,
            19.224
          ],
          [
            -96.167,
            19.229
          ],
          [
            -96.296,
            19.343
          ],
          [
            -96.307,
            19.471
          ],
          [
            -96.362,
            19.529
          ],
          [
            -96.448,
            19.862
          ],
          [
            -96.676,
            20.157
          ],
          [
            -97.171,
            20.676
          ],
          [
            -97.201,
            20.813
          ],
          [
            -97.483,
            21.372
          ],
          [
            -97.487,
            21.484
          ],
          [
            -97.568,
            21.488
          ],
          [
            -97.67,
            21.671
          ],
          [
            -97.715,
            21.935
          ],
          [
            -97.781,
            22.091
          ],
          [
            -97.654,
            21.899
          ],
          [
            -97.62,
            21.789
          ],
          [
            -97.37,
            21.538
          ],
          [
            -97.387,
            21.472
          ],
          [
            -97.477,
            21.434
          ],
          [
            -97.417,
            21.271
          ],
          [
            -97.329,
            21.468
          ],
          [
            -97.317,
            21.564
          ],
          [
            -97.556,
            21.775
          ],
          [
            -97.699,
            21.977
          ],
          [
            -97.779,
            22.158
          ],
          [
            -97.777,
            22.268
          ],
          [
            -97.846,
            22.518
          ],
          [
            -97.834,
            22.671
          ],
          [
            -97.862,
            22.585
          ],
          [
            -97.89,
            22.607
          ],
          [
            -97.848,
            22.709
          ],
          [
            -97.873,
            22.734
          ],
          [
            -97.806,
            22.774
          ],
          [
            -97.751,
            22.931
          ],
          [
            -97.756,
            22.849
          ],
          [
            -97.741,
            22.906
          ],
          [
            -97.766,
            23.301
          ],
          [
            -97.723,
            23.751
          ],
          [
            -97.729,
            23.77
          ],
          [
            -97.753,
            23.647
          ],
          [
            -97.756,
            23.766
          ],
          [
            -97.819,
            23.781
          ],
          [
            -97.725,
            23.796
          ],
          [
            -97.652,
            24.52
          ],
          [
            -97.509,
            25.054
          ],
          [
            -97.169,
            25.707
          ],
          [
            -97.137,
            25.94
          ],
          [
            -97.164,
            26.075
          ],
          [
            -97.188,
            26.009
          ],
          [
            -97.253,
            25.985
          ],
          [
            -97.265,
            26.029
          ],
          [
            -97.214,
            26.088
          ],
          [
            -97.299,
            26.11
          ],
          [
            -97.337,
            26.231
          ],
          [
            -97.314,
            26.256
          ],
          [
            -97.36,
            26.288
          ],
          [
            -97.344,
            26.347
          ],
          [
            -97.373,
            26.335
          ],
          [
            -97.413,
            26.412
          ],
          [
            -97.45,
            26.412
          ],
          [
            -97.434,
            26.476
          ],
          [
            -97.469,
            26.492
          ],
          [
            -97.419,
            26.502
          ],
          [
            -97.423,
            26.546
          ],
          [
            -97.496,
            26.801
          ],
          [
            -97.559,
            26.836
          ],
          [
            -97.55,
            26.898
          ],
          [
            -97.481,
            26.871
          ],
          [
            -97.545,
            26.918
          ],
          [
            -97.565,
            26.997
          ],
          [
            -97.474,
            27.019
          ],
          [
            -97.497,
            27.095
          ],
          [
            -97.446,
            27.122
          ],
          [
            -97.424,
            27.267
          ],
          [
            -97.542,
            27.234
          ],
          [
            -97.765,
            27.28
          ],
          [
            -97.663,
            27.306
          ],
          [
            -97.712,
            27.322
          ],
          [
            -97.699,
            27.36
          ],
          [
            -97.774,
            27.459
          ],
          [
            -97.677,
            27.386
          ],
          [
            -97.62,
            27.294
          ],
          [
            -97.493,
            27.396
          ],
          [
            -97.491,
            27.352
          ],
          [
            -97.457,
            27.337
          ],
          [
            -97.539,
            27.286
          ],
          [
            -97.411,
            27.327
          ],
          [
            -97.251,
            27.697
          ],
          [
            -97.369,
            27.749
          ],
          [
            -97.382,
            27.838
          ],
          [
            -97.481,
            27.823
          ],
          [
            -97.521,
            27.866
          ],
          [
            -97.345,
            27.875
          ],
          [
            -97.345,
            27.853
          ],
          [
            -97.27,
            27.879
          ],
          [
            -97.217,
            27.842
          ],
          [
            -97.231,
            27.822
          ],
          [
            -97.185,
            27.827
          ],
          [
            -97.023,
            28.03
          ],
          [
            -97.014,
            28.101
          ],
          [
            -97.041,
            28.114
          ],
          [
            -97.144,
            28.001
          ],
          [
            -97.148,
            28.041
          ],
          [
            -97.218,
            28.07
          ],
          [
            -97.155,
            28.122
          ],
          [
            -97.172,
            28.16
          ],
          [
            -97.122,
            28.142
          ],
          [
            -97.02,
            28.206
          ],
          [
            -97.0,
            28.182
          ],
          [
            -97.021,
            28.137
          ],
          [
            -96.973,
            28.121
          ],
          [
            -96.917,
            28.259
          ],
          [
            -96.942,
            28.126
          ],
          [
            -96.883,
            28.14
          ],
          [
            -96.779,
            28.236
          ],
          [
            -96.781,
            28.346
          ],
          [
            -96.846,
            28.407
          ],
          [
            -96.766,
            28.397
          ],
          [
            -96.804,
            28.473
          ],
          [
            -96.706,
            28.397
          ],
          [
            -96.701,
            28.336
          ],
          [
            -96.665,
            28.315
          ],
          [
            -96.402,
            28.433
          ],
          [
            -96.474,
            28.492
          ],
          [
            -96.551,
            28.473
          ],
          [
            -96.491,
            28.513
          ],
          [
            -96.52,
            28.553
          ],
          [
            -96.604,
            28.57
          ],
          [
            -96.649,
            28.723
          ],
          [
            -96.58,
            28.714
          ],
          [
            -96.555,
            28.647
          ],
          [
            -96.499,
            28.643
          ],
          [
            -96.488,
            28.611
          ],
          [
            -96.448,
            28.634
          ],
          [
            -96.436,
            28.599
          ],
          [
            -96.487,
            28.574
          ],
          [
            -96.37,
            28.621
          ],
          [
            -96.414,
            28.637
          ],
          [
            -96.396,
            28.718
          ],
          [
            -96.422,
            28.7
          ],
          [
            -96.442,
            28.764
          ],
          [
            -96.381,
            28.725
          ],
          [
            -96.355,
            28.628
          ],
          [
            -96.27,
            28.684
          ],
          [
            -96.188,
            28.695
          ],
          [
            -96.222,
            28.634
          ],
          [
            -96.137,
            28.628
          ],
          [
            -96.219,
            28.601
          ],
          [
            -96.217,
            28.578
          ],
          [
            -95.986,
            28.649
          ],
          [
            -95.994,
            28.605
          ],
          [
            -96.213,
            28.486
          ],
          [
            -95.827,
            28.648
          ],
          [
            -95.719,
            28.713
          ],
          [
            -95.954,
            28.627
          ],
          [
            -95.931,
            28.694
          ],
          [
            -95.797,
            28.737
          ],
          [
            -95.671,
            28.735
          ],
          [
            -95.372,
            28.879
          ],
          [
            -95.141,
            29.058
          ],
          [
            -95.166,
            29.207
          ],
          [
            -95.094,
            29.178
          ],
          [
            -94.949,
            29.313
          ],
          [
            -94.903,
            29.314
          ],
          [
            -94.892,
            29.373
          ],
          [
            -94.82,
            29.37
          ],
          [
            -94.914,
            29.436
          ],
          [
            -94.947,
            29.419
          ],
          [
            -94.962,
            29.466
          ],
          [
            -94.918,
            29.498
          ],
          [
            -95.018,
            29.536
          ],
          [
            -94.984,
            29.597
          ],
          [
            -95.024,
            29.635
          ],
          [
            -95.001,
            29.677
          ],
          [
            -95.059,
            29.719
          ],
          [
            -94.906,
            29.659
          ],
          [
            -94.829,
            29.76
          ],
          [
            -94.754,
            29.788
          ],
          [
            -94.71,
            29.756
          ],
          [
            -94.707,
            29.709
          ],
          [
            -94.729,
            29.615
          ],
          [
            -94.798,
            29.533
          ],
          [
            -94.569,
            29.574
          ],
          [
            -94.476,
            29.561
          ],
          [
            -94.503,
            29.517
          ],
          [
            -94.575,
            29.529
          ],
          [
            -94.694,
            29.466
          ],
          [
            -94.785,
            29.394
          ],
          [
            -94.76,
            29.366
          ],
          [
            -94.647,
            29.451
          ],
          [
            -94.126,
            29.657
          ],
          [
            -93.857,
            29.676
          ],
          [
            -93.959,
            29.813
          ],
          [
            -93.845,
            29.988
          ],
          [
            -93.788,
            29.994
          ],
          [
            -93.763,
            29.968
          ],
          [
            -93.807,
            29.837
          ],
          [
            -93.901,
            29.807
          ],
          [
            -93.846,
            29.706
          ],
          [
            -93.713,
            29.76
          ],
          [
            -93.241,
            29.785
          ],
          [
            -93.038,
            29.739
          ],
          [
            -92.688,
            29.6
          ],
          [
            -92.308,
            29.54
          ],
          [
            -92.165,
            29.589
          ],
          [
            -92.059,
            29.584
          ],
          [
            -92.071,
            29.609
          ],
          [
            -92.023,
            29.625
          ],
          [
            -92.1,
            29.616
          ],
          [
            -92.14,
            29.679
          ],
          [
            -92.103,
            29.709
          ],
          [
            -92.181,
            29.692
          ],
          [
            -92.197,
            29.762
          ],
          [
            -92.136,
            29.767
          ],
          [
            -92.141,
            29.728
          ],
          [
            -91.991,
            29.798
          ],
          [
            -91.98,
            29.834
          ],
          [
            -91.842,
            29.83
          ],
          [
            -91.824,
            29.785
          ],
          [
            -91.863,
            29.798
          ],
          [
            -91.872,
            29.722
          ],
          [
            -91.634,
            29.742
          ],
          [
            -91.648,
            29.636
          ],
          [
            -91.558,
            29.636
          ],
          [
            -91.549,
            29.53
          ],
          [
            -91.417,
            29.558
          ],
          [
            -91.427,
            29.522
          ],
          [
            -91.299,
            29.483
          ],
          [
            -91.252,
            29.611
          ],
          [
            -91.222,
            29.603
          ],
          [
            -91.267,
            29.467
          ],
          [
            -91.124,
            29.345
          ],
          [
            -91.116,
            29.263
          ],
          [
            -91.154,
            29.251
          ],
          [
            -91.163,
            29.334
          ],
          [
            -91.195,
            29.321
          ],
          [
            -91.224,
            29.379
          ],
          [
            -91.302,
            29.316
          ],
          [
            -91.342,
            29.329
          ],
          [
            -91.273,
            29.253
          ],
          [
            -91.056,
            29.191
          ],
          [
            -91.003,
            29.221
          ],
          [
            -91.011,
            29.181
          ],
          [
            -90.949,
            29.184
          ],
          [
            -90.876,
            29.128
          ],
          [
            -90.839,
            29.181
          ],
          [
            -90.774,
            29.162
          ],
          [
            -90.804,
            29.131
          ],
          [
            -90.765,
            29.109
          ],
          [
            -90.697,
            29.118
          ],
          [
            -90.665,
            29.162
          ],
          [
            -90.64,
            29.144
          ],
          [
            -90.632,
            29.226
          ],
          [
            -90.584,
            29.225
          ],
          [
            -90.602,
            29.304
          ],
          [
            -90.48,
            29.29
          ],
          [
            -90.435,
            29.357
          ],
          [
            -90.391,
            29.314
          ],
          [
            -90.393,
            29.246
          ],
          [
            -90.35,
            29.309
          ],
          [
            -90.287,
            29.236
          ],
          [
            -90.254,
            29.257
          ],
          [
            -90.252,
            29.084
          ],
          [
            -90.11,
            29.143
          ],
          [
            -90.049,
            29.223
          ],
          [
            -90.081,
            29.217
          ],
          [
            -90.103,
            29.272
          ],
          [
            -90.057,
            29.312
          ],
          [
            -90.017,
            29.298
          ],
          [
            -90.058,
            29.346
          ],
          [
            -90.033,
            29.339
          ],
          [
            -90.055,
            29.402
          ],
          [
            -90.027,
            29.43
          ],
          [
            -90.214,
            29.512
          ],
          [
            -90.181,
            29.528
          ],
          [
            -90.205,
            29.542
          ],
          [
            -90.178,
            29.573
          ],
          [
            -90.138,
            29.528
          ],
          [
            -90.123,
            29.552
          ],
          [
            -90.073,
            29.537
          ],
          [
            -89.955,
            29.461
          ],
          [
            -89.867,
            29.441
          ],
          [
            -89.848,
            29.479
          ],
          [
            -89.813,
            29.469
          ],
          [
            -89.819,
            29.403
          ],
          [
            -89.775,
            29.416
          ],
          [
            -89.781,
            29.382
          ],
          [
            -89.749,
            29.363
          ],
          [
            -89.821,
            29.318
          ],
          [
            -89.694,
            29.299
          ],
          [
            -89.633,
            29.334
          ],
          [
            -89.61,
            29.251
          ],
          [
            -89.5,
            29.224
          ],
          [
            -89.506,
            29.254
          ],
          [
            -89.46,
            29.254
          ],
          [
            -89.479,
            29.234
          ],
          [
            -89.399,
            29.143
          ],
          [
            -89.391,
            29.092
          ],
          [
            -89.327,
            29.106
          ],
          [
            -89.322,
            29.181
          ],
          [
            -89.305,
            29.124
          ],
          [
            -89.273,
            29.156
          ],
          [
            -89.405,
            28.927
          ],
          [
            -89.307,
            29.042
          ],
          [
            -89.244,
            29.07
          ],
          [
            -89.245,
            29.105
          ],
          [
            -89.133,
            28.984
          ],
          [
            -89.154,
            29.04
          ],
          [
            -89.101,
            29.093
          ],
          [
            -89.083,
            29.077
          ],
          [
            -89.096,
            29.117
          ],
          [
            -89.056,
            29.081
          ],
          [
            -89.022,
            29.14
          ],
          [
            -89.101,
            29.156
          ],
          [
            -89.061,
            29.189
          ],
          [
            -89.049,
            29.162
          ],
          [
            -89.008,
            29.177
          ],
          [
            -89.029,
            29.216
          ],
          [
            -89.067,
            29.197
          ],
          [
            -89.148,
            29.235
          ],
          [
            -89.111,
            29.257
          ],
          [
            -89.194,
            29.347
          ],
          [
            -89.249,
            29.311
          ],
          [
            -89.268,
            29.35
          ],
          [
            -89.379,
            29.362
          ],
          [
            -89.331,
            29.39
          ],
          [
            -89.543,
            29.395
          ],
          [
            -89.513,
            29.414
          ],
          [
            -89.541,
            29.436
          ],
          [
            -89.52,
            29.465
          ],
          [
            -89.676,
            29.524
          ],
          [
            -89.729,
            29.602
          ],
          [
            -89.713,
            29.619
          ],
          [
            -89.753,
            29.631
          ],
          [
            -89.616,
            29.619
          ],
          [
            -89.697,
            29.706
          ],
          [
            -89.484,
            29.631
          ],
          [
            -89.516,
            29.683
          ],
          [
            -89.597,
            29.69
          ],
          [
            -89.598,
            29.731
          ],
          [
            -89.525,
            29.752
          ],
          [
            -89.48,
            29.832
          ],
          [
            -89.408,
            29.79
          ],
          [
            -89.408,
            29.76
          ],
          [
            -89.347,
            29.79
          ],
          [
            -89.376,
            29.827
          ],
          [
            -89.334,
            29.88
          ],
          [
            -89.392,
            29.874
          ],
          [
            -89.364,
            29.911
          ],
          [
            -89.412,
            29.9
          ],
          [
            -89.432,
            29.927
          ],
          [
            -89.375,
            29.929
          ],
          [
            -89.372,
            29.969
          ],
          [
            -89.454,
            29.974
          ],
          [
            -89.435,
            30.02
          ],
          [
            -89.365,
            30.052
          ],
          [
            -89.425,
            30.037
          ],
          [
            -89.481,
            30.076
          ],
          [
            -89.492,
            30.033
          ],
          [
            -89.571,
            29.996
          ],
          [
            -89.586,
            29.908
          ],
          [
            -89.624,
            29.873
          ],
          [
            -89.703,
            29.892
          ],
          [
            -89.73,
            29.931
          ],
          [
            -89.71,
            29.957
          ],
          [
            -89.819,
            29.945
          ],
          [
            -89.844,
            30.009
          ],
          [
            -89.803,
            30.045
          ],
          [
            -89.714,
            30.026
          ],
          [
            -89.719,
            30.058
          ],
          [
            -89.643,
            30.13
          ],
          [
            -89.667,
            30.168
          ],
          [
            -89.738,
            30.1
          ],
          [
            -89.744,
            30.169
          ],
          [
            -89.785,
            30.092
          ],
          [
            -89.88,
            30.149
          ],
          [
            -90.043,
            30.035
          ],
          [
            -90.174,
            30.024
          ],
          [
            -90.35,
            30.062
          ],
          [
            -90.417,
            30.103
          ],
          [
            -90.426,
            30.186
          ],
          [
            -90.231,
            30.381
          ],
          [
            -90.058,
            30.357
          ],
          [
            -89.977,
            30.263
          ],
          [
            -89.868,
            30.257
          ],
          [
            -89.82,
            30.223
          ],
          [
            -89.774,
            30.24
          ],
          [
            -89.746,
            30.183
          ],
          [
            -89.594,
            30.184
          ],
          [
            -89.612,
            30.158
          ],
          [
            -89.584,
            30.151
          ],
          [
            -89.52,
            30.19
          ],
          [
            -89.439,
            30.189
          ],
          [
            -89.414,
            30.255
          ],
          [
            -89.31,
            30.313
          ],
          [
            -89.355,
            30.348
          ],
          [
            -89.331,
            30.374
          ],
          [
            -89.247,
            30.346
          ],
          [
            -89.264,
            30.317
          ],
          [
            -88.856,
            30.399
          ],
          [
            -88.983,
            30.421
          ],
          [
            -88.924,
            30.436
          ],
          [
            -88.842,
            30.429
          ],
          [
            -88.723,
            30.346
          ],
          [
            -88.614,
            30.364
          ],
          [
            -88.594,
            30.392
          ],
          [
            -88.567,
            30.351
          ],
          [
            -88.463,
            30.315
          ],
          [
            -88.35,
            30.405
          ],
          [
            -88.194,
            30.367
          ],
          [
            -88.194,
            30.327
          ],
          [
            -88.148,
            30.34
          ],
          [
            -88.133,
            30.314
          ],
          [
            -88.101,
            30.515
          ],
          [
            -88.021,
            30.736
          ],
          [
            -87.913,
            30.594
          ],
          [
            -87.942,
            30.484
          ],
          [
            -87.913,
            30.414
          ],
          [
            -87.849,
            30.377
          ],
          [
            -87.825,
            30.411
          ],
          [
            -87.83,
            30.357
          ],
          [
            -87.756,
            30.285
          ],
          [
            -87.875,
            30.237
          ],
          [
            -87.941,
            30.263
          ],
          [
            -88.021,
            30.219
          ],
          [
            -87.734,
            30.235
          ],
          [
            -87.569,
            30.279
          ],
          [
            -87.611,
            30.356
          ],
          [
            -87.58,
            30.315
          ],
          [
            -87.465,
            30.357
          ],
          [
            -87.394,
            30.444
          ],
          [
            -87.421,
            30.482
          ],
          [
            -87.341,
            30.429
          ],
          [
            -87.411,
            30.395
          ],
          [
            -87.422,
            30.334
          ],
          [
            -87.482,
            30.324
          ],
          [
            -87.452,
            30.308
          ],
          [
            -87.529,
            30.279
          ],
          [
            -87.307,
            30.321
          ],
          [
            -87.156,
            30.472
          ],
          [
            -87.181,
            30.579
          ],
          [
            -87.102,
            30.527
          ],
          [
            -87.082,
            30.447
          ],
          [
            -87.023,
            30.606
          ],
          [
            -86.999,
            30.561
          ],
          [
            -86.959,
            30.559
          ],
          [
            -87.01,
            30.504
          ],
          [
            -86.893,
            30.436
          ],
          [
            -86.931,
            30.454
          ],
          [
            -87.196,
            30.357
          ],
          [
            -86.591,
            30.416
          ],
          [
            -86.592,
            30.446
          ],
          [
            -86.489,
            30.472
          ],
          [
            -86.486,
            30.521
          ],
          [
            -86.466,
            30.493
          ],
          [
            -86.412,
            30.512
          ],
          [
            -86.439,
            30.491
          ],
          [
            -86.414,
            30.458
          ],
          [
            -86.204,
            30.499
          ],
          [
            -86.186,
            30.462
          ],
          [
            -86.135,
            30.478
          ],
          [
            -86.156,
            30.446
          ],
          [
            -86.102,
            30.379
          ],
          [
            -86.249,
            30.433
          ],
          [
            -86.236,
            30.395
          ],
          [
            -86.309,
            30.429
          ],
          [
            -86.336,
            30.393
          ],
          [
            -86.51,
            30.399
          ],
          [
            -86.086,
            30.304
          ],
          [
            -85.726,
            30.126
          ],
          [
            -85.708,
            30.151
          ],
          [
            -85.748,
            30.172
          ],
          [
            -85.737,
            30.21
          ],
          [
            -85.762,
            30.241
          ],
          [
            -85.837,
            30.228
          ],
          [
            -85.839,
            30.29
          ],
          [
            -85.771,
            30.286
          ],
          [
            -85.752,
            30.314
          ],
          [
            -85.714,
            30.237
          ],
          [
            -85.574,
            30.323
          ],
          [
            -85.558,
            30.284
          ],
          [
            -85.664,
            30.246
          ],
          [
            -85.721,
            30.187
          ],
          [
            -85.565,
            30.113
          ],
          [
            -85.499,
            30.139
          ],
          [
            -85.513,
            30.103
          ],
          [
            -85.479,
            30.1
          ],
          [
            -85.476,
            30.04
          ],
          [
            -85.428,
            30.071
          ],
          [
            -85.392,
            30.049
          ],
          [
            -85.461,
            30.018
          ],
          [
            -85.529,
            30.083
          ],
          [
            -85.676,
            30.129
          ],
          [
            -85.482,
            29.978
          ],
          [
            -85.564,
            30.031
          ],
          [
            -85.531,
            29.988
          ],
          [
            -85.359,
            29.894
          ],
          [
            -85.306,
            29.814
          ],
          [
            -85.303,
            29.702
          ],
          [
            -85.351,
            29.687
          ],
          [
            -85.3673714953271,
            29.708049065420557
          ],
          [
            -85.354,
            29.677
          ],
          [
            -85.09,
            29.722
          ],
          [
            -85.014,
            29.704
          ],
          [
            -84.866,
            29.804
          ],
          [
            -84.877,
            29.726
          ],
          [
            -84.516,
            29.915
          ],
          [
            -84.352,
            29.891
          ],
          [
            -84.334,
            29.94
          ],
          [
            -84.442,
            29.96
          ],
          [
            -84.452,
            30.009
          ],
          [
            -84.344,
            29.967
          ],
          [
            -84.39,
            30.023
          ],
          [
            -84.329,
            30.071
          ],
          [
            -84.293,
            30.059
          ],
          [
            -84.27,
            30.095
          ],
          [
            -84.208,
            30.106
          ],
          [
            -84.172,
            30.072
          ],
          [
            -84.017,
            30.1
          ],
          [
            -83.681,
            29.923
          ],
          [
            -83.586,
            29.812
          ],
          [
            -83.576,
            29.758
          ],
          [
            -83.405,
            29.662
          ],
          [
            -83.398,
            29.525
          ],
          [
            -83.223,
            29.423
          ],
          [
            -83.153,
            29.295
          ],
          [
            -83.076,
            29.259
          ],
          [
            -83.045,
            29.179
          ],
          [
            -82.8,
            29.171
          ],
          [
            -82.776,
            29.117
          ],
          [
            -82.795,
            29.092
          ],
          [
            -82.746,
            29.066
          ],
          [
            -82.726,
            28.954
          ],
          [
            -82.631,
            28.885
          ],
          [
            -82.631,
            28.781
          ],
          [
            -82.654,
            28.813
          ],
          [
            -82.681,
            28.802
          ],
          [
            -82.629,
            28.696
          ],
          [
            -82.663,
            28.44
          ],
          [
            -82.727,
            28.32
          ],
          [
            -82.713,
            28.294
          ],
          [
            -82.794,
            28.182
          ],
          [
            -82.774,
            28.065
          ],
          [
            -82.855,
            27.862
          ],
          [
            -82.726,
            27.657
          ],
          [
            -82.732,
            27.715
          ],
          [
            -82.822,
            27.823
          ],
          [
            -82.686,
            27.729
          ],
          [
            -82.682,
            27.692
          ],
          [
            -82.642,
            27.692
          ],
          [
            -82.605,
            27.852
          ],
          [
            -82.561,
            27.884
          ],
          [
            -82.63,
            27.878
          ],
          [
            -82.717,
            27.926
          ],
          [
            -82.641,
            27.959
          ],
          [
            -82.691,
            27.969
          ],
          [
            -82.691,
            28.032
          ],
          [
            -82.598,
            27.981
          ],
          [
            -82.616,
            27.959
          ],
          [
            -82.536,
            27.938
          ],
          [
            -82.53,
            27.826
          ],
          [
            -82.478,
            27.82
          ],
          [
            -82.484,
            27.903
          ],
          [
            -82.461,
            27.931
          ],
          [
            -82.423,
            27.917
          ],
          [
            -82.389,
            27.814
          ],
          [
            -82.624,
            27.544
          ],
          [
            -82.574,
            27.559
          ],
          [
            -82.593,
            27.524
          ],
          [
            -82.632,
            27.527
          ],
          [
            -82.589,
            27.498
          ],
          [
            -82.667,
            27.516
          ],
          [
            -82.64,
            27.486
          ],
          [
            -82.655,
            27.462
          ],
          [
            -82.732,
            27.519
          ],
          [
            -82.691,
            27.446
          ],
          [
            -82.576,
            27.4
          ],
          [
            -82.537,
            27.297
          ],
          [
            -82.564,
            27.271
          ],
          [
            -82.503,
            27.222
          ],
          [
            -82.441,
            27.042
          ],
          [
            -82.294,
            26.831
          ],
          [
            -82.2,
            26.802
          ],
          [
            -82.165,
            26.824
          ],
          [
            -82.152,
            26.788
          ],
          [
            -82.192,
            26.938
          ],
          [
            -82.21959228187919,
            26.96346979865772
          ],
          [
            -82.181,
            26.971
          ],
          [
            -82.154,
            26.921
          ],
          [
            -81.981,
            26.993
          ],
          [
            -81.996,
            26.955
          ],
          [
            -82.098,
            26.897
          ],
          [
            -82.051,
            26.865
          ],
          [
            -82.08,
            26.684
          ],
          [
            -82.042,
            26.522
          ],
          [
            -81.947,
            26.542
          ],
          [
            -81.893,
            26.659
          ],
          [
            -81.778,
            26.711
          ],
          [
            -81.876,
            26.636
          ],
          [
            -81.927,
            26.529
          ],
          [
            -82.003,
            26.519
          ],
          [
            -82.012,
            26.48
          ],
          [
            -81.891,
            26.44
          ],
          [
            -81.882,
            26.489
          ],
          [
            -81.853,
            26.441
          ],
          [
            -81.802,
            26.102
          ],
          [
            -81.788,
            26.133
          ],
          [
            -81.713,
            25.975
          ],
          [
            -81.665,
            25.979
          ],
          [
            -81.689,
            25.94
          ],
          [
            -81.741,
            25.957
          ],
          [
            -81.732,
            25.907
          ],
          [
            -81.622,
            25.942
          ],
          [
            -81.34,
            25.809
          ],
          [
            -81.341,
            25.717
          ],
          [
            -81.276,
            25.697
          ],
          [
            -81.228,
            25.563
          ],
          [
            -81.185,
            25.554
          ],
          [
            -81.207,
            25.508
          ],
          [
            -81.145,
            25.384
          ],
          [
            -80.981,
            25.321
          ],
          [
            -80.915,
            25.251
          ],
          [
            -80.983,
            25.201
          ],
          [
            -81.141,
            25.341
          ],
          [
            -81.177,
            25.234
          ],
          [
            -81.094,
            25.116
          ],
          [
            -80.91,
            25.141
          ],
          [
            -80.857,
            25.18
          ],
          [
            -80.717,
            25.136
          ],
          [
            -80.54,
            25.246
          ],
          [
            -80.447,
            25.172
          ],
          [
            -80.501,
            25.22
          ],
          [
            -80.45,
            25.242
          ],
          [
            -80.399,
            25.185
          ],
          [
            -80.426,
            25.241
          ],
          [
            -80.319,
            25.364
          ],
          [
            -80.03,
            25.331
          ],
          [
            -80.214,
            25.115
          ],
          [
            -80.927,
            24.68
          ]
        ],
        [
          [
            -85.37311472181192,
            29.721385032003944
          ],
          [
            -85.372,
            29.714
          ],
          [
            -85.3673714953271,
            29.708049065420557
          ],
          [
            -85.37311472181192,
            29.721385032003944
          ]
        ],
        [
          [
            -85.396,
            29.873
          ],
          [
            -85.413,
            29.814
          ],
          [
            -85.37311472181192,
            29.721385032003944
          ],
          [
            -85.396,
            29.873
          ]
        ],
        [
          [
            -80.359,
            25.219
          ],
          [
            -80.418,
            25.144
          ],
          [
            -80.465,
            25.152
          ],
          [
            -80.43,
            25.12
          ],
          [
            -80.599,
            24.948
          ],
          [
            -80.372,
            25.144
          ],
          [
            -80.254,
            25.341
          ],
          [
            -80.29,
            25.339
          ],
          [
            -80.368,
            25.289
          ],
          [
            -80.342,
            25.257
          ],
          [
            -80.359,
            25.219
          ]
        ],
        [
          [
            -97.384,
            27.207
          ],
          [
            -97.394,
            26.831
          ],
          [
            -97.216,
            26.325
          ],
          [
            -97.174,
            26.091
          ],
          [
            -97.199,
            26.304
          ],
          [
            -97.357,
            26.813
          ],
          [
            -97.384,
            27.207
          ]
        ],
        [
          [
            -97.163,
            27.726
          ],
          [
            -97.202,
            27.633
          ],
          [
            -97.255,
            27.656
          ],
          [
            -97.25,
            27.594
          ],
          [
            -97.37,
            27.362
          ],
          [
            -97.387,
            27.219
          ],
          [
            -97.356,
            27.274
          ],
          [
            -97.267,
            27.51
          ],
          [
            -97.046,
            27.844
          ],
          [
            -97.163,
            27.726
          ]
        ],
        [
          [
            -96.868,
            28.135
          ],
          [
            -96.973,
            28.01
          ],
          [
            -96.952,
            27.987
          ],
          [
            -97.041,
            27.852
          ],
          [
            -96.961,
            27.946
          ],
          [
            -96.851,
            28.07
          ],
          [
            -96.836,
            28.111
          ],
          [
            -96.868,
            28.135
          ]
        ],
        [
          [
            -96.405,
            28.392
          ],
          [
            -96.444,
            28.336
          ],
          [
            -96.526,
            28.33
          ],
          [
            -96.706,
            28.206
          ],
          [
            -96.794,
            28.189
          ],
          [
            -96.834,
            28.073
          ],
          [
            -96.692,
            28.183
          ],
          [
            -96.419,
            28.325
          ],
          [
            -96.405,
            28.392
          ]
        ],
        [
          [
            -89.25,
            30.095
          ],
          [
            -89.185,
            30.167
          ],
          [
            -89.28,
            30.079
          ],
          [
            -89.346,
            30.059
          ],
          [
            -89.318,
            30.041
          ],
          [
            -89.256,
            30.067
          ],
          [
            -89.221,
            30.028
          ],
          [
            -89.189,
            30.079
          ],
          [
            -89.207,
            30.058
          ],
          [
            -89.25,
            30.095
          ]
        ],
        [
          [
            -94.828,
            29.313
          ],
          [
            -95.107,
            29.1
          ],
          [
            -94.753,
            29.331
          ],
          [
            -94.839,
            29.351
          ],
          [
            -94.828,
            29.313
          ]
        ],
        [
          [
            -91.911,
            29.645
          ],
          [
            -92.034,
            29.592
          ],
          [
            -91.84,
            29.482
          ],
          [
            -91.779,
            29.489
          ],
          [
            -91.713,
            29.583
          ],
          [
            -91.911,
            29.645
          ]
        ],
        [
          [
            -80.802,
            24.837
          ],
          [
            -80.853,
            24.8
          ],
          [
            -80.794,
            24.808
          ],
          [
            -80.802,
            24.837
          ]
        ],
        [
          [
            -81.432,
            24.745
          ],
          [
            -81.388,
            24.702
          ],
          [
            -81.337,
            24.635
          ],
          [
            -81.356,
            24.699
          ],
          [
            -81.432,
            24.745
          ]
        ],
        [
          [
            -81.508,
            24.633
          ],
          [
            -81.558,
            24.688
          ],
          [
            -81.5266577181208,
            24.626294882550333
          ],
          [
            -81.508,
            24.633
          ]
        ],
        [
          [
            -81.52798569725864,
            24.625817640047675
          ],
          [
            -81.526,
            24.625
          ],
          [
            -81.5266577181208,
            24.626294882550333
          ],
          [
            -81.52798569725864,
            24.625817640047675
          ]
        ],
        [
          [
            -81.577,
            24.646
          ],
          [
            -81.559,
            24.62
          ],
          [
            -81.636,
            24.587
          ],
          [
            -81.52798569725864,
            24.625817640047675
          ],
          [
            -81.577,
            24.646
          ]
        ],
        [
          [
            -81.654,
            24.591
          ],
          [
            -81.711,
            24.596
          ],
          [
            -81.721,
            24.553
          ],
          [
            -81.654,
            24.591
          ]
        ],
        [
          [
            -81.509,
            24.689
          ],
          [
            -81.477,
            24.636
          ],
          [
            -81.479,
            24.678
          ],
          [
            -81.509,
            24.689
          ]
        ],
        [
          [
            -91.723,
            18.659
          ],
          [
            -91.691,
            18.657
          ],
          [
            -91.618,
            18.739
          ],
          [
            -91.521,
            18.759
          ],
          [
            -91.553,
            18.788
          ],
          [
            -91.682,
            18.733
          ],
          [
            -91.843,
            18.644
          ],
          [
            -91.703,
            18.696
          ],
          [
            -91.723,
            18.659
          ]
        ]
      ],
      [
        [
          [
            -82.21959228187919,
            26.96346979865772
          ],
          [
            -82.222,
            26.963
          ],
          [
            -82.27,
            27.01
          ],
          [
            -82.21959228187919,
            26.96346979865772
          ]
        ]
      ]
    ]
  }
}