{
  "type": "Feature",
  "properties": {
    "article_id": "PCA-2016",
    "unit_id": "LME_011",
    "geometry_method": "published/inferred bounding box; not a clipped or exact author polygon"
  },
  "geometry": {
    "type": "Polygon",
    "coordinates": [
      [
        [
          -92.2,
          -2.2
        ],
        [
          -88.8,
          -2.2
        ],
        [
          -88.8,
          2.0
        ],
        [
          -92.2,
          2.0
        ],
        [
          -92.2,
          -2.2
        ]
      ]
    ]
  }
}