{
  "type": "Feature",
  "properties": {
    "article_id": "SEAUS-2006",
    "unit_id": "LME_042",
    "geometry_method": "target polygon used as intended model envelope"
  },
  "geometry": {
    "type": "Polygon",
    "coordinates": [
      [
        [
          150.304,
          -36.542
        ],
        [
          150.753,
          -36.543
        ],
        [
          150.859,
          -36.464
        ],
        [
          151.228,
          -36.306
        ],
        [
          152.006,
          -36.043
        ],
        [
          154.958,
          -35.326
        ],
        [
          154.881,
          -35.473
        ],
        [
          154.743,
          -36.044
        ],
        [
          154.628,
          -36.319
        ],
        [
          154.301,
          -36.851
        ],
        [
          154.223,
          -37.15
        ],
        [
          154.2,
          -37.731
        ],
        [
          154.038,
          -38.398
        ],
        [
          153.931,
          -38.677
        ],
        [
          153.792,
          -38.947
        ],
        [
          153.458,
          -39.413
        ],
        [
          153.243,
          -39.651
        ],
        [
          152.821,
          -40.013
        ],
        [
          152.871,
          -40.593
        ],
        [
          152.783,
          -41.186
        ],
        [
          152.776,
          -41.64
        ],
        [
          152.842,
          -42.246
        ],
        [
          152.834,
          -42.634
        ],
        [
          152.793,
          -42.923
        ],
        [
          152.356,
          -44.332
        ],
        [
          152.044,
          -44.868
        ],
        [
          151.599,
          -45.356
        ],
        [
          151.331,
          -45.577
        ],
        [
          151.033,
          -45.78
        ],
        [
          150.54,
          -46.046
        ],
        [
          149.948,
          -46.456
        ],
        [
          149.612,
          -46.632
        ],
        [
          148.875,
          -46.915
        ],
        [
          148.48,
          -47.021
        ],
        [
          147.928,
          -47.125
        ],
        [
          147.083,
          -47.192
        ],
        [
          146.233,
          -47.153
        ],
        [
          145.817,
          -47.093
        ],
        [
          144.597,
          -46.831
        ],
        [
          143.852,
          -46.559
        ],
        [
          143.141,
          -46.197
        ],
        [
          142.829,
          -46.004
        ],
        [
          142.29,
          -45.563
        ],
        [
          141.45,
          -44.586
        ],
        [
          141.018,
          -43.837
        ],
        [
          140.812,
          -43.276
        ],
        [
          140.76,
          -42.979
        ],
        [
          140.554,
          -42.585
        ],
        [
          140.403,
          -42.177
        ],
        [
          140.182,
          -41.937
        ],
        [
          139.89,
          -41.521
        ],
        [
          139.195,
          -41.269
        ],
        [
          138.148,
          -40.782
        ],
        [
          137.562,
          -40.425
        ],
        [
          137.293,
          -40.219
        ],
        [
          136.802,
          -39.718
        ],
        [
          136.063,
          -39.608
        ],
        [
          135.707,
          -39.515
        ],
        [
          135.364,
          -39.397
        ],
        [
          134.729,
          -39.091
        ],
        [
          133.833,
          -38.519
        ],
        [
          133.58,
          -38.307
        ],
        [
          133.225,
          -37.93
        ],
        [
          132.57,
          -37.669
        ],
        [
          131.988,
          -37.319
        ],
        [
          131.73,
          -37.114
        ],
        [
          131.402,
          -36.782
        ],
        [
          136.467,
          -36.537
        ],
        [
          136.714,
          -36.627
        ],
        [
          136.689,
          -36.565
        ],
        [
          136.72,
          -36.514
        ],
        [
          138.147,
          -35.885
        ],
        [
          138.095,
          -35.623
        ],
        [
          138.179,
          -35.67
        ],
        [
          138.529,
          -35.656
        ],
        [
          138.731,
          -35.536
        ],
        [
          138.988,
          -35.559
        ],
        [
          138.985,
          -35.534
        ],
        [
          138.811,
          -35.507
        ],
        [
          138.796,
          -35.474
        ],
        [
          139.029,
          -35.522
        ],
        [
          139.034,
          -35.499
        ],
        [
          138.95,
          -35.466
        ],
        [
          138.966,
          -35.412
        ],
        [
          139.13,
          -35.382
        ],
        [
          139.195,
          -35.34
        ],
        [
          139.179,
          -35.32
        ],
        [
          139.228,
          -35.319
        ],
        [
          139.315,
          -35.397
        ],
        [
          139.358,
          -35.376
        ],
        [
          139.365,
          -35.492
        ],
        [
          139.215,
          -35.508
        ],
        [
          139.361,
          -35.598
        ],
        [
          139.337,
          -35.694
        ],
        [
          139.229,
          -35.694
        ],
        [
          139.257,
          -35.644
        ],
        [
          139.217,
          -35.621
        ],
        [
          139.237,
          -35.555
        ],
        [
          139.163,
          -35.505
        ],
        [
          139.104,
          -35.519
        ],
        [
          139.032,
          -35.592
        ],
        [
          139.473,
          -35.899
        ],
        [
          139.604,
          -36.041
        ],
        [
          139.668,
          -36.231
        ],
        [
          139.6118812460132,
          -36.15632404847971
        ],
        [
          139.862,
          -36.666
        ],
        [
          139.842,
          -36.851
        ],
        [
          139.671,
          -36.957
        ],
        [
          139.78,
          -37.108
        ],
        [
          139.784,
          -37.154
        ],
        [
          139.738,
          -37.178
        ],
        [
          140.002,
          -37.505
        ],
        [
          140.041,
          -37.487
        ],
        [
          140.128,
          -37.536
        ],
        [
          140.114,
          -37.581
        ],
        [
          140.238,
          -37.672
        ],
        [
          140.363,
          -37.894
        ],
        [
          140.592,
          -38.038
        ],
        [
          140.699,
          -38.072
        ],
        [
          140.948,
          -38.06
        ],
        [
          141.104,
          -38.114
        ],
        [
          141.387,
          -38.307
        ],
        [
          141.379,
          -38.396
        ],
        [
          141.504,
          -38.385
        ],
        [
          141.555,
          -38.444
        ],
        [
          141.591,
          -38.399
        ],
        [
          141.654,
          -38.402
        ],
        [
          141.621,
          -38.318
        ],
        [
          141.744,
          -38.268
        ],
        [
          141.962,
          -38.291
        ],
        [
          142.163,
          -38.401
        ],
        [
          142.381,
          -38.364
        ],
        [
          142.457,
          -38.407
        ],
        [
          142.498,
          -38.374
        ],
        [
          142.508,
          -38.406
        ],
        [
          142.806,
          -38.578
        ],
        [
          143.051,
          -38.638
        ],
        [
          143.242,
          -38.769
        ],
        [
          143.435,
          -38.786
        ],
        [
          143.537,
          -38.861
        ],
        [
          143.669,
          -38.791
        ],
        [
          143.707,
          -38.731
        ],
        [
          143.845,
          -38.695
        ],
        [
          144.064,
          -38.483
        ],
        [
          144.363,
          -38.324
        ],
        [
          144.433,
          -38.293
        ],
        [
          144.659,
          -38.285
        ],
        [
          144.723,
          -38.187
        ],
        [
          144.702,
          -38.146
        ],
        [
          144.643,
          -38.132
        ],
        [
          144.505,
          -38.182
        ],
        [
          144.382,
          -38.167
        ],
        [
          144.365,
          -38.131
        ],
        [
          144.517,
          -38.114
        ],
        [
          144.527,
          -38.069
        ],
        [
          144.929,
          -37.869
        ],
        [
          144.977,
          -37.894
        ],
        [
          145.027,
          -38.011
        ],
        [
          145.096,
          -38.039
        ],
        [
          145.129,
          -38.152
        ],
        [
          144.941,
          -38.361
        ],
        [
          144.814,
          -38.383
        ],
        [
          144.664,
          -38.324
        ],
        [
          144.942,
          -38.511
        ],
        [
          145.036,
          -38.495
        ],
        [
          145.129,
          -38.404
        ],
        [
          145.229,
          -38.414
        ],
        [
          145.199,
          -38.321
        ],
        [
          145.232,
          -38.308
        ],
        [
          145.256,
          -38.236
        ],
        [
          145.447,
          -38.228
        ],
        [
          145.557,
          -38.376
        ],
        [
          145.51,
          -38.429
        ],
        [
          145.423,
          -38.423
        ],
        [
          145.431,
          -38.508
        ],
        [
          145.37,
          -38.534
        ],
        [
          145.505,
          -38.574
        ],
        [
          145.604,
          -38.683
        ],
        [
          145.731,
          -38.641
        ],
        [
          145.818,
          -38.653
        ],
        [
          145.843,
          -38.705
        ],
        [
          145.753,
          -38.662
        ],
        [
          145.857,
          -38.769
        ],
        [
          145.918,
          -38.911
        ],
        [
          146.009,
          -38.894
        ],
        [
          146.031,
          -38.822
        ],
        [
          146.138,
          -38.843
        ],
        [
          146.34,
          -39.062
        ],
        [
          146.326,
          -39.11
        ],
        [
          146.394,
          -39.147
        ],
        [
          146.435,
          -39.126
        ],
        [
          146.432,
          -39.085
        ],
        [
          146.484,
          -39.073
        ],
        [
          146.471,
          -39.031
        ],
        [
          146.434,
          -39.025
        ],
        [
          146.485,
          -38.917
        ],
        [
          146.471,
          -38.806
        ],
        [
          146.43,
          -38.792
        ],
        [
          146.412,
          -38.855
        ],
        [
          146.289,
          -38.919
        ],
        [
          146.263,
          -38.823
        ],
        [
          146.183,
          -38.756
        ],
        [
          146.223,
          -38.713
        ],
        [
          146.35,
          -38.695
        ],
        [
          146.407,
          -38.738
        ],
        [
          146.657,
          -38.673
        ],
        [
          146.834,
          -38.658
        ],
        [
          146.842,
          -38.688
        ],
        [
          147.372,
          -38.238
        ],
        [
          147.764,
          -37.98
        ],
        [
          147.99,
          -37.893
        ],
        [
          148.309,
          -37.822
        ],
        [
          148.736,
          -37.826
        ],
        [
          149.13,
          -37.779
        ],
        [
          149.249,
          -37.791
        ],
        [
          149.268,
          -37.823
        ],
        [
          149.309,
          -37.795
        ],
        [
          149.488,
          -37.786
        ],
        [
          149.68,
          -37.691
        ],
        [
          149.762,
          -37.591
        ],
        [
          149.717,
          -37.518
        ],
        [
          149.798,
          -37.514
        ],
        [
          149.777,
          -37.561
        ],
        [
          149.969,
          -37.524
        ],
        [
          149.943,
          -37.289
        ],
        [
          149.986,
          -37.257
        ],
        [
          150.05,
          -37.274
        ],
        [
          150.004,
          -37.157
        ],
        [
          149.871,
          -37.109
        ],
        [
          149.941,
          -37.069
        ],
        [
          149.919,
          -37.007
        ],
        [
          149.941,
          -36.957
        ],
        [
          149.902,
          -36.923
        ],
        [
          149.987,
          -36.688
        ],
        [
          150.053,
          -36.597
        ],
        [
          150.052,
          -36.497
        ],
        [
          150.304,
          -36.542
        ]
      ],
      [
        [
          139.597,
          -36.126
        ],
        [
          139.5661987126378,
          -36.095535338729185
        ],
        [
          139.6118812460132,
          -36.15632404847971
        ],
        [
          139.597,
          -36.126
        ]
      ],
      [
        [
          139.417,
          -35.897
        ],
        [
          138.994,
          -35.585
        ],
        [
          138.918,
          -35.578
        ],
        [
          139.231,
          -35.764
        ],
        [
          139.5661987126378,
          -36.095535338729185
        ],
        [
          139.417,
          -35.897
        ]
      ],
      [
        [
          145.179,
          -38.472
        ],
        [
          145.114,
          -38.529
        ],
        [
          145.271,
          -38.521
        ],
        [
          145.361,
          -38.569
        ],
        [
          145.287,
          -38.453
        ],
        [
          145.179,
          -38.472
        ]
      ],
      [
        [
          145.418,
          -38.378
        ],
        [
          145.498,
          -38.364
        ],
        [
          145.449,
          -38.321
        ],
        [
          145.293,
          -38.3
        ],
        [
          145.282,
          -38.407
        ],
        [
          145.376,
          -38.421
        ],
        [
          145.418,
          -38.378
        ]
      ],
      [
        [
          143.869,
          -40.061
        ],
        [
          143.884,
          -40.113
        ],
        [
          143.922,
          -40.136
        ],
        [
          144.048,
          -40.079
        ],
        [
          144.108,
          -40.034
        ],
        [
          144.147,
          -39.934
        ],
        [
          144.103,
          -39.894
        ],
        [
          144.109,
          -39.662
        ],
        [
          143.982,
          -39.574
        ],
        [
          143.929,
          -39.587
        ],
        [
          143.941,
          -39.658
        ],
        [
          143.854,
          -39.715
        ],
        [
          143.87,
          -39.805
        ],
        [
          143.835,
          -39.931
        ],
        [
          143.892,
          -39.982
        ],
        [
          143.893,
          -40.056
        ],
        [
          143.869,
          -40.061
        ]
      ],
      [
        [
          147.861,
          -39.751
        ],
        [
          147.859,
          -39.831
        ],
        [
          147.758,
          -39.879
        ],
        [
          147.81,
          -39.915
        ],
        [
          147.876,
          -39.903
        ],
        [
          147.906,
          -39.988
        ],
        [
          147.878,
          -40.028
        ],
        [
          147.939,
          -40.044
        ],
        [
          147.953,
          -40.1
        ],
        [
          147.996,
          -40.1
        ],
        [
          148.055,
          -40.202
        ],
        [
          148.04,
          -40.239
        ],
        [
          148.129,
          -40.274
        ],
        [
          148.212,
          -40.208
        ],
        [
          148.324,
          -40.231
        ],
        [
          148.283,
          -40.185
        ],
        [
          148.335,
          -40.192
        ],
        [
          148.297,
          -40.099
        ],
        [
          148.224,
          -40.127
        ],
        [
          148.291,
          -40.068
        ],
        [
          148.296,
          -39.964
        ],
        [
          148.165,
          -39.929
        ],
        [
          147.962,
          -39.711
        ],
        [
          147.917,
          -39.744
        ],
        [
          147.861,
          -39.751
        ]
      ],
      [
        [
          148.209,
          -40.334
        ],
        [
          148.191,
          -40.363
        ],
        [
          148.068,
          -40.347
        ],
        [
          147.999,
          -40.39
        ],
        [
          147.995,
          -40.426
        ],
        [
          148.09,
          -40.458
        ],
        [
          148.318,
          -40.435
        ],
        [
          148.339,
          -40.503
        ],
        [
          148.406,
          -40.491
        ],
        [
          148.444,
          -40.434
        ],
        [
          148.476,
          -40.444
        ],
        [
          148.442,
          -40.379
        ],
        [
          148.34,
          -40.305
        ],
        [
          148.278,
          -40.331
        ],
        [
          148.209,
          -40.334
        ]
      ],
      [
        [
          144.867,
          -40.668
        ],
        [
          144.876,
          -40.725
        ],
        [
          145.007,
          -40.695
        ],
        [
          145.062,
          -40.714
        ],
        [
          144.924,
          -40.615
        ],
        [
          144.867,
          -40.668
        ]
      ],
      [
        [
          145.245,
          -40.793
        ],
        [
          145.139,
          -40.792
        ],
        [
          145.144,
          -40.817
        ],
        [
          145.108,
          -40.822
        ],
        [
          144.988,
          -40.749
        ],
        [
          144.762,
          -40.728
        ],
        [
          144.715,
          -40.64
        ],
        [
          144.678,
          -40.71
        ],
        [
          144.701,
          -40.876
        ],
        [
          144.62,
          -40.928
        ],
        [
          144.634,
          -40.987
        ],
        [
          144.609,
          -41.012
        ],
        [
          144.67,
          -41.082
        ],
        [
          144.685,
          -41.228
        ],
        [
          144.776,
          -41.355
        ],
        [
          144.755,
          -41.424
        ],
        [
          144.864,
          -41.554
        ],
        [
          144.919,
          -41.711
        ],
        [
          144.955,
          -41.713
        ],
        [
          145.244,
          -42.028
        ],
        [
          145.265,
          -42.118
        ],
        [
          145.232,
          -42.204
        ],
        [
          145.279,
          -42.222
        ],
        [
          145.28,
          -42.181
        ],
        [
          145.338,
          -42.148
        ],
        [
          145.365,
          -42.238
        ],
        [
          145.47,
          -42.344
        ],
        [
          145.493,
          -42.321
        ],
        [
          145.515,
          -42.362
        ],
        [
          145.552,
          -42.344
        ],
        [
          145.522,
          -42.431
        ],
        [
          145.483,
          -42.417
        ],
        [
          145.469,
          -42.523
        ],
        [
          145.431,
          -42.377
        ],
        [
          145.183,
          -42.206
        ],
        [
          145.233,
          -42.469
        ],
        [
          145.293,
          -42.559
        ],
        [
          145.256,
          -42.612
        ],
        [
          145.353,
          -42.657
        ],
        [
          145.385,
          -42.722
        ],
        [
          145.363,
          -42.759
        ],
        [
          145.401,
          -42.78
        ],
        [
          145.46,
          -42.904
        ],
        [
          145.505,
          -42.966
        ],
        [
          145.577,
          -42.965
        ],
        [
          145.683,
          -43.053
        ],
        [
          145.666,
          -43.097
        ],
        [
          145.727,
          -43.105
        ],
        [
          145.84,
          -43.301
        ],
        [
          145.928,
          -43.296
        ],
        [
          145.864,
          -43.277
        ],
        [
          145.916,
          -43.246
        ],
        [
          145.919,
          -43.201
        ],
        [
          146.018,
          -43.327
        ],
        [
          146.065,
          -43.285
        ],
        [
          146.122,
          -43.337
        ],
        [
          146.17,
          -43.28
        ],
        [
          146.236,
          -43.327
        ],
        [
          146.233,
          -43.394
        ],
        [
          146.185,
          -43.363
        ],
        [
          146.154,
          -43.385
        ],
        [
          146.168,
          -43.414
        ],
        [
          146.1,
          -43.356
        ],
        [
          145.984,
          -43.344
        ],
        [
          145.997,
          -43.387
        ],
        [
          145.931,
          -43.373
        ],
        [
          146.036,
          -43.48
        ],
        [
          146.024,
          -43.554
        ],
        [
          146.161,
          -43.509
        ],
        [
          146.189,
          -43.543
        ],
        [
          146.236,
          -43.489
        ],
        [
          146.288,
          -43.534
        ],
        [
          146.338,
          -43.51
        ],
        [
          146.514,
          -43.543
        ],
        [
          146.555,
          -43.531
        ],
        [
          146.565,
          -43.467
        ],
        [
          146.596,
          -43.552
        ],
        [
          146.702,
          -43.639
        ],
        [
          146.795,
          -43.608
        ],
        [
          146.834,
          -43.648
        ],
        [
          146.93,
          -43.609
        ],
        [
          146.938,
          -43.584
        ],
        [
          146.891,
          -43.563
        ],
        [
          146.955,
          -43.523
        ],
        [
          146.93,
          -43.484
        ],
        [
          147.015,
          -43.473
        ],
        [
          146.923,
          -43.435
        ],
        [
          147.0,
          -43.425
        ],
        [
          147.057,
          -43.357
        ],
        [
          146.96,
          -43.34
        ],
        [
          147.1,
          -43.298
        ],
        [
          146.971,
          -43.207
        ],
        [
          146.981,
          -43.12
        ],
        [
          147.018,
          -43.125
        ],
        [
          147.054,
          -43.205
        ],
        [
          147.105,
          -43.161
        ],
        [
          147.123,
          -43.195
        ],
        [
          147.098,
          -43.244
        ],
        [
          147.149,
          -43.239
        ],
        [
          147.201,
          -43.287
        ],
        [
          147.253,
          -43.262
        ],
        [
          147.242,
          -43.134
        ],
        [
          147.304,
          -43.083
        ],
        [
          147.259,
          -43.034
        ],
        [
          147.282,
          -43.016
        ],
        [
          147.332,
          -43.045
        ],
        [
          147.329,
          -42.97
        ],
        [
          147.365,
          -42.927
        ],
        [
          147.265,
          -42.809
        ],
        [
          147.278,
          -42.779
        ],
        [
          147.408,
          -42.89
        ],
        [
          147.417,
          -42.93
        ],
        [
          147.473,
          -42.909
        ],
        [
          147.475,
          -43.009
        ],
        [
          147.403,
          -42.997
        ],
        [
          147.429,
          -43.044
        ],
        [
          147.553,
          -42.986
        ],
        [
          147.498,
          -42.87
        ],
        [
          147.557,
          -42.831
        ],
        [
          147.607,
          -42.831
        ],
        [
          147.67,
          -42.894
        ],
        [
          147.834,
          -42.902
        ],
        [
          147.827,
          -42.937
        ],
        [
          147.862,
          -42.953
        ],
        [
          147.828,
          -42.969
        ],
        [
          147.896,
          -43.03
        ],
        [
          147.779,
          -43.05
        ],
        [
          147.719,
          -43.011
        ],
        [
          147.734,
          -42.962
        ],
        [
          147.694,
          -42.937
        ],
        [
          147.681,
          -42.986
        ],
        [
          147.619,
          -43.016
        ],
        [
          147.632,
          -43.066
        ],
        [
          147.739,
          -43.111
        ],
        [
          147.692,
          -43.154
        ],
        [
          147.79,
          -43.247
        ],
        [
          147.863,
          -43.204
        ],
        [
          147.85,
          -43.167
        ],
        [
          147.878,
          -43.133
        ],
        [
          147.899,
          -43.186
        ],
        [
          147.995,
          -43.23
        ],
        [
          147.973,
          -43.195
        ],
        [
          148.01,
          -43.161
        ],
        [
          147.961,
          -43.141
        ],
        [
          147.983,
          -43.123
        ],
        [
          147.95,
          -43.078
        ],
        [
          147.958,
          -43.006
        ],
        [
          148.007,
          -42.973
        ],
        [
          147.999,
          -42.905
        ],
        [
          147.907,
          -42.839
        ],
        [
          147.88,
          -42.86
        ],
        [
          147.909,
          -42.894
        ],
        [
          147.843,
          -42.876
        ],
        [
          147.886,
          -42.768
        ],
        [
          147.957,
          -42.723
        ],
        [
          147.944,
          -42.614
        ],
        [
          147.889,
          -42.545
        ],
        [
          147.917,
          -42.518
        ],
        [
          147.956,
          -42.558
        ],
        [
          148.006,
          -42.521
        ],
        [
          147.993,
          -42.413
        ],
        [
          148.031,
          -42.331
        ],
        [
          147.963,
          -42.341
        ],
        [
          148.077,
          -42.191
        ],
        [
          148.083,
          -42.106
        ],
        [
          148.214,
          -42.097
        ],
        [
          148.129,
          -42.063
        ],
        [
          148.149,
          -41.999
        ],
        [
          148.197,
          -42.0
        ],
        [
          148.184,
          -41.943
        ],
        [
          148.241,
          -42.007
        ],
        [
          148.165,
          -42.064
        ],
        [
          148.316,
          -42.132
        ],
        [
          148.274,
          -42.154
        ],
        [
          148.303,
          -42.193
        ],
        [
          148.258,
          -42.248
        ],
        [
          148.318,
          -42.276
        ],
        [
          148.365,
          -42.215
        ],
        [
          148.312,
          -42.172
        ],
        [
          148.365,
          -42.116
        ],
        [
          148.298,
          -42.035
        ],
        [
          148.322,
          -41.919
        ],
        [
          148.264,
          -41.808
        ],
        [
          148.302,
          -41.754
        ],
        [
          148.286,
          -41.678
        ],
        [
          148.315,
          -41.61
        ],
        [
          148.271,
          -41.466
        ],
        [
          148.349,
          -41.291
        ],
        [
          148.247,
          -41.338
        ],
        [
          148.32,
          -41.27
        ],
        [
          148.263,
          -41.169
        ],
        [
          148.303,
          -41.069
        ],
        [
          148.27,
          -41.041
        ],
        [
          148.329,
          -40.989
        ],
        [
          148.223,
          -40.851
        ],
        [
          147.974,
          -40.743
        ],
        [
          147.867,
          -40.883
        ],
        [
          147.796,
          -40.892
        ],
        [
          147.672,
          -40.83
        ],
        [
          147.608,
          -40.843
        ],
        [
          147.488,
          -40.986
        ],
        [
          147.421,
          -41.018
        ],
        [
          147.341,
          -40.942
        ],
        [
          147.18,
          -41.008
        ],
        [
          147.013,
          -40.976
        ],
        [
          146.818,
          -41.058
        ],
        [
          146.824,
          -41.112
        ],
        [
          146.941,
          -41.17
        ],
        [
          146.806,
          -41.16
        ],
        [
          146.791,
          -41.088
        ],
        [
          146.723,
          -41.069
        ],
        [
          146.585,
          -41.146
        ],
        [
          146.586,
          -41.187
        ],
        [
          146.546,
          -41.129
        ],
        [
          146.414,
          -41.171
        ],
        [
          146.197,
          -41.158
        ],
        [
          145.82,
          -41.033
        ],
        [
          145.727,
          -40.939
        ],
        [
          145.572,
          -40.91
        ],
        [
          145.522,
          -40.851
        ],
        [
          145.451,
          -40.871
        ],
        [
          145.326,
          -40.839
        ],
        [
          145.269,
          -40.794
        ],
        [
          145.31,
          -40.761
        ],
        [
          145.26,
          -40.711
        ],
        [
          145.245,
          -40.793
        ]
      ],
      [
        [
          148.044,
          -42.674
        ],
        [
          148.014,
          -42.753
        ],
        [
          148.11,
          -42.724
        ],
        [
          148.076,
          -42.664
        ],
        [
          148.173,
          -42.658
        ],
        [
          148.132,
          -42.592
        ],
        [
          148.079,
          -42.586
        ],
        [
          148.016,
          -42.621
        ],
        [
          148.018,
          -42.667
        ],
        [
          148.044,
          -42.674
        ]
      ],
      [
        [
          147.321,
          -43.114
        ],
        [
          147.352,
          -43.142
        ],
        [
          147.292,
          -43.164
        ],
        [
          147.382,
          -43.196
        ],
        [
          147.343,
          -43.226
        ],
        [
          147.354,
          -43.261
        ],
        [
          147.43,
          -43.254
        ],
        [
          147.363,
          -43.078
        ],
        [
          147.321,
          -43.114
        ]
      ],
      [
        [
          147.234,
          -43.324
        ],
        [
          147.236,
          -43.374
        ],
        [
          147.172,
          -43.362
        ],
        [
          147.18,
          -43.461
        ],
        [
          147.085,
          -43.419
        ],
        [
          147.142,
          -43.499
        ],
        [
          147.18,
          -43.498
        ],
        [
          147.217,
          -43.421
        ],
        [
          147.239,
          -43.492
        ],
        [
          147.319,
          -43.505
        ],
        [
          147.365,
          -43.386
        ],
        [
          147.3,
          -43.263
        ],
        [
          147.234,
          -43.324
        ]
      ]
    ]
  }
}