{
  "type": "Feature",
  "properties": {
    "article_id": "GBR-2000",
    "unit_id": "LME_040",
    "geometry_method": "published/inferred bounding box; not a clipped or exact author polygon"
  },
  "geometry": {
    "type": "Polygon",
    "coordinates": [
      [
        [
          142,
          -18
        ],
        [
          146,
          -18
        ],
        [
          146,
          -10
        ],
        [
          142,
          -10
        ],
        [
          142,
          -18
        ]
      ]
    ]
  }
}