{
  "type": "Feature",
  "properties": {
    "article_id": "ECS-2022",
    "unit_id": "LME_047",
    "geometry_method": "target polygon used as intended article/model envelope"
  },
  "geometry": {
    "type": "MultiPolygon",
    "coordinates": [
      [
        [
          [
            130.579,
            33.874
          ],
          [
            130.484,
            33.852
          ],
          [
            130.449,
            33.801
          ],
          [
            130.464,
            33.73
          ],
          [
            130.338,
            33.654
          ],
          [
            130.421,
            33.662
          ],
          [
            130.394,
            33.598
          ],
          [
            130.287,
            33.574
          ],
          [
            130.211,
            33.655
          ],
          [
            130.093,
            33.568
          ],
          [
            130.167,
            33.531
          ],
          [
            130.007,
            33.439
          ],
          [
            129.949,
            33.471
          ],
          [
            129.967,
            33.504
          ],
          [
            129.928,
            33.536
          ],
          [
            129.864,
            33.539
          ],
          [
            129.867,
            33.438
          ],
          [
            129.821,
            33.468
          ],
          [
            129.797,
            33.446
          ],
          [
            129.88,
            33.381
          ],
          [
            129.853,
            33.28
          ],
          [
            129.796,
            33.364
          ],
          [
            129.71,
            33.337
          ],
          [
            129.684,
            33.38
          ],
          [
            129.589,
            33.368
          ],
          [
            129.564,
            33.207
          ],
          [
            129.652,
            33.189
          ],
          [
            129.689,
            33.127
          ],
          [
            129.665,
            33.096
          ],
          [
            129.714,
            33.144
          ],
          [
            129.733,
            33.117
          ],
          [
            129.76,
            33.134
          ],
          [
            129.741,
            33.073
          ],
          [
            129.927,
            33.013
          ],
          [
            129.934,
            32.92
          ],
          [
            130.008,
            32.831
          ],
          [
            129.894,
            32.863
          ],
          [
            129.849,
            32.823
          ],
          [
            129.805,
            32.856
          ],
          [
            129.792,
            32.919
          ],
          [
            129.799,
            32.939
          ],
          [
            129.833,
            32.911
          ],
          [
            129.821,
            32.979
          ],
          [
            129.773,
            33.006
          ],
          [
            129.744,
            32.985
          ],
          [
            129.767,
            33.041
          ],
          [
            129.682,
            33.08
          ],
          [
            129.634,
            32.962
          ],
          [
            129.686,
            32.838
          ],
          [
            129.732,
            32.792
          ],
          [
            129.776,
            32.809
          ],
          [
            129.86,
            32.711
          ],
          [
            129.746,
            32.561
          ],
          [
            129.898,
            32.644
          ],
          [
            129.945,
            32.743
          ],
          [
            130.091,
            32.785
          ],
          [
            130.176,
            32.784
          ],
          [
            130.201,
            32.733
          ],
          [
            130.131,
            32.674
          ],
          [
            130.173,
            32.587
          ],
          [
            130.346,
            32.664
          ],
          [
            130.377,
            32.772
          ],
          [
            130.33,
            32.852
          ],
          [
            130.248,
            32.865
          ],
          [
            130.171,
            32.829
          ],
          [
            130.094,
            32.856
          ],
          [
            130.221,
            32.955
          ],
          [
            130.116,
            33.116
          ],
          [
            130.155,
            33.111
          ],
          [
            130.217,
            33.182
          ],
          [
            130.361,
            33.138
          ],
          [
            130.416,
            33.087
          ],
          [
            130.431,
            32.919
          ],
          [
            130.605,
            32.791
          ],
          [
            130.594,
            32.74
          ],
          [
            130.627,
            32.7
          ],
          [
            130.446,
            32.621
          ],
          [
            130.663,
            32.644
          ],
          [
            130.566,
            32.553
          ],
          [
            130.6,
            32.507
          ],
          [
            130.554,
            32.496
          ],
          [
            130.57,
            32.442
          ],
          [
            130.507,
            32.376
          ],
          [
            130.515,
            32.334
          ],
          [
            130.461,
            32.347
          ],
          [
            130.463,
            32.296
          ],
          [
            130.32,
            32.115
          ],
          [
            130.286,
            32.095
          ],
          [
            130.204,
            32.124
          ],
          [
            130.178,
            32.093
          ],
          [
            130.197,
            32.062
          ],
          [
            130.163,
            32.007
          ],
          [
            130.209,
            31.921
          ],
          [
            130.193,
            31.853
          ],
          [
            130.236,
            31.816
          ],
          [
            130.185,
            31.826
          ],
          [
            130.178,
            31.766
          ],
          [
            130.339,
            31.613
          ],
          [
            130.307,
            31.456
          ],
          [
            130.271,
            31.419
          ],
          [
            130.219,
            31.379
          ],
          [
            130.165,
            31.424
          ],
          [
            130.12,
            31.406
          ],
          [
            130.203,
            31.339
          ],
          [
            130.228,
            31.249
          ],
          [
            130.488,
            31.232
          ],
          [
            130.512,
            31.168
          ],
          [
            130.584,
            31.155
          ],
          [
            130.639,
            31.183
          ],
          [
            130.665,
            31.26
          ],
          [
            130.564,
            31.324
          ],
          [
            130.514,
            31.454
          ],
          [
            130.534,
            31.529
          ],
          [
            130.645,
            31.714
          ],
          [
            130.803,
            31.693
          ],
          [
            130.794,
            31.598
          ],
          [
            130.751,
            31.553
          ],
          [
            130.679,
            31.619
          ],
          [
            130.597,
            31.576
          ],
          [
            130.7,
            31.537
          ],
          [
            130.704,
            31.477
          ],
          [
            130.769,
            31.406
          ],
          [
            130.799,
            31.313
          ],
          [
            130.764,
            31.161
          ],
          [
            130.677,
            31.073
          ],
          [
            130.666,
            30.997
          ],
          [
            130.952,
            31.128
          ],
          [
            130.892,
            30.822
          ],
          [
            130.768,
            30.468
          ],
          [
            130.665,
            30.345
          ],
          [
            130.666,
            30.382
          ],
          [
            130.511,
            30.459
          ],
          [
            130.383,
            30.394
          ],
          [
            130.44,
            30.253
          ],
          [
            130.58,
            30.244
          ],
          [
            129.7,
            29.073
          ],
          [
            129.344,
            28.552
          ],
          [
            129.043,
            28.303
          ],
          [
            128.391,
            27.572
          ],
          [
            127.946,
            26.899
          ],
          [
            127.642,
            26.545
          ],
          [
            127.196,
            26.247
          ],
          [
            126.692,
            25.962
          ],
          [
            126.053,
            25.704
          ],
          [
            125.255,
            25.502
          ],
          [
            124.156,
            25.121
          ],
          [
            123.791,
            24.763
          ],
          [
            123.328,
            24.551
          ],
          [
            122.651,
            24.396
          ],
          [
            122.279,
            24.185
          ],
          [
            121.632,
            24.015
          ],
          [
            121.605,
            24.081
          ],
          [
            121.668,
            24.199
          ],
          [
            121.772,
            24.302
          ],
          [
            121.781,
            24.426
          ],
          [
            121.84,
            24.476
          ],
          [
            121.841,
            24.586
          ],
          [
            121.88,
            24.595
          ],
          [
            121.817,
            24.637
          ],
          [
            121.817,
            24.848
          ],
          [
            121.914,
            24.96
          ],
          [
            122.002,
            25.007
          ],
          [
            121.92,
            25.016
          ],
          [
            121.893,
            25.116
          ],
          [
            121.698,
            25.157
          ],
          [
            121.567,
            25.283
          ],
          [
            121.435,
            25.237
          ],
          [
            121.395,
            25.181
          ],
          [
            121.437,
            25.127
          ],
          [
            121.397,
            25.159
          ],
          [
            121.195,
            25.11
          ],
          [
            121.009,
            25.009
          ],
          [
            120.828,
            24.662
          ],
          [
            120.772,
            24.662
          ],
          [
            120.698,
            24.601
          ],
          [
            120.619,
            24.456
          ],
          [
            118.936,
            24.88
          ],
          [
            118.899,
            24.911
          ],
          [
            118.91,
            24.951
          ],
          [
            118.985,
            24.927
          ],
          [
            119.016,
            24.954
          ],
          [
            118.979,
            24.985
          ],
          [
            119,
            25.048
          ],
          [
            118.95,
            24.999
          ],
          [
            118.845,
            25.08
          ],
          [
            118.937,
            25.103
          ],
          [
            118.972,
            25.166
          ],
          [
            118.955,
            25.191
          ],
          [
            118.906,
            25.18
          ],
          [
            118.923,
            25.21
          ],
          [
            118.872,
            25.244
          ],
          [
            119.061,
            25.273
          ],
          [
            118.981,
            25.242
          ],
          [
            118.975,
            25.211
          ],
          [
            119.064,
            25.225
          ],
          [
            119.028,
            25.133
          ],
          [
            119.068,
            25.159
          ],
          [
            119.095,
            25.106
          ],
          [
            119.088,
            25.133
          ],
          [
            119.153,
            25.127
          ],
          [
            119.079,
            25.175
          ],
          [
            119.132,
            25.246
          ],
          [
            119.154,
            25.177
          ],
          [
            119.257,
            25.167
          ],
          [
            119.288,
            25.194
          ],
          [
            119.27,
            25.233
          ],
          [
            119.35,
            25.246
          ],
          [
            119.283,
            25.325
          ],
          [
            119.243,
            25.325
          ],
          [
            119.196,
            25.253
          ],
          [
            119.21,
            25.341
          ],
          [
            119.169,
            25.319
          ],
          [
            119.102,
            25.408
          ],
          [
            119.23,
            25.475
          ],
          [
            119.282,
            25.571
          ],
          [
            119.312,
            25.569
          ],
          [
            119.309,
            25.607
          ],
          [
            119.379,
            25.586
          ],
          [
            119.355,
            25.522
          ],
          [
            119.45,
            25.501
          ],
          [
            119.439,
            25.44
          ],
          [
            119.51,
            25.472
          ],
          [
            119.483,
            25.368
          ],
          [
            119.541,
            25.369
          ],
          [
            119.559,
            25.406
          ],
          [
            119.53,
            25.437
          ],
          [
            119.571,
            25.467
          ],
          [
            119.577,
            25.34
          ],
          [
            119.652,
            25.357
          ],
          [
            119.622,
            25.363
          ],
          [
            119.647,
            25.389
          ],
          [
            119.609,
            25.434
          ],
          [
            119.623,
            25.467
          ],
          [
            119.571,
            25.489
          ],
          [
            119.595,
            25.504
          ],
          [
            119.566,
            25.511
          ],
          [
            119.59,
            25.523
          ],
          [
            119.564,
            25.542
          ],
          [
            119.58,
            25.578
          ],
          [
            119.498,
            25.558
          ],
          [
            119.451,
            25.68
          ],
          [
            119.532,
            25.705
          ],
          [
            119.587,
            25.68
          ],
          [
            119.621,
            25.757
          ],
          [
            119.564,
            25.876
          ],
          [
            119.602,
            25.841
          ],
          [
            119.706,
            25.994
          ],
          [
            119.527,
            26.045
          ],
          [
            119.448,
            25.96
          ],
          [
            119.359,
            25.936
          ],
          [
            119.24,
            25.959
          ],
          [
            119.197,
            26.083
          ],
          [
            119.093,
            26.142
          ],
          [
            119.45,
            25.977
          ],
          [
            119.595,
            26.139
          ],
          [
            119.593,
            26.174
          ],
          [
            119.664,
            26.219
          ],
          [
            119.637,
            26.259
          ],
          [
            119.799,
            26.281
          ],
          [
            119.784,
            26.301
          ],
          [
            119.809,
            26.319
          ],
          [
            119.888,
            26.309
          ],
          [
            119.939,
            26.354
          ],
          [
            119.844,
            26.374
          ],
          [
            119.824,
            26.42
          ],
          [
            119.747,
            26.361
          ],
          [
            119.743,
            26.323
          ],
          [
            119.679,
            26.312
          ],
          [
            119.65,
            26.433
          ],
          [
            119.569,
            26.43
          ],
          [
            119.578,
            26.474
          ],
          [
            119.662,
            26.491
          ],
          [
            119.764,
            26.405
          ],
          [
            119.822,
            26.444
          ],
          [
            119.757,
            26.546
          ],
          [
            119.786,
            26.548
          ],
          [
            119.78,
            26.573
          ],
          [
            119.735,
            26.61
          ],
          [
            119.665,
            26.611
          ],
          [
            119.605,
            26.568
          ],
          [
            119.558,
            26.612
          ],
          [
            119.536,
            26.656
          ],
          [
            119.597,
            26.645
          ],
          [
            119.605,
            26.684
          ],
          [
            119.553,
            26.708
          ],
          [
            119.549,
            26.754
          ],
          [
            119.617,
            26.796
          ],
          [
            119.621,
            26.751
          ],
          [
            119.724,
            26.698
          ],
          [
            119.676,
            26.76
          ],
          [
            119.687,
            26.812
          ],
          [
            119.75,
            26.734
          ],
          [
            119.776,
            26.824
          ],
          [
            119.846,
            26.85
          ],
          [
            119.788,
            26.799
          ],
          [
            119.835,
            26.787
          ],
          [
            119.795,
            26.753
          ],
          [
            119.79,
            26.697
          ],
          [
            119.834,
            26.712
          ],
          [
            119.872,
            26.649
          ],
          [
            119.934,
            26.746
          ],
          [
            119.921,
            26.79
          ],
          [
            120.073,
            26.794
          ],
          [
            120.032,
            26.714
          ],
          [
            119.984,
            26.694
          ],
          [
            119.985,
            26.648
          ],
          [
            119.854,
            26.594
          ],
          [
            119.831,
            26.529
          ],
          [
            119.86,
            26.518
          ],
          [
            119.937,
            26.557
          ],
          [
            119.953,
            26.612
          ],
          [
            119.997,
            26.599
          ],
          [
            120.13,
            26.646
          ],
          [
            120.101,
            26.695
          ],
          [
            120.149,
            26.718
          ],
          [
            120.096,
            26.756
          ],
          [
            120.124,
            26.791
          ],
          [
            120.03,
            26.82
          ],
          [
            120.025,
            26.861
          ],
          [
            120.059,
            26.884
          ],
          [
            120.034,
            26.9
          ],
          [
            120.1,
            26.877
          ],
          [
            120.119,
            26.926
          ],
          [
            120.22,
            26.912
          ],
          [
            120.233,
            26.967
          ],
          [
            120.144,
            26.976
          ],
          [
            120.254,
            26.993
          ],
          [
            120.216,
            27.034
          ],
          [
            120.238,
            27.067
          ],
          [
            120.275,
            27.059
          ],
          [
            120.245,
            27.129
          ],
          [
            120.382,
            27.094
          ],
          [
            120.369,
            27.124
          ],
          [
            120.41,
            27.13
          ],
          [
            120.376,
            27.144
          ],
          [
            120.422,
            27.145
          ],
          [
            120.345,
            27.18
          ],
          [
            120.352,
            27.234
          ],
          [
            120.307,
            27.215
          ],
          [
            120.252,
            27.252
          ],
          [
            120.179,
            27.213
          ],
          [
            120.194,
            27.29
          ],
          [
            120.227,
            27.261
          ],
          [
            120.227,
            27.308
          ],
          [
            120.308,
            27.313
          ],
          [
            120.298,
            27.241
          ],
          [
            120.372,
            27.242
          ],
          [
            120.42,
            27.169
          ],
          [
            120.44,
            27.225
          ],
          [
            120.467,
            27.176
          ],
          [
            120.514,
            27.2
          ],
          [
            120.549,
            27.324
          ],
          [
            120.502,
            27.341
          ],
          [
            120.545,
            27.405
          ],
          [
            120.634,
            27.369
          ],
          [
            120.64,
            27.442
          ],
          [
            120.685,
            27.477
          ],
          [
            120.604,
            27.506
          ],
          [
            120.574,
            27.587
          ],
          [
            120.636,
            27.598
          ],
          [
            120.674,
            27.644
          ],
          [
            120.671,
            27.71
          ],
          [
            120.632,
            27.752
          ],
          [
            120.72,
            27.724
          ],
          [
            120.843,
            27.877
          ],
          [
            120.847,
            27.945
          ],
          [
            120.741,
            27.972
          ],
          [
            120.696,
            28.015
          ],
          [
            120.582,
            28.029
          ],
          [
            120.561,
            28.114
          ],
          [
            120.6,
            28.037
          ],
          [
            120.941,
            27.983
          ],
          [
            120.981,
            28.113
          ],
          [
            121.079,
            28.169
          ],
          [
            121.115,
            28.238
          ],
          [
            121.024,
            28.301
          ],
          [
            121.098,
            28.288
          ],
          [
            121.162,
            28.383
          ],
          [
            121.261,
            28.36
          ],
          [
            121.206,
            28.325
          ],
          [
            121.253,
            28.282
          ],
          [
            121.257,
            28.208
          ],
          [
            121.342,
            28.139
          ],
          [
            121.379,
            28.185
          ],
          [
            121.355,
            28.187
          ],
          [
            121.362,
            28.225
          ],
          [
            121.417,
            28.242
          ],
          [
            121.395,
            28.295
          ],
          [
            121.432,
            28.292
          ],
          [
            121.457,
            28.339
          ],
          [
            121.572,
            28.306
          ],
          [
            121.571,
            28.251
          ],
          [
            121.625,
            28.284
          ],
          [
            121.656,
            28.338
          ],
          [
            121.586,
            28.358
          ],
          [
            121.564,
            28.477
          ],
          [
            121.509,
            28.488
          ],
          [
            121.563,
            28.502
          ],
          [
            121.482,
            28.674
          ],
          [
            121.337,
            28.693
          ],
          [
            121.26,
            28.669
          ],
          [
            121.3,
            28.693
          ],
          [
            121.291,
            28.735
          ],
          [
            121.139,
            28.841
          ],
          [
            121.344,
            28.708
          ],
          [
            121.505,
            28.694
          ],
          [
            121.61,
            28.725
          ],
          [
            121.663,
            28.826
          ],
          [
            121.619,
            28.838
          ],
          [
            121.629,
            28.876
          ],
          [
            121.49,
            28.939
          ],
          [
            121.539,
            28.954
          ],
          [
            121.576,
            28.924
          ],
          [
            121.585,
            28.957
          ],
          [
            121.683,
            28.914
          ],
          [
            121.713,
            28.949
          ],
          [
            121.655,
            28.996
          ],
          [
            121.691,
            29.022
          ],
          [
            121.554,
            29.047
          ],
          [
            121.535,
            29.013
          ],
          [
            121.527,
            29.049
          ],
          [
            121.612,
            29.053
          ],
          [
            121.63,
            29.106
          ],
          [
            121.404,
            29.102
          ],
          [
            121.459,
            29.133
          ],
          [
            121.412,
            29.163
          ],
          [
            121.454,
            29.161
          ],
          [
            121.469,
            29.193
          ],
          [
            121.506,
            29.177
          ],
          [
            121.523,
            29.275
          ],
          [
            121.565,
            29.269
          ],
          [
            121.565,
            29.299
          ],
          [
            121.621,
            29.191
          ],
          [
            121.627,
            29.303
          ],
          [
            121.658,
            29.296
          ],
          [
            121.647,
            29.196
          ],
          [
            121.744,
            29.194
          ],
          [
            121.759,
            29.359
          ],
          [
            121.796,
            29.373
          ],
          [
            121.785,
            29.32
          ],
          [
            121.839,
            29.323
          ],
          [
            121.802,
            29.301
          ],
          [
            121.833,
            29.249
          ],
          [
            121.812,
            29.184
          ],
          [
            121.843,
            29.161
          ],
          [
            121.944,
            29.193
          ],
          [
            121.951,
            29.251
          ],
          [
            121.987,
            29.255
          ],
          [
            121.975,
            29.283
          ],
          [
            121.91,
            29.273
          ],
          [
            121.905,
            29.319
          ],
          [
            121.938,
            29.338
          ],
          [
            121.888,
            29.386
          ],
          [
            121.973,
            29.439
          ],
          [
            121.907,
            29.518
          ],
          [
            121.98,
            29.585
          ],
          [
            121.912,
            29.635
          ],
          [
            121.796,
            29.607
          ],
          [
            121.734,
            29.556
          ],
          [
            121.848,
            29.531
          ],
          [
            121.796,
            29.475
          ],
          [
            121.747,
            29.467
          ],
          [
            121.759,
            29.522
          ],
          [
            121.709,
            29.534
          ],
          [
            121.561,
            29.475
          ],
          [
            121.484,
            29.4
          ],
          [
            121.516,
            29.447
          ],
          [
            121.484,
            29.481
          ],
          [
            121.44,
            29.417
          ],
          [
            121.445,
            29.521
          ],
          [
            121.503,
            29.549
          ],
          [
            121.511,
            29.506
          ],
          [
            121.558,
            29.543
          ],
          [
            121.698,
            29.562
          ],
          [
            121.877,
            29.774
          ],
          [
            122.127,
            29.889
          ],
          [
            121.931,
            29.882
          ],
          [
            121.787,
            29.962
          ],
          [
            121.678,
            29.963
          ],
          [
            121.484,
            30.185
          ],
          [
            121.284,
            30.304
          ],
          [
            121.14,
            30.291
          ],
          [
            120.839,
            30.13
          ],
          [
            120.704,
            30.114
          ],
          [
            120.635,
            30.145
          ],
          [
            120.67,
            30.1
          ],
          [
            120.771,
            30.094
          ],
          [
            120.793,
            30.061
          ],
          [
            120.614,
            30.111
          ],
          [
            120.512,
            30.31
          ],
          [
            120.405,
            30.286
          ],
          [
            120.371,
            30.222
          ],
          [
            120.31,
            30.219
          ],
          [
            120.249,
            30.266
          ],
          [
            120.146,
            30.195
          ],
          [
            120.235,
            30.285
          ],
          [
            120.344,
            30.293
          ],
          [
            120.379,
            30.364
          ],
          [
            120.448,
            30.391
          ],
          [
            120.649,
            30.398
          ],
          [
            120.793,
            30.328
          ],
          [
            120.912,
            30.371
          ],
          [
            120.896,
            30.396
          ],
          [
            120.937,
            30.415
          ],
          [
            120.941,
            30.494
          ],
          [
            120.996,
            30.572
          ],
          [
            121.127,
            30.592
          ],
          [
            121.212,
            30.669
          ],
          [
            121.342,
            30.706
          ],
          [
            121.469,
            30.816
          ],
          [
            121.698,
            30.863
          ],
          [
            121.864,
            30.858
          ],
          [
            121.885,
            30.975
          ],
          [
            121.759,
            31.207
          ],
          [
            121.668,
            31.309
          ],
          [
            121.309,
            31.502
          ],
          [
            121.23,
            31.617
          ],
          [
            121.087,
            31.706
          ],
          [
            120.964,
            31.755
          ],
          [
            120.86,
            31.752
          ],
          [
            120.719,
            31.817
          ],
          [
            120.719,
            31.856
          ],
          [
            120.773,
            31.816
          ],
          [
            120.79,
            31.871
          ],
          [
            120.714,
            31.984
          ],
          [
            120.436,
            32.021
          ],
          [
            120.418,
            31.958
          ],
          [
            120.182,
            31.899
          ],
          [
            119.996,
            31.946
          ],
          [
            119.881,
            31.994
          ],
          [
            119.872,
            32.067
          ],
          [
            119.766,
            32.124
          ],
          [
            119.787,
            32.198
          ],
          [
            119.692,
            32.237
          ],
          [
            119.61,
            32.19
          ],
          [
            119.63,
            32.261
          ],
          [
            119.681,
            32.291
          ],
          [
            119.612,
            32.352
          ],
          [
            119.852,
            32.286
          ],
          [
            119.888,
            32.197
          ],
          [
            119.923,
            32.207
          ],
          [
            119.918,
            32.11
          ],
          [
            120.007,
            31.992
          ],
          [
            120.092,
            31.947
          ],
          [
            120.266,
            31.944
          ],
          [
            120.472,
            32.092
          ],
          [
            120.624,
            32.093
          ],
          [
            120.811,
            32.019
          ],
          [
            120.983,
            31.829
          ],
          [
            121.077,
            31.861
          ],
          [
            121.167,
            31.832
          ],
          [
            121.3,
            31.869
          ],
          [
            121.474,
            31.817
          ],
          [
            121.656,
            31.709
          ],
          [
            121.872,
            31.676
          ],
          [
            121.897,
            31.736
          ],
          [
            121.828,
            31.919
          ],
          [
            121.671,
            32.049
          ],
          [
            121.529,
            32.114
          ],
          [
            121.442,
            32.111
          ],
          [
            121.434,
            32.145
          ],
          [
            122.179,
            32.458
          ],
          [
            122.635,
            32.566
          ],
          [
            123.195,
            32.636
          ],
          [
            123.56,
            32.741
          ],
          [
            124.301,
            32.763
          ],
          [
            124.654,
            32.908
          ],
          [
            125.175,
            33.26
          ],
          [
            125.55,
            33.459
          ],
          [
            126.421,
            34.155
          ],
          [
            126.519,
            34.295
          ],
          [
            126.6,
            34.3
          ],
          [
            126.633,
            34.392
          ],
          [
            126.684,
            34.434
          ],
          [
            126.723,
            34.427
          ],
          [
            126.702,
            34.453
          ],
          [
            126.761,
            34.478
          ],
          [
            126.734,
            34.509
          ],
          [
            126.768,
            34.519
          ],
          [
            126.772,
            34.583
          ],
          [
            126.803,
            34.569
          ],
          [
            126.812,
            34.446
          ],
          [
            126.889,
            34.412
          ],
          [
            126.897,
            34.449
          ],
          [
            126.944,
            34.445
          ],
          [
            126.939,
            34.494
          ],
          [
            126.989,
            34.532
          ],
          [
            127.008,
            34.612
          ],
          [
            127.134,
            34.688
          ],
          [
            127.202,
            34.69
          ],
          [
            127.246,
            34.76
          ],
          [
            127.296,
            34.721
          ],
          [
            127.335,
            34.742
          ],
          [
            127.353,
            34.693
          ],
          [
            127.329,
            34.652
          ],
          [
            127.296,
            34.652
          ],
          [
            127.275,
            34.7
          ],
          [
            127.238,
            34.666
          ],
          [
            127.242,
            34.569
          ],
          [
            127.193,
            34.569
          ],
          [
            127.206,
            34.636
          ],
          [
            127.123,
            34.548
          ],
          [
            127.168,
            34.512
          ],
          [
            127.227,
            34.544
          ],
          [
            127.326,
            34.431
          ],
          [
            127.436,
            34.535
          ],
          [
            127.364,
            34.539
          ],
          [
            127.34,
            34.579
          ],
          [
            127.514,
            34.591
          ],
          [
            127.387,
            34.702
          ],
          [
            127.4,
            34.748
          ],
          [
            127.354,
            34.77
          ],
          [
            127.422,
            34.798
          ],
          [
            127.365,
            34.822
          ],
          [
            127.492,
            34.834
          ],
          [
            127.526,
            34.882
          ],
          [
            127.532,
            34.804
          ],
          [
            127.588,
            34.748
          ],
          [
            127.554,
            34.656
          ],
          [
            127.635,
            34.615
          ],
          [
            127.626,
            34.694
          ],
          [
            127.652,
            34.731
          ],
          [
            127.748,
            34.727
          ],
          [
            127.774,
            34.844
          ],
          [
            127.639,
            34.814
          ],
          [
            127.576,
            34.887
          ],
          [
            127.593,
            34.942
          ],
          [
            127.643,
            34.901
          ],
          [
            127.715,
            34.937
          ],
          [
            127.72,
            34.983
          ],
          [
            127.741,
            34.953
          ],
          [
            127.864,
            34.94
          ],
          [
            127.918,
            34.963
          ],
          [
            127.928,
            35.016
          ],
          [
            127.95,
            34.977
          ],
          [
            128.019,
            34.979
          ],
          [
            128.001,
            35.027
          ],
          [
            128.067,
            35.078
          ],
          [
            128.056,
            34.931
          ],
          [
            128.116,
            34.918
          ],
          [
            128.134,
            34.883
          ],
          [
            128.204,
            34.888
          ],
          [
            128.228,
            34.934
          ],
          [
            128.29,
            34.901
          ],
          [
            128.329,
            34.949
          ],
          [
            128.357,
            34.905
          ],
          [
            128.32,
            34.881
          ],
          [
            128.435,
            34.835
          ],
          [
            128.47,
            34.886
          ],
          [
            128.432,
            34.884
          ],
          [
            128.445,
            34.96
          ],
          [
            128.418,
            34.981
          ],
          [
            128.501,
            35.008
          ],
          [
            128.477,
            35.054
          ],
          [
            128.372,
            35.005
          ],
          [
            128.378,
            35.036
          ],
          [
            128.499,
            35.103
          ],
          [
            128.649,
            35.055
          ],
          [
            128.573,
            35.17
          ],
          [
            128.593,
            35.213
          ],
          [
            128.618,
            35.137
          ],
          [
            128.671,
            35.113
          ],
          [
            128.692,
            35.142
          ],
          [
            128.701,
            35.095
          ],
          [
            128.794,
            35.108
          ],
          [
            128.796,
            35.076
          ],
          [
            128.908,
            35.118
          ],
          [
            128.925,
            35.091
          ],
          [
            128.976,
            35.134
          ],
          [
            128.98,
            35.032
          ],
          [
            129.065,
            35.119
          ],
          [
            129.126,
            35.099
          ],
          [
            129.122,
            35.139
          ],
          [
            129.236,
            35.188
          ],
          [
            129.281,
            35.301
          ],
          [
            129.324,
            35.32
          ],
          [
            129.499,
            35.173
          ],
          [
            130.072,
            34.82
          ],
          [
            130.339,
            34.413
          ],
          [
            130.579,
            33.874
          ]
        ],
        [
          [
            129.347,
            34.285
          ],
          [
            129.209,
            34.315
          ],
          [
            129.189,
            34.095
          ],
          [
            129.222,
            34.074
          ],
          [
            129.295,
            34.126
          ],
          [
            129.347,
            34.285
          ]
        ],
        [
          [
            129.36,
            34.319
          ],
          [
            129.314,
            34.314
          ],
          [
            129.378,
            34.31
          ],
          [
            129.402,
            34.389
          ],
          [
            129.37,
            34.387
          ],
          [
            129.382,
            34.421
          ],
          [
            129.48,
            34.548
          ],
          [
            129.45,
            34.616
          ],
          [
            129.494,
            34.609
          ],
          [
            129.506,
            34.655
          ],
          [
            129.464,
            34.689
          ],
          [
            129.385,
            34.629
          ],
          [
            129.332,
            34.629
          ],
          [
            129.3,
            34.557
          ],
          [
            129.335,
            34.524
          ],
          [
            129.286,
            34.453
          ],
          [
            129.322,
            34.451
          ],
          [
            129.239,
            34.349
          ],
          [
            129.289,
            34.341
          ],
          [
            129.322,
            34.379
          ],
          [
            129.318,
            34.338
          ],
          [
            129.347,
            34.359
          ],
          [
            129.36,
            34.319
          ]
        ],
        [
          [
            128.057,
            34.697
          ],
          [
            128.073,
            34.805
          ],
          [
            127.956,
            34.801
          ],
          [
            127.909,
            34.847
          ],
          [
            127.934,
            34.916
          ],
          [
            127.876,
            34.926
          ],
          [
            127.822,
            34.843
          ],
          [
            127.86,
            34.72
          ],
          [
            127.903,
            34.71
          ],
          [
            127.94,
            34.765
          ],
          [
            127.971,
            34.701
          ],
          [
            128.057,
            34.697
          ]
        ],
        [
          [
            128.498,
            34.832
          ],
          [
            128.526,
            34.806
          ],
          [
            128.601,
            34.831
          ],
          [
            128.594,
            34.788
          ],
          [
            128.556,
            34.773
          ],
          [
            128.605,
            34.757
          ],
          [
            128.588,
            34.699
          ],
          [
            128.686,
            34.724
          ],
          [
            128.656,
            34.755
          ],
          [
            128.681,
            34.799
          ],
          [
            128.743,
            34.788
          ],
          [
            128.716,
            34.831
          ],
          [
            128.754,
            34.877
          ],
          [
            128.715,
            34.873
          ],
          [
            128.724,
            35.021
          ],
          [
            128.691,
            35.025
          ],
          [
            128.691,
            34.981
          ],
          [
            128.605,
            34.946
          ],
          [
            128.644,
            34.887
          ],
          [
            128.541,
            34.909
          ],
          [
            128.494,
            34.88
          ],
          [
            128.498,
            34.832
          ]
        ],
        [
          [
            129.686,
            33.762
          ],
          [
            129.663,
            33.736
          ],
          [
            129.721,
            33.697
          ],
          [
            129.8,
            33.741
          ],
          [
            129.776,
            33.842
          ],
          [
            129.697,
            33.855
          ],
          [
            129.686,
            33.762
          ]
        ],
        [
          [
            126.747,
            33.546
          ],
          [
            126.317,
            33.453
          ],
          [
            126.184,
            33.353
          ],
          [
            126.158,
            33.279
          ],
          [
            126.274,
            33.19
          ],
          [
            126.341,
            33.227
          ],
          [
            126.599,
            33.233
          ],
          [
            126.843,
            33.308
          ],
          [
            126.951,
            33.47
          ],
          [
            126.919,
            33.474
          ],
          [
            126.898,
            33.523
          ],
          [
            126.747,
            33.546
          ]
        ],
        [
          [
            129.552,
            33.37
          ],
          [
            129.454,
            33.332
          ],
          [
            129.417,
            33.253
          ],
          [
            129.433,
            33.222
          ],
          [
            129.362,
            33.168
          ],
          [
            129.493,
            33.216
          ],
          [
            129.503,
            33.276
          ],
          [
            129.567,
            33.343
          ],
          [
            129.565,
            33.387
          ],
          [
            129.533,
            33.381
          ],
          [
            129.552,
            33.37
          ]
        ],
        [
          [
            129.083,
            33.039
          ],
          [
            129.053,
            32.965
          ],
          [
            128.99,
            32.947
          ],
          [
            129.056,
            32.904
          ],
          [
            129.055,
            32.816
          ],
          [
            129.098,
            32.853
          ],
          [
            129.108,
            32.935
          ],
          [
            129.15,
            32.936
          ],
          [
            129.183,
            32.986
          ],
          [
            129.096,
            32.988
          ],
          [
            129.118,
            33.146
          ],
          [
            129.083,
            33.039
          ]
        ],
        [
          [
            128.78,
            32.782
          ],
          [
            128.735,
            32.749
          ],
          [
            128.649,
            32.778
          ],
          [
            128.661,
            32.668
          ],
          [
            128.636,
            32.634
          ],
          [
            128.622,
            32.665
          ],
          [
            128.601,
            32.619
          ],
          [
            128.756,
            32.581
          ],
          [
            128.796,
            32.653
          ],
          [
            128.901,
            32.643
          ],
          [
            128.811,
            32.797
          ],
          [
            128.78,
            32.782
          ]
        ],
        [
          [
            130.15,
            32.544
          ],
          [
            130.003,
            32.527
          ],
          [
            130.023,
            32.465
          ],
          [
            129.971,
            32.351
          ],
          [
            129.995,
            32.306
          ],
          [
            130.06,
            32.3
          ],
          [
            129.955,
            32.246
          ],
          [
            130.009,
            32.246
          ],
          [
            129.989,
            32.19
          ],
          [
            130.065,
            32.212
          ],
          [
            130.206,
            32.329
          ],
          [
            130.199,
            32.484
          ],
          [
            130.15,
            32.544
          ]
        ],
        [
          [
            130.448,
            32.523
          ],
          [
            130.332,
            32.516
          ],
          [
            130.208,
            32.432
          ],
          [
            130.244,
            32.394
          ],
          [
            130.351,
            32.418
          ],
          [
            130.359,
            32.371
          ],
          [
            130.47,
            32.513
          ],
          [
            130.448,
            32.523
          ]
        ],
        [
          [
            121.483,
            31.693
          ],
          [
            121.467,
            31.748
          ],
          [
            121.333,
            31.818
          ],
          [
            121.188,
            31.789
          ],
          [
            121.329,
            31.645
          ],
          [
            121.546,
            31.531
          ],
          [
            121.815,
            31.451
          ],
          [
            121.874,
            31.5
          ],
          [
            121.852,
            31.547
          ],
          [
            121.612,
            31.616
          ],
          [
            121.483,
            31.693
          ]
        ],
        [
          [
            119.861,
            32.181
          ],
          [
            119.8,
            32.284
          ],
          [
            119.709,
            32.265
          ],
          [
            119.82,
            32.194
          ],
          [
            119.787,
            32.122
          ],
          [
            119.895,
            32.068
          ],
          [
            119.861,
            32.181
          ]
        ],
        [
          [
            122.089,
            30.152
          ],
          [
            121.962,
            30.139
          ],
          [
            122.008,
            29.994
          ],
          [
            122.089,
            30.012
          ],
          [
            122.296,
            29.934
          ],
          [
            122.327,
            30.013
          ],
          [
            122.287,
            30.067
          ],
          [
            122.089,
            30.152
          ]
        ],
        [
          [
            121.244,
            28.126
          ],
          [
            121.239,
            28.167
          ],
          [
            121.268,
            28.181
          ],
          [
            121.194,
            28.203
          ],
          [
            121.119,
            28.134
          ],
          [
            121.129,
            28.057
          ],
          [
            121.274,
            28.08
          ],
          [
            121.244,
            28.126
          ]
        ],
        [
          [
            119.75,
            25.657
          ],
          [
            119.691,
            25.589
          ],
          [
            119.726,
            25.586
          ],
          [
            119.715,
            25.518
          ],
          [
            119.778,
            25.514
          ],
          [
            119.696,
            25.514
          ],
          [
            119.67,
            25.482
          ],
          [
            119.713,
            25.48
          ],
          [
            119.696,
            25.428
          ],
          [
            119.757,
            25.402
          ],
          [
            119.775,
            25.455
          ],
          [
            119.848,
            25.456
          ],
          [
            119.797,
            25.507
          ],
          [
            119.869,
            25.557
          ],
          [
            119.813,
            25.572
          ],
          [
            119.823,
            25.596
          ],
          [
            119.771,
            25.617
          ],
          [
            119.783,
            25.653
          ],
          [
            119.75,
            25.657
          ]
        ]
      ]
    ]
  }
}