{
  "type": "Feature",
  "properties": {
    "article_id": "KER-2005",
    "unit_id": "HS_058",
    "geometry_method": "published/inferred bounding box; not a clipped or exact author polygon"
  },
  "geometry": {
    "type": "Polygon",
    "coordinates": [
      [
        [
          63,
          -55
        ],
        [
          76,
          -55
        ],
        [
          76,
          -45
        ],
        [
          63,
          -45
        ],
        [
          63,
          -55
        ]
      ]
    ]
  }
}