{
  "type": "Feature",
  "properties": {
    "article_id": "EBS-2025",
    "unit_id": "LME_001",
    "geometry_method": "target polygon used as intended article/model envelope"
  },
  "geometry": {
    "type": "MultiPolygon",
    "coordinates": [
      [
        [
          [
            -163.205,
            55.073
          ],
          [
            -163.239,
            55.098
          ],
          [
            -163.198,
            55.084
          ],
          [
            -163.189,
            55.136
          ],
          [
            -163.154,
            55.13
          ],
          [
            -163.209,
            55.017
          ],
          [
            -163.205,
            55.073
          ]
        ]
      ],
      [
        [
          [
            -162.676,
            55.284
          ],
          [
            -162.608,
            55.3
          ],
          [
            -162.702,
            55.2
          ],
          [
            -162.718,
            55.213
          ],
          [
            -162.676,
            55.284
          ]
        ]
      ],
      [
        [
          [
            -161.264,
            58.775
          ],
          [
            -161.313,
            58.792
          ],
          [
            -161.298,
            58.81
          ],
          [
            -161.182,
            58.792
          ],
          [
            -160.897,
            58.886
          ],
          [
            -160.839,
            58.869
          ],
          [
            -160.833,
            58.837
          ],
          [
            -160.729,
            58.922
          ],
          [
            -160.404,
            59.057
          ],
          [
            -160.327,
            59.06
          ],
          [
            -160.253,
            58.982
          ],
          [
            -160.32,
            58.951
          ],
          [
            -160.261,
            58.945
          ],
          [
            -160.25,
            58.896
          ],
          [
            -160.169,
            58.922
          ],
          [
            -160.157,
            58.868
          ],
          [
            -160.016,
            58.886
          ],
          [
            -159.919,
            58.771
          ],
          [
            -159.809,
            58.804
          ],
          [
            -159.815,
            58.854
          ],
          [
            -159.763,
            58.854
          ],
          [
            -159.746,
            58.916
          ],
          [
            -159.769,
            58.934
          ],
          [
            -159.627,
            58.952
          ],
          [
            -159.604,
            58.893
          ],
          [
            -159.651,
            58.836
          ],
          [
            -159.55,
            58.845
          ],
          [
            -159.447,
            58.794
          ],
          [
            -159.123,
            58.486
          ],
          [
            -159.03,
            58.449
          ],
          [
            -159.069,
            58.432
          ],
          [
            -158.898,
            58.396
          ],
          [
            -158.796,
            58.416
          ],
          [
            -158.824,
            58.42
          ],
          [
            -158.704,
            58.492
          ],
          [
            -158.762,
            58.508
          ],
          [
            -158.907,
            58.724
          ],
          [
            -158.91,
            58.774
          ],
          [
            -158.856,
            58.787
          ],
          [
            -158.874,
            58.809
          ],
          [
            -158.802,
            58.797
          ],
          [
            -158.887,
            58.764
          ],
          [
            -158.87,
            58.727
          ],
          [
            -158.779,
            58.771
          ],
          [
            -158.795,
            58.821
          ],
          [
            -158.762,
            58.918
          ],
          [
            -158.823,
            58.971
          ],
          [
            -158.744,
            58.993
          ],
          [
            -158.74,
            58.969
          ],
          [
            -158.789,
            58.962
          ],
          [
            -158.731,
            58.929
          ],
          [
            -158.739,
            58.872
          ],
          [
            -158.616,
            58.921
          ],
          [
            -158.525,
            59.031
          ],
          [
            -158.443,
            59.06
          ],
          [
            -158.547,
            59.139
          ],
          [
            -158.537,
            59.175
          ],
          [
            -158.423,
            59.077
          ],
          [
            -158.129,
            59.028
          ],
          [
            -158.034,
            58.95
          ],
          [
            -158.044,
            58.911
          ],
          [
            -157.993,
            58.905
          ],
          [
            -158.024,
            58.871
          ],
          [
            -158.074,
            58.916
          ],
          [
            -158.061,
            58.946
          ],
          [
            -158.18,
            59.009
          ],
          [
            -158.364,
            59.037
          ],
          [
            -158.492,
            58.999
          ],
          [
            -158.42,
            58.972
          ],
          [
            -158.495,
            58.949
          ],
          [
            -158.51,
            58.87
          ],
          [
            -158.565,
            58.812
          ],
          [
            -158.366,
            58.748
          ],
          [
            -158.33,
            58.654
          ],
          [
            -158.199,
            58.607
          ],
          [
            -157.112,
            58.874
          ],
          [
            -157.054,
            58.906
          ],
          [
            -157.029,
            58.964
          ],
          [
            -156.883,
            59.009
          ],
          [
            -156.865,
            59.104
          ],
          [
            -156.779,
            59.151
          ],
          [
            -156.851,
            59.084
          ],
          [
            -156.856,
            58.999
          ],
          [
            -156.984,
            58.94
          ],
          [
            -156.985,
            58.893
          ],
          [
            -157.031,
            58.869
          ],
          [
            -157.004,
            58.829
          ],
          [
            -157.075,
            58.753
          ],
          [
            -157.046,
            58.721
          ],
          [
            -156.938,
            58.736
          ],
          [
            -157.107,
            58.703
          ],
          [
            -157.225,
            58.641
          ],
          [
            -157.349,
            58.544
          ],
          [
            -157.472,
            58.497
          ],
          [
            -157.549,
            58.393
          ],
          [
            -157.565,
            58.304
          ],
          [
            -157.465,
            58.212
          ],
          [
            -157.335,
            58.239
          ],
          [
            -157.163,
            58.197
          ],
          [
            -157.139,
            58.162
          ],
          [
            -157.196,
            58.194
          ],
          [
            -157.394,
            58.207
          ],
          [
            -157.416,
            58.173
          ],
          [
            -157.541,
            58.169
          ],
          [
            -157.61,
            58.09
          ],
          [
            -157.639,
            57.874
          ],
          [
            -157.711,
            57.728
          ],
          [
            -157.707,
            57.643
          ],
          [
            -157.682,
            57.613
          ],
          [
            -157.6,
            57.622
          ],
          [
            -157.592,
            57.489
          ],
          [
            -157.42,
            57.493
          ],
          [
            -157.449,
            57.545
          ],
          [
            -157.397,
            57.56
          ],
          [
            -157.424,
            57.531
          ],
          [
            -157.397,
            57.491
          ],
          [
            -157.512,
            57.462
          ],
          [
            -157.657,
            57.475
          ],
          [
            -157.679,
            57.568
          ],
          [
            -157.938,
            57.492
          ],
          [
            -158.093,
            57.379
          ],
          [
            -158.055,
            57.364
          ],
          [
            -158.285,
            57.324
          ],
          [
            -158.649,
            57.053
          ],
          [
            -158.7,
            56.977
          ],
          [
            -158.641,
            56.761
          ],
          [
            -158.681,
            56.788
          ],
          [
            -158.871,
            56.791
          ],
          [
            -158.946,
            56.841
          ],
          [
            -158.981,
            56.779
          ],
          [
            -159.026,
            56.795
          ],
          [
            -158.862,
            56.893
          ],
          [
            -159.263,
            56.703
          ],
          [
            -159.213,
            56.69
          ],
          [
            -159.837,
            56.541
          ],
          [
            -160.347,
            56.286
          ],
          [
            -160.457,
            56.16
          ],
          [
            -160.461,
            56.102
          ],
          [
            -160.573,
            55.998
          ],
          [
            -160.532,
            55.98
          ],
          [
            -160.57,
            55.93
          ],
          [
            -160.239,
            55.846
          ],
          [
            -160.315,
            55.822
          ],
          [
            -160.245,
            55.773
          ],
          [
            -160.402,
            55.809
          ],
          [
            -160.464,
            55.794
          ],
          [
            -160.501,
            55.867
          ],
          [
            -160.663,
            55.853
          ],
          [
            -160.788,
            55.88
          ],
          [
            -160.759,
            55.777
          ],
          [
            -160.66,
            55.732
          ],
          [
            -160.689,
            55.695
          ],
          [
            -160.785,
            55.753
          ],
          [
            -160.796,
            55.711
          ],
          [
            -160.946,
            55.824
          ],
          [
            -160.928,
            55.876
          ],
          [
            -160.977,
            55.862
          ],
          [
            -161.024,
            55.89
          ],
          [
            -160.962,
            55.937
          ],
          [
            -160.861,
            55.933
          ],
          [
            -160.889,
            55.995
          ],
          [
            -161.068,
            55.935
          ],
          [
            -161.368,
            55.951
          ],
          [
            -161.151,
            56.011
          ],
          [
            -161.197,
            56.007
          ],
          [
            -161.782,
            55.892
          ],
          [
            -162.261,
            55.673
          ],
          [
            -162.6,
            55.436
          ],
          [
            -162.62,
            55.405
          ],
          [
            -162.596,
            55.437
          ],
          [
            -162.502,
            55.445
          ],
          [
            -162.488,
            55.374
          ],
          [
            -162.545,
            55.344
          ],
          [
            -162.64,
            55.374
          ],
          [
            -162.752,
            55.3
          ],
          [
            -162.89,
            55.266
          ],
          [
            -162.833,
            55.227
          ],
          [
            -162.879,
            55.186
          ],
          [
            -163.079,
            55.177
          ],
          [
            -162.992,
            55.241
          ],
          [
            -163.017,
            55.244
          ],
          [
            -163.323,
            55.122
          ],
          [
            -163.289,
            55.0
          ],
          [
            -163.238,
            54.959
          ],
          [
            -163.331,
            54.963
          ],
          [
            -163.356,
            54.925
          ],
          [
            -163.29,
            54.922
          ],
          [
            -163.414,
            54.881
          ],
          [
            -163.438,
            54.943
          ],
          [
            -163.547,
            55.03
          ],
          [
            -163.53,
            55.046
          ],
          [
            -163.769,
            55.056
          ],
          [
            -164.136,
            54.966
          ],
          [
            -164.222,
            54.917
          ],
          [
            -164.219,
            54.888
          ],
          [
            -164.488,
            54.916
          ],
          [
            -164.704,
            54.668
          ],
          [
            -164.953,
            54.582
          ],
          [
            -164.903,
            54.506
          ],
          [
            -164.959,
            53.177
          ],
          [
            -168.029,
            52.269
          ],
          [
            -168.839,
            52.088
          ],
          [
            -169.75,
            53.693
          ],
          [
            -173.696,
            52.784
          ],
          [
            -178.717,
            52.168
          ],
          [
            -179.986,
            52.346
          ],
          [
            -185.428,
            52.958
          ],
          [
            -187.284,
            53.525
          ],
          [
            -180.147,
            61.516
          ],
          [
            -177.402,
            61.468
          ],
          [
            -173.066,
            61.447
          ],
          [
            -166.136,
            61.517
          ],
          [
            -166.103,
            61.489
          ],
          [
            -166.055,
            61.502
          ],
          [
            -166.097,
            61.518
          ],
          [
            -165.809,
            61.531
          ],
          [
            -165.761,
            61.48
          ],
          [
            -165.781,
            61.447
          ],
          [
            -165.922,
            61.414
          ],
          [
            -165.869,
            61.327
          ],
          [
            -165.609,
            61.281
          ],
          [
            -165.63,
            61.27
          ],
          [
            -165.608,
            61.247
          ],
          [
            -165.648,
            61.238
          ],
          [
            -165.605,
            61.118
          ],
          [
            -165.387,
            61.069
          ],
          [
            -165.357,
            61.077
          ],
          [
            -165.375,
            61.127
          ],
          [
            -165.341,
            61.157
          ],
          [
            -165.408,
            61.208
          ],
          [
            -165.222,
            61.275
          ],
          [
            -165.221,
            61.312
          ],
          [
            -165.288,
            61.334
          ],
          [
            -165.196,
            61.375
          ],
          [
            -165.161,
            61.432
          ],
          [
            -165.077,
            61.427
          ],
          [
            -165.083,
            61.469
          ],
          [
            -165.024,
            61.474
          ],
          [
            -165.012,
            61.504
          ],
          [
            -164.841,
            61.515
          ],
          [
            -165.058,
            61.453
          ],
          [
            -165.058,
            61.418
          ],
          [
            -165.151,
            61.417
          ],
          [
            -165.176,
            61.396
          ],
          [
            -165.155,
            61.359
          ],
          [
            -165.257,
            61.328
          ],
          [
            -165.201,
            61.324
          ],
          [
            -165.208,
            61.264
          ],
          [
            -165.37,
            61.201
          ],
          [
            -165.151,
            61.156
          ],
          [
            -165.143,
            61.199
          ],
          [
            -165.083,
            61.214
          ],
          [
            -165.139,
            61.257
          ],
          [
            -165.063,
            61.211
          ],
          [
            -165.185,
            61.124
          ],
          [
            -165.046,
            61.058
          ],
          [
            -164.996,
            61.071
          ],
          [
            -165.015,
            61.096
          ],
          [
            -164.993,
            61.113
          ],
          [
            -164.766,
            61.111
          ],
          [
            -164.859,
            61.072
          ],
          [
            -164.939,
            61.085
          ],
          [
            -164.947,
            61.014
          ],
          [
            -165.156,
            60.995
          ],
          [
            -165.195,
            60.966
          ],
          [
            -165.15,
            60.928
          ],
          [
            -165.06,
            60.907
          ],
          [
            -164.889,
            60.952
          ],
          [
            -164.802,
            60.897
          ],
          [
            -164.728,
            60.932
          ],
          [
            -164.637,
            60.929
          ],
          [
            -164.582,
            60.907
          ],
          [
            -164.601,
            60.879
          ],
          [
            -164.557,
            60.851
          ],
          [
            -163.958,
            60.856
          ],
          [
            -163.801,
            60.971
          ],
          [
            -163.677,
            60.992
          ],
          [
            -163.76,
            60.939
          ],
          [
            -163.549,
            60.897
          ],
          [
            -163.929,
            60.852
          ],
          [
            -163.724,
            60.841
          ],
          [
            -163.41,
            60.757
          ],
          [
            -163.469,
            60.751
          ],
          [
            -163.426,
            60.722
          ],
          [
            -163.451,
            60.679
          ],
          [
            -163.65,
            60.592
          ],
          [
            -163.773,
            60.575
          ],
          [
            -163.835,
            60.631
          ],
          [
            -163.804,
            60.745
          ],
          [
            -163.98,
            60.776
          ],
          [
            -164.107,
            60.714
          ],
          [
            -164.13,
            60.663
          ],
          [
            -164.269,
            60.647
          ],
          [
            -164.429,
            60.553
          ],
          [
            -164.321,
            60.658
          ],
          [
            -164.218,
            60.689
          ],
          [
            -164.27,
            60.784
          ],
          [
            -164.494,
            60.825
          ],
          [
            -164.656,
            60.82
          ],
          [
            -164.697,
            60.847
          ],
          [
            -164.643,
            60.911
          ],
          [
            -164.839,
            60.867
          ],
          [
            -164.937,
            60.927
          ],
          [
            -164.957,
            60.899
          ],
          [
            -164.87,
            60.843
          ],
          [
            -165.031,
            60.786
          ],
          [
            -164.984,
            60.728
          ],
          [
            -165.005,
            60.701
          ],
          [
            -165.425,
            60.555
          ],
          [
            -165.371,
            60.511
          ],
          [
            -165.249,
            60.497
          ],
          [
            -164.984,
            60.544
          ],
          [
            -164.971,
            60.512
          ],
          [
            -165.026,
            60.466
          ],
          [
            -165.143,
            60.439
          ],
          [
            -164.948,
            60.328
          ],
          [
            -164.753,
            60.29
          ],
          [
            -164.648,
            60.328
          ],
          [
            -164.678,
            60.302
          ],
          [
            -164.647,
            60.284
          ],
          [
            -164.662,
            60.26
          ],
          [
            -164.486,
            60.18
          ],
          [
            -164.425,
            60.091
          ],
          [
            -164.112,
            60.002
          ],
          [
            -164.133,
            59.986
          ],
          [
            -164.098,
            59.972
          ],
          [
            -164.219,
            59.946
          ],
          [
            -164.108,
            59.836
          ],
          [
            -163.755,
            59.796
          ],
          [
            -163.364,
            59.82
          ],
          [
            -162.814,
            59.936
          ],
          [
            -162.743,
            59.969
          ],
          [
            -162.752,
            60.003
          ],
          [
            -162.522,
            59.993
          ],
          [
            -162.473,
            60.058
          ],
          [
            -162.499,
            60.122
          ],
          [
            -162.449,
            60.187
          ],
          [
            -162.7,
            60.261
          ],
          [
            -162.564,
            60.254
          ],
          [
            -162.548,
            60.284
          ],
          [
            -162.597,
            60.3
          ],
          [
            -162.564,
            60.312
          ],
          [
            -162.605,
            60.328
          ],
          [
            -162.504,
            60.35
          ],
          [
            -162.499,
            60.381
          ],
          [
            -162.421,
            60.377
          ],
          [
            -162.44,
            60.426
          ],
          [
            -162.381,
            60.435
          ],
          [
            -162.268,
            60.613
          ],
          [
            -162.124,
            60.65
          ],
          [
            -162.112,
            60.681
          ],
          [
            -162.177,
            60.732
          ],
          [
            -162.081,
            60.689
          ],
          [
            -162.084,
            60.659
          ],
          [
            -161.879,
            60.702
          ],
          [
            -161.96,
            60.676
          ],
          [
            -161.961,
            60.645
          ],
          [
            -162.084,
            60.641
          ],
          [
            -162.222,
            60.582
          ],
          [
            -162.224,
            60.506
          ],
          [
            -162.297,
            60.467
          ],
          [
            -162.384,
            60.332
          ],
          [
            -162.472,
            60.298
          ],
          [
            -162.333,
            60.209
          ],
          [
            -162.372,
            60.176
          ],
          [
            -162.335,
            60.134
          ],
          [
            -162.27,
            60.161
          ],
          [
            -162.305,
            60.216
          ],
          [
            -162.285,
            60.239
          ],
          [
            -162.209,
            60.213
          ],
          [
            -162.151,
            60.246
          ],
          [
            -162.172,
            60.207
          ],
          [
            -162.251,
            60.198
          ],
          [
            -162.197,
            60.144
          ],
          [
            -162.236,
            60.061
          ],
          [
            -162.191,
            59.999
          ],
          [
            -162.102,
            59.955
          ],
          [
            -162.087,
            59.881
          ],
          [
            -161.883,
            59.7
          ],
          [
            -161.861,
            59.621
          ],
          [
            -161.705,
            59.497
          ],
          [
            -161.808,
            59.473
          ],
          [
            -161.848,
            59.422
          ],
          [
            -161.958,
            59.38
          ],
          [
            -161.986,
            59.244
          ],
          [
            -162.04207684098188,
            59.2545144076841
          ],
          [
            -161.992,
            59.144
          ],
          [
            -161.865,
            59.061
          ],
          [
            -161.844,
            59.063
          ],
          [
            -161.891,
            59.092
          ],
          [
            -161.853,
            59.114
          ],
          [
            -161.619,
            59.139
          ],
          [
            -161.566,
            59.104
          ],
          [
            -161.758,
            59.022
          ],
          [
            -161.855,
            59.029
          ],
          [
            -161.788,
            58.969
          ],
          [
            -161.792,
            58.865
          ],
          [
            -161.753,
            58.818
          ],
          [
            -161.771,
            58.783
          ],
          [
            -161.689,
            58.823
          ],
          [
            -161.656,
            58.801
          ],
          [
            -161.694,
            58.767
          ],
          [
            -161.794,
            58.757
          ],
          [
            -161.891,
            58.653
          ],
          [
            -161.995,
            58.681
          ],
          [
            -162.171,
            58.65
          ],
          [
            -162.076,
            58.619
          ],
          [
            -161.82,
            58.627
          ],
          [
            -161.764,
            58.599
          ],
          [
            -161.749,
            58.644
          ],
          [
            -161.71,
            58.613
          ],
          [
            -161.763,
            58.552
          ],
          [
            -161.347,
            58.666
          ],
          [
            -161.385,
            58.671
          ],
          [
            -161.38,
            58.704
          ],
          [
            -161.264,
            58.775
          ]
        ],
        [
          [
            -162.04501075268817,
            59.26098924731183
          ],
          [
            -162.05,
            59.256
          ],
          [
            -162.04207684098188,
            59.2545144076841
          ],
          [
            -162.04501075268817,
            59.26098924731183
          ]
        ],
        [
          [
            -161.999,
            59.307
          ],
          [
            -162.05,
            59.272
          ],
          [
            -162.04501075268817,
            59.26098924731183
          ],
          [
            -161.999,
            59.307
          ]
        ],
        [
          [
            -161.057,
            58.704
          ],
          [
            -161.111,
            58.654
          ],
          [
            -161.08,
            58.612
          ],
          [
            -161.091,
            58.559
          ],
          [
            -160.912,
            58.57
          ],
          [
            -160.687,
            58.818
          ],
          [
            -161.057,
            58.704
          ]
        ],
        [
          [
            -166.121,
            59.834
          ],
          [
            -165.965,
            59.874
          ],
          [
            -165.977,
            59.898
          ],
          [
            -165.876,
            59.873
          ],
          [
            -165.754,
            59.922
          ],
          [
            -165.706,
            59.894
          ],
          [
            -165.551,
            59.934
          ],
          [
            -165.582,
            59.95
          ],
          [
            -165.541,
            59.979
          ],
          [
            -165.611,
            59.971
          ],
          [
            -165.641,
            60.0
          ],
          [
            -165.624,
            60.024
          ],
          [
            -165.726,
            60.066
          ],
          [
            -165.673,
            60.097
          ],
          [
            -165.679,
            60.152
          ],
          [
            -165.731,
            60.166
          ],
          [
            -165.677,
            60.207
          ],
          [
            -165.717,
            60.24
          ],
          [
            -165.681,
            60.295
          ],
          [
            -165.859,
            60.345
          ],
          [
            -165.926,
            60.317
          ],
          [
            -166.064,
            60.328
          ],
          [
            -166.109,
            60.416
          ],
          [
            -166.154,
            60.431
          ],
          [
            -166.144,
            60.381
          ],
          [
            -166.273,
            60.387
          ],
          [
            -166.396,
            60.341
          ],
          [
            -166.405,
            60.372
          ],
          [
            -166.465,
            60.384
          ],
          [
            -166.561,
            60.357
          ],
          [
            -166.583,
            60.311
          ],
          [
            -166.659,
            60.327
          ],
          [
            -166.755,
            60.301
          ],
          [
            -166.808,
            60.28
          ],
          [
            -166.792,
            60.238
          ],
          [
            -166.839,
            60.205
          ],
          [
            -167.103,
            60.236
          ],
          [
            -167.451,
            60.207
          ],
          [
            -167.329,
            60.127
          ],
          [
            -167.316,
            60.072
          ],
          [
            -167.252,
            60.081
          ],
          [
            -167.127,
            59.997
          ],
          [
            -167.0,
            60.007
          ],
          [
            -167.022,
            59.987
          ],
          [
            -166.604,
            59.851
          ],
          [
            -166.285,
            59.822
          ],
          [
            -166.193,
            59.754
          ],
          [
            -166.084,
            59.781
          ],
          [
            -166.266,
            59.844
          ],
          [
            -166.182,
            59.864
          ],
          [
            -166.121,
            59.834
          ]
        ],
        [
          [
            -172.844,
            60.485
          ],
          [
            -172.928,
            60.559
          ],
          [
            -172.917,
            60.604
          ],
          [
            -173.044,
            60.538
          ],
          [
            -173.048,
            60.494
          ],
          [
            -172.599,
            60.325
          ],
          [
            -172.383,
            60.342
          ],
          [
            -172.28,
            60.303
          ],
          [
            -172.209,
            60.317
          ],
          [
            -172.388,
            60.394
          ],
          [
            -172.577,
            60.396
          ],
          [
            -172.844,
            60.485
          ]
        ],
        [
          [
            -170.351,
            57.135
          ],
          [
            -170.267,
            57.143
          ],
          [
            -170.281,
            57.105
          ],
          [
            -170.166,
            57.163
          ],
          [
            -170.102,
            57.244
          ],
          [
            -170.203,
            57.217
          ],
          [
            -170.387,
            57.202
          ],
          [
            -170.414,
            57.174
          ],
          [
            -170.351,
            57.135
          ]
        ],
        [
          [
            -169.786,
            56.614
          ],
          [
            -169.744,
            56.589
          ],
          [
            -169.58,
            56.536
          ],
          [
            -169.471,
            56.592
          ],
          [
            -169.786,
            56.614
          ]
        ],
        [
          [
            -165.682,
            54.238
          ],
          [
            -165.573,
            54.229
          ],
          [
            -165.634,
            54.197
          ],
          [
            -165.596,
            54.172
          ],
          [
            -165.631,
            54.142
          ],
          [
            -165.61,
            54.116
          ],
          [
            -165.561,
            54.11
          ],
          [
            -165.486,
            54.173
          ],
          [
            -165.399,
            54.184
          ],
          [
            -165.543,
            54.22
          ],
          [
            -165.553,
            54.248
          ],
          [
            -165.483,
            54.284
          ],
          [
            -165.521,
            54.292
          ],
          [
            -165.591,
            54.26
          ],
          [
            -165.625,
            54.291
          ],
          [
            -165.682,
            54.238
          ]
        ],
        [
          [
            -165.222,
            54.09
          ],
          [
            -164.958,
            54.077
          ],
          [
            -164.93,
            54.121
          ],
          [
            -164.98,
            54.129
          ],
          [
            -165.039,
            54.104
          ],
          [
            -165.137,
            54.127
          ],
          [
            -165.222,
            54.09
          ]
        ],
        [
          [
            -165.738,
            54.148
          ],
          [
            -165.811,
            54.181
          ],
          [
            -165.868,
            54.168
          ],
          [
            -165.873,
            54.209
          ],
          [
            -165.938,
            54.221
          ],
          [
            -166.089,
            54.171
          ],
          [
            -166.123,
            54.116
          ],
          [
            -166.039,
            54.036
          ],
          [
            -165.974,
            54.066
          ],
          [
            -165.89,
            54.03
          ],
          [
            -165.842,
            54.081
          ],
          [
            -165.763,
            54.064
          ],
          [
            -165.657,
            54.125
          ],
          [
            -165.815,
            54.127
          ],
          [
            -165.738,
            54.148
          ]
        ],
        [
          [
            -166.852,
            53.966
          ],
          [
            -167.024,
            53.956
          ],
          [
            -167.161,
            53.854
          ],
          [
            -167.039,
            53.754
          ],
          [
            -166.964,
            53.772
          ],
          [
            -166.706,
            53.717
          ],
          [
            -166.781,
            53.711
          ],
          [
            -166.748,
            53.695
          ],
          [
            -166.766,
            53.686
          ],
          [
            -166.826,
            53.701
          ],
          [
            -166.801,
            53.626
          ],
          [
            -166.839,
            53.656
          ],
          [
            -166.861,
            53.629
          ],
          [
            -166.866,
            53.675
          ],
          [
            -166.919,
            53.712
          ],
          [
            -167.058,
            53.684
          ],
          [
            -166.993,
            53.618
          ],
          [
            -167.05,
            53.627
          ],
          [
            -167.046,
            53.594
          ],
          [
            -167.098,
            53.631
          ],
          [
            -167.163,
            53.61
          ],
          [
            -167.143,
            53.551
          ],
          [
            -166.962,
            53.526
          ],
          [
            -167.182,
            53.52
          ],
          [
            -167.161,
            53.466
          ],
          [
            -167.303,
            53.47
          ],
          [
            -167.296,
            53.441
          ],
          [
            -167.335,
            53.446
          ],
          [
            -167.324,
            53.406
          ],
          [
            -167.477,
            53.436
          ],
          [
            -167.512,
            53.402
          ],
          [
            -167.483,
            53.372
          ],
          [
            -167.691,
            53.385
          ],
          [
            -167.846,
            53.309
          ],
          [
            -167.665,
            53.237
          ],
          [
            -167.592,
            53.282
          ],
          [
            -167.499,
            53.257
          ],
          [
            -167.454,
            53.317
          ],
          [
            -167.311,
            53.33
          ],
          [
            -167.29,
            53.365
          ],
          [
            -167.142,
            53.417
          ],
          [
            -166.999,
            53.449
          ],
          [
            -166.975,
            53.42
          ],
          [
            -166.943,
            53.466
          ],
          [
            -166.913,
            53.437
          ],
          [
            -166.886,
            53.477
          ],
          [
            -166.825,
            53.438
          ],
          [
            -166.806,
            53.469
          ],
          [
            -166.753,
            53.446
          ],
          [
            -166.796,
            53.561
          ],
          [
            -166.659,
            53.483
          ],
          [
            -166.652,
            53.506
          ],
          [
            -166.711,
            53.541
          ],
          [
            -166.635,
            53.525
          ],
          [
            -166.664,
            53.593
          ],
          [
            -166.591,
            53.535
          ],
          [
            -166.567,
            53.601
          ],
          [
            -166.519,
            53.583
          ],
          [
            -166.558,
            53.613
          ],
          [
            -166.538,
            53.628
          ],
          [
            -166.277,
            53.679
          ],
          [
            -166.271,
            53.714
          ],
          [
            -166.319,
            53.725
          ],
          [
            -166.332,
            53.779
          ],
          [
            -166.372,
            53.755
          ],
          [
            -166.372,
            53.715
          ],
          [
            -166.415,
            53.756
          ],
          [
            -166.484,
            53.69
          ],
          [
            -166.499,
            53.723
          ],
          [
            -166.543,
            53.686
          ],
          [
            -166.571,
            53.71
          ],
          [
            -166.488,
            53.772
          ],
          [
            -166.537,
            53.783
          ],
          [
            -166.416,
            53.803
          ],
          [
            -166.429,
            53.828
          ],
          [
            -166.357,
            53.848
          ],
          [
            -166.343,
            53.885
          ],
          [
            -166.242,
            53.88
          ],
          [
            -166.215,
            53.928
          ],
          [
            -166.264,
            53.909
          ],
          [
            -166.258,
            53.971
          ],
          [
            -166.369,
            53.945
          ],
          [
            -166.358,
            53.995
          ],
          [
            -166.38,
            53.999
          ],
          [
            -166.456,
            53.885
          ],
          [
            -166.479,
            53.903
          ],
          [
            -166.6,
            53.828
          ],
          [
            -166.581,
            53.877
          ],
          [
            -166.633,
            53.871
          ],
          [
            -166.637,
            53.919
          ],
          [
            -166.591,
            53.966
          ],
          [
            -166.686,
            54.01
          ],
          [
            -166.727,
            53.97
          ],
          [
            -166.751,
            54.009
          ],
          [
            -166.852,
            53.966
          ]
        ],
        [
          [
            -166.236,
            53.814
          ],
          [
            -166.29,
            53.796
          ],
          [
            -166.296,
            53.756
          ],
          [
            -166.21,
            53.705
          ],
          [
            -166.223,
            53.724
          ],
          [
            -166.168,
            53.744
          ],
          [
            -166.188,
            53.771
          ],
          [
            -166.115,
            53.777
          ],
          [
            -166.13,
            53.812
          ],
          [
            -166.09,
            53.839
          ],
          [
            -166.118,
            53.847
          ],
          [
            -166.199,
            53.834
          ],
          [
            -166.231,
            53.781
          ],
          [
            -166.236,
            53.814
          ]
        ],
        [
          [
            -167.804,
            53.473
          ],
          [
            -167.799,
            53.517
          ],
          [
            -167.938,
            53.522
          ],
          [
            -168.006,
            53.564
          ],
          [
            -168.24,
            53.529
          ],
          [
            -168.352,
            53.476
          ],
          [
            -168.411,
            53.41
          ],
          [
            -168.392,
            53.375
          ],
          [
            -168.429,
            53.333
          ],
          [
            -168.345,
            53.295
          ],
          [
            -168.359,
            53.26
          ],
          [
            -168.472,
            53.272
          ],
          [
            -168.53,
            53.245
          ],
          [
            -168.621,
            53.272
          ],
          [
            -168.794,
            53.147
          ],
          [
            -168.768,
            53.068
          ],
          [
            -168.86,
            53.008
          ],
          [
            -168.88,
            52.938
          ],
          [
            -168.96,
            52.932
          ],
          [
            -168.972,
            52.881
          ],
          [
            -169.107,
            52.819
          ],
          [
            -168.805,
            52.928
          ],
          [
            -168.776,
            52.906
          ],
          [
            -168.762,
            52.96
          ],
          [
            -168.686,
            52.954
          ],
          [
            -168.591,
            53.024
          ],
          [
            -168.489,
            53.038
          ],
          [
            -168.369,
            53.131
          ],
          [
            -168.375,
            53.162
          ],
          [
            -168.351,
            53.153
          ],
          [
            -168.325,
            53.211
          ],
          [
            -168.144,
            53.269
          ],
          [
            -167.849,
            53.381
          ],
          [
            -167.865,
            53.432
          ],
          [
            -167.804,
            53.473
          ]
        ]
      ]
    ]
  }
}