{
  "type": "Feature",
  "properties": {
    "article_id": "SOJ-2023",
    "unit_id": "LME_050",
    "geometry_method": "reported/inferred bounding box shown against the target polygon"
  },
  "geometry": {
    "type": "Polygon",
    "coordinates": [
      [
        [
          134.1,
          35.05
        ],
        [
          135.5,
          35.05
        ],
        [
          135.5,
          36.0
        ],
        [
          134.1,
          36.0
        ],
        [
          134.1,
          35.05
        ]
      ]
    ]
  }
}