{
  "type": "Feature",
  "properties": {
    "article_id": "INDO-1999",
    "unit_id": "LME_038",
    "geometry_method": "reported/inferred bounding box shown against the target polygon"
  },
  "geometry": {
    "type": "Polygon",
    "coordinates": [
      [
        [
          103,
          -9
        ],
        [
          117,
          -9
        ],
        [
          117,
          -3
        ],
        [
          103,
          -3
        ],
        [
          103,
          -9
        ]
      ]
    ]
  }
}