{
  "type": "Feature",
  "properties": {
    "article_id": "SCS-2007",
    "unit_id": "LME_036",
    "geometry_method": "reported/inferred bounding box shown against the target polygon"
  },
  "geometry": {
    "type": "Polygon",
    "coordinates": [
      [
        [
          108,
          16
        ],
        [
          118.5,
          16
        ],
        [
          118.5,
          23.5
        ],
        [
          108,
          23.5
        ],
        [
          108,
          16
        ]
      ]
    ]
  }
}