{"type": "Feature", "properties": {"geometry_method": "target polygon used as intended model envelope", "geometry_confidence": "medium"}, "geometry": {"type": "MultiPolygon", "coordinates": [[[[124.939, -11.659], [127.01, -13.103], [126.982, -13.762], [126.953, -13.727], [126.908, -13.74], [126.921, -13.768], [126.848, -13.756], [126.876, -13.801], [126.84, -13.819], [126.821, -13.767], [126.747, -13.793], [126.8, -13.926], [126.857, -13.951], [126.815, -13.944], [126.84, -13.976], [126.818, -13.986], [126.705, -13.981], [126.712, -14.028], [126.745, -14.013], [126.729, -14.078], [126.697, -14.127], [126.643, -14.076], [126.647, -14.158], [126.601, -14.23], [126.566, -14.216], [126.567, -14.137], [126.525, -14.152], [126.496, -14.119], [126.519, -14.07], [126.453, -14.08], [126.557, -13.936], [126.521, -13.924], [126.47, -13.995], [126.431, -13.975], [126.382, -14.047], [126.336, -14.049], [126.294, -14.144], [126.349, -14.176], [126.288, -14.233], [126.19, -14.17], [126.209, -14.094], [126.155, -14.062], [126.215, -14.035], [126.16, -14.008], [126.217, -13.962], [126.116, -14.023], [126.152, -13.931], [126.087, -13.93], [126.092, -13.891], [126.059, -13.936], [126.015, -13.921], [126.086, -13.968], [126.091, -14.036], [126.051, -13.984], [126.03, -14.031], [125.978, -13.99], [125.986, -14.064], [126.025, -14.09], [126.115, -14.081], [126.144, -14.189], [126.053, -14.241], [126.066, -14.344], [125.977, -14.383], [126.04, -14.512], [126.003, -14.512], [125.994, -14.547], [125.919, -14.524], [125.909, -14.645], [125.825, -14.575], [125.84, -14.451], [125.802, -14.465], [125.793, -14.436], [125.733, -14.472], [125.724, -14.399], [125.637, -14.635], [125.681, -14.492], [125.659, -14.333], [125.711, -14.338], [125.729, -14.271], [125.703, -14.294], [125.618, -14.221], [125.583, -14.245], [125.585, -14.358], [125.618, -14.394], [125.589, -14.549], [125.528, -14.551], [125.553, -14.501], [125.499, -14.49], [125.437, -14.645], [125.397, -14.541], [125.341, -14.607], [125.348, -14.499], [125.316, -14.576], [125.269, -14.574], [125.235, -14.612], [125.238, -14.638], [125.295, -14.644], [125.137, -14.736], [125.187, -14.78], [125.204, -14.857], [125.316, -14.879], [125.29, -14.925], [125.243, -14.902], [125.182, -14.955], [125.287, -14.962], [125.287, -14.998], [125.36, -14.983], [125.377, -15.017], [125.429, -15.006], [125.361, -15.056], [125.39, -15.077], [125.359, -15.101], [125.433, -15.139], [125.295, -15.146], [125.28, -15.1], [125.173, -15.056], [125.16, -15.016], [125.163, -15.164], [125.118, -15.04], [125.076, -15.06], [125.059, -15.033], [125.076, -14.977], [125.004, -14.972], [125.022, -15.1], [124.968, -15.135], [124.897, -15.1], [124.826, -15.156], [124.869, -15.168], [124.873, -15.256], [124.969, -15.167], [124.998, -15.189], [125.013, -15.154], [125.046, -15.159], [125.011, -15.229], [124.927, -15.225], [124.879, -15.296], [124.918, -15.341], [125.029, -15.283], [125.146, -15.319], [125.092, -15.347], [125.07, -15.42], [125.182, -15.521], [125.074, -15.455], [125.05, -15.501], [125.019, -15.465], [124.976, -15.479], [124.995, -15.429], [124.94, -15.378], [124.87, -15.344], [124.825, -15.356], [124.831, -15.318], [124.786, -15.292], [124.738, -15.34], [124.758, -15.293], [124.702, -15.252], [124.658, -15.279], [124.695, -15.316], [124.666, -15.351], [124.733, -15.359], [124.675, -15.399], [124.68, -15.481], [124.644, -15.47], [124.638, -15.42], [124.62, -15.516], [124.487, -15.464], [124.448, -15.486], [124.448, -15.527], [124.379, -15.52], [124.396, -15.608], [124.424, -15.616], [124.424, -15.668], [124.404, -15.639], [124.395, -15.676], [124.371, -15.671], [124.397, -15.856], [124.41, -15.874], [124.444, -15.834], [124.496, -15.944], [124.482, -15.994], [124.518, -15.978], [124.618, -15.8], [124.728, -15.811], [124.685, -15.884], [124.659, -15.861], [124.607, -15.9], [124.618, -15.981], [124.577, -15.993], [124.593, -16.114], [124.555, -16.114], [124.522, -16.176], [124.466, -16.113], [124.47, -16.069], [124.429, -16.057], [124.423, -16.166], [124.393, -16.17], [124.376, -16.222], [124.4, -16.329], [124.43, -16.35], [124.619, -16.328], [124.899, -16.415], [124.836, -16.43], [124.738, -16.384], [124.465, -16.399], [124.388, -16.35], [124.339, -16.409], [124.239, -16.407], [124.16, -16.295], [123.909, -16.219], [123.985, -16.286], [123.945, -16.302], [123.994, -16.382], [123.898, -16.335], [123.892, -16.42], [123.864, -16.432], [123.837, -16.373], [123.866, -16.374], [123.856, -16.324], [123.73, -16.258], [123.825, -16.242], [123.762, -16.211], [123.808, -16.205], [123.777, -16.167], [123.723, -16.138], [123.567, -16.176], [123.573, -16.263], [123.546, -16.281], [123.713, -16.342], [123.717, -16.379], [123.63, -16.372], [123.698, -16.433], [123.503, -16.415], [123.65, -16.479], [123.587, -16.505], [123.641, -16.529], [123.469, -16.467], [123.493, -16.503], [123.426, -16.493], [123.503, -16.567], [123.547, -16.567], [123.532, -16.538], [123.613, -16.552], [123.506, -16.656], [123.599, -16.668], [123.707, -16.747], [123.782, -16.899], [123.917, -16.853], [123.932, -16.803], [123.948, -16.852], [123.83, -16.952], [123.869, -17.025], [123.795, -16.997], [123.83, -17.134], [123.906, -17.22], [123.85, -17.202], [123.708, -17.051], [123.68, -17.066], [123.66, -16.996], [123.589, -17.003], [123.576, -17.081], [123.645, -17.183], [123.564, -17.367], [123.56, -17.446], [123.595, -17.512], [123.575, -17.597], [123.501, -17.429], [123.374, -17.302], [123.373, -17.242], [123.265, -17.084], [123.26, -17.022], [123.142, -16.911], [123.164, -16.847], [123.093, -16.773], [123.131, -16.688], [123.103, -16.716], [123.037, -16.689], [123.021, -16.617], [122.981, -16.632], [122.955, -16.584], [122.992, -16.531], [122.984, -16.481], [123.044, -16.481], [123.061, -16.446], [123.001, -16.429], [123.012, -16.376], [122.918, -16.416], [122.893, -16.508], [122.759, -16.606], [122.735, -16.7], [122.82, -16.78], [122.746, -16.761], [122.629, -16.802], [122.572, -16.785], [122.522, -16.847], [122.594, -16.972], [122.473, -16.914], [122.469, -16.984], [122.447, -16.986], [122.452, -16.952], [122.363, -17.011], [122.253, -17.111], [122.279, -17.147], [122.175, -17.243], [122.139, -17.528], [122.2, -17.708], [122.211, -17.886], [122.171, -17.979], [122.194, -18.004], [122.253, -17.958], [122.348, -17.985], [122.353, -18.106], [122.062, -18.32], [121.94, -18.448], [121.884, -18.475], [121.81, -18.462], [121.733, -18.587], [121.771, -18.611], [121.769, -18.661], [121.723, -18.706], [121.613, -18.708], [121.646, -18.793], [121.489, -19.123], [121.277, -19.395], [121.027, -19.592], [120.234, -19.91], [119.733, -19.963], [119.714, -20.012], [119.664, -20.011], [119.585, -20.071], [119.461, -20.002], [119.169, -19.957], [119.157, -20.007], [119.082, -19.968], [119.047, -20.017], [118.98, -20.039], [118.947, -20.121], [118.801, -20.286], [118.668, -20.331], [118.608, -20.308], [118.356, -20.364], [118.335, -20.337], [118.196, -20.376], [118.178, -20.345], [117.937, -20.494], [117.919, -20.559], [117.87, -20.565], [117.85, -20.608], [117.688, -20.676], [117.618, -20.659], [117.482, -20.716], [117.317, -20.728], [117.194, -20.687], [117.158, -20.599], [116.871, -20.719], [116.785, -20.666], [116.847, -20.533], [116.8, -20.534], [116.735, -20.634], [116.59, -20.741], [116.518, -20.754], [116.463, -20.815], [116.275, -20.868], [116.192, -20.843], [116.154, -20.971], [115.927, -21.067], [115.813, -21.232], [115.619, -21.332], [115.446, -21.522], [115.109, -21.667], [114.932, -21.692], [114.651, -21.84], [114.55, -22.04], [114.495, -22.001], [114.518, -22.087], [114.4, -22.336], [114.374, -22.479], [114.325, -22.494], [114.274, -22.449], [114.21, -22.469], [114.16, -22.527], [114.109, -22.482], [114.165, -22.317], [114.142, -22.301], [114.113, -22.338], [114.12, -22.268], [114.076, -22.158], [114.132, -21.886], [114.175, -21.827], [114.161, -21.796], [114.018, -21.851], [113.938, -21.966], [113.712, -22.5], [110.86, -20.278], [111.078, -19.957], [111.477, -19.513], [111.894, -19.174], [112.347, -18.884], [112.645, -18.416], [112.835, -18.188], [113.272, -17.781], [113.516, -17.607], [114.045, -17.32], [114.326, -17.211], [114.913, -17.063], [115.501, -17.013], [115.69, -16.326], [115.954, -15.802], [116.12, -15.558], [116.512, -15.116], [116.975, -14.746], [117.626, -14.339], [118.331, -14.044], [118.392, -13.45], [118.451, -13.249], [119.851, -12.632], [121.335, -12.399], [122.001, -11.665], [122.718, -11.615], [123.368, -11.515], [123.969, -11.564], [124.453, -11.514], [124.939, -11.659]], [[125.119, -14.509], [125.139, -14.56], [125.095, -14.54], [125.085, -14.623], [125.138, -14.649], [125.149, -14.614], [125.203, -14.597], [125.174, -14.547], [125.209, -14.487], [125.159, -14.438], [125.119, -14.509]], [[124.561, -15.244], [124.49, -15.29], [124.508, -15.327], [124.474, -15.319], [124.459, -15.367], [124.58, -15.379], [124.517, -15.413], [124.522, -15.445], [124.648, -15.399], [124.55, -15.312], [124.561, -15.244]], [[115.307, -20.877], [115.342, -20.852], [115.369, -20.881], [115.433, -20.826], [115.463, -20.761], [115.447, -20.669], [115.313, -20.801], [115.307, -20.877]]]]}}