{"type": "Feature", "properties": {"geometry_method": "Selected ecosystem polygon used as intended study envelope, not a recovered author boundary", "geometry_confidence": "low"}, "geometry": {"type": "MultiPolygon", "coordinates": [[[[-27.246, 42.388], [-27.0, 42.353], [-26.19, 42.142], [-25.876, 41.999], [-25.077, 41.743], [-24.717, 41.6], [-24.346, 41.406], [-24.072, 41.217], [-23.927, 41.061], [-23.367, 40.895], [-22.591, 40.541], [-21.968, 40.096], [-21.666, 39.788], [-21.238, 39.166], [-21.106, 38.892], [-20.88, 38.542], [-20.677, 37.985], [-20.601, 37.436], [-20.681, 36.684], [-20.842, 36.215], [-21.139, 35.685], [-21.586, 35.1], [-21.928, 34.726], [-22.435, 34.32], [-23.36, 33.863], [-24.011, 33.68], [-25.052, 33.587], [-25.451, 33.602], [-26.404, 33.749], [-26.958, 33.926], [-27.837, 34.4], [-28.219, 34.702], [-28.562, 35.047], [-29.4, 35.169], [-30.003, 35.323], [-30.665, 35.554], [-31.036, 35.726], [-31.572, 36.042], [-32.046, 36.092], [-32.702, 36.241], [-33.489, 36.538], [-34.14, 36.943], [-34.605, 37.328], [-34.97, 37.751], [-35.226, 38.151], [-35.443, 38.693], [-35.557, 39.247], [-35.579, 39.663], [-35.477, 40.294], [-35.266, 40.825], [-34.792, 41.51], [-34.53, 41.812], [-33.897, 42.314], [-33.395, 42.577], [-32.676, 42.857], [-31.872, 43.016], [-31.107, 43.068], [-30.548, 43.039], [-29.829, 42.919], [-29.07, 42.69], [-28.473, 42.416], [-27.783, 42.428], [-27.246, 42.388]], [[-31.109, 39.725], [-31.118, 39.669], [-31.082, 39.698], [-31.109, 39.725]], [[-31.209, 39.524], [-31.268, 39.451], [-31.232, 39.37], [-31.168, 39.377], [-31.124, 39.454], [-31.209, 39.524]], [[-28.03, 39.097], [-28.074, 39.067], [-28.048, 39.034], [-27.951, 39.013], [-28.03, 39.097]], [[-28.624, 38.516], [-28.599, 38.594], [-28.674, 38.635], [-28.836, 38.603], [-28.762, 38.563], [-28.754, 38.522], [-28.624, 38.516]], [[-25.09, 37.015], [-25.182, 36.996], [-25.168, 36.944], [-25.015, 36.928], [-25.052, 37.01], [-25.09, 37.015]], [[-27.258, 38.803], [-27.379, 38.767], [-27.352, 38.687], [-27.228, 38.639], [-27.089, 38.642], [-27.042, 38.696], [-27.045, 38.736], [-27.103, 38.785], [-27.258, 38.803]], [[-27.813, 38.578], [-28.319, 38.756], [-28.224, 38.68], [-28.026, 38.601], [-27.83, 38.534], [-27.754, 38.548], [-27.813, 38.578]], [[-28.144, 38.455], [-28.394, 38.559], [-28.508, 38.553], [-28.543, 38.51], [-28.518, 38.452], [-28.446, 38.42], [-28.274, 38.413], [-28.241, 38.382], [-28.03, 38.412], [-28.144, 38.455]], [[-25.135, 37.806], [-25.165, 37.855], [-25.317, 37.866], [-25.405, 37.826], [-25.49, 37.847], [-25.587, 37.813], [-25.68, 37.836], [-25.782, 37.91], [-25.855, 37.859], [-25.696, 37.734], [-25.567, 37.743], [-25.51, 37.705], [-25.171, 37.741], [-25.135, 37.806]]]]}}