{
  "type": "Feature",
  "properties": {
    "article_id": "ALE-2007",
    "unit_id": "LME_065",
    "geometry_method": "target polygon used as intended model envelope"
  },
  "geometry": {
    "type": "MultiPolygon",
    "coordinates": [
      [
        [
          [
            -169.614,
            53.465
          ],
          [
            -168.839,
            52.088
          ],
          [
            -169.952,
            51.803
          ],
          [
            -179.961,
            50.675
          ],
          [
            -187.579,
            51.692
          ],
          [
            -188.605,
            52.161
          ],
          [
            -187.298,
            53.526
          ],
          [
            -185.428,
            52.958
          ],
          [
            -179.986,
            52.346
          ],
          [
            -178.717,
            52.168
          ],
          [
            -173.696,
            52.784
          ],
          [
            -169.75,
            53.693
          ],
          [
            -169.614,
            53.465
          ]
        ],
        [
          [
            -169.799,
            52.876
          ],
          [
            -170.013,
            52.818
          ],
          [
            -169.956,
            52.786
          ],
          [
            -169.879,
            52.823
          ],
          [
            -169.731,
            52.771
          ],
          [
            -169.675,
            52.818
          ],
          [
            -169.688,
            52.866
          ],
          [
            -169.799,
            52.876
          ]
        ],
        [
          [
            -170.642,
            52.699
          ],
          [
            -170.818,
            52.624
          ],
          [
            -170.839,
            52.549
          ],
          [
            -170.795,
            52.532
          ],
          [
            -170.708,
            52.59
          ],
          [
            -170.606,
            52.591
          ],
          [
            -170.563,
            52.671
          ],
          [
            -170.642,
            52.699
          ]
        ],
        [
          [
            -174.283,
            52.375
          ],
          [
            -174.446,
            52.303
          ],
          [
            -174.364,
            52.277
          ],
          [
            -174.329,
            52.312
          ],
          [
            -174.227,
            52.247
          ],
          [
            -174.335,
            52.186
          ],
          [
            -174.447,
            52.212
          ],
          [
            -174.408,
            52.17
          ],
          [
            -174.549,
            52.177
          ],
          [
            -174.55,
            52.152
          ],
          [
            -174.497,
            52.141
          ],
          [
            -174.596,
            52.13
          ],
          [
            -174.577,
            52.101
          ],
          [
            -174.719,
            52.119
          ],
          [
            -174.781,
            52.076
          ],
          [
            -174.859,
            52.101
          ],
          [
            -174.892,
            52.081
          ],
          [
            -174.904,
            52.112
          ],
          [
            -174.924,
            52.074
          ],
          [
            -175.012,
            52.073
          ],
          [
            -175.022,
            52.022
          ],
          [
            -175.115,
            52.022
          ],
          [
            -175.12,
            52.047
          ],
          [
            -175.336,
            52.014
          ],
          [
            -175.089,
            51.997
          ],
          [
            -174.894,
            52.039
          ],
          [
            -174.72,
            52.002
          ],
          [
            -174.702,
            52.051
          ],
          [
            -174.648,
            52.022
          ],
          [
            -174.545,
            52.029
          ],
          [
            -174.548,
            52.059
          ],
          [
            -174.485,
            52.035
          ],
          [
            -174.521,
            52.091
          ],
          [
            -174.414,
            52.037
          ],
          [
            -174.375,
            52.098
          ],
          [
            -174.432,
            52.107
          ],
          [
            -174.311,
            52.121
          ],
          [
            -174.217,
            52.089
          ],
          [
            -174.222,
            52.118
          ],
          [
            -174.15,
            52.125
          ],
          [
            -174.099,
            52.104
          ],
          [
            -174.09,
            52.131
          ],
          [
            -174.197,
            52.218
          ],
          [
            -174.053,
            52.231
          ],
          [
            -173.992,
            52.296
          ],
          [
            -174.008,
            52.356
          ],
          [
            -174.159,
            52.419
          ],
          [
            -174.283,
            52.375
          ]
        ],
        [
          [
            -172.438,
            52.392
          ],
          [
            -172.57,
            52.34
          ],
          [
            -172.628,
            52.258
          ],
          [
            -172.521,
            52.243
          ],
          [
            -172.297,
            52.322
          ],
          [
            -172.438,
            52.392
          ]
        ],
        [
          [
            -173.532,
            52.149
          ],
          [
            -173.756,
            52.125
          ],
          [
            -173.806,
            52.089
          ],
          [
            -173.845,
            52.12
          ],
          [
            -173.896,
            52.11
          ],
          [
            -173.887,
            52.134
          ],
          [
            -174.057,
            52.12
          ],
          [
            -173.924,
            52.086
          ],
          [
            -173.923,
            52.052
          ],
          [
            -173.827,
            52.035
          ],
          [
            -173.684,
            52.063
          ],
          [
            -173.495,
            52.015
          ],
          [
            -173.28,
            52.067
          ],
          [
            -172.956,
            52.086
          ],
          [
            -173.508,
            52.105
          ],
          [
            -173.542,
            52.117
          ],
          [
            -173.532,
            52.149
          ]
        ],
        [
          [
            -176.04,
            51.997
          ],
          [
            -175.961,
            52.026
          ],
          [
            -176.001,
            52.032
          ],
          [
            -176.046,
            52.102
          ],
          [
            -176.138,
            52.108
          ],
          [
            -176.191,
            52.06
          ],
          [
            -176.166,
            51.993
          ],
          [
            -176.055,
            51.962
          ],
          [
            -176.016,
            51.972
          ],
          [
            -176.04,
            51.997
          ]
        ],
        [
          [
            -176.564,
            51.986
          ],
          [
            -176.777,
            51.942
          ],
          [
            -176.773,
            51.897
          ],
          [
            -176.701,
            51.853
          ],
          [
            -176.779,
            51.825
          ],
          [
            -176.702,
            51.783
          ],
          [
            -176.905,
            51.806
          ],
          [
            -176.893,
            51.766
          ],
          [
            -176.816,
            51.77
          ],
          [
            -176.972,
            51.658
          ],
          [
            -176.975,
            51.596
          ],
          [
            -176.925,
            51.588
          ],
          [
            -176.826,
            51.714
          ],
          [
            -176.798,
            51.604
          ],
          [
            -176.746,
            51.634
          ],
          [
            -176.71,
            51.616
          ],
          [
            -176.708,
            51.679
          ],
          [
            -176.575,
            51.686
          ],
          [
            -176.507,
            51.753
          ],
          [
            -176.467,
            51.719
          ],
          [
            -176.425,
            51.734
          ],
          [
            -176.426,
            51.836
          ],
          [
            -176.504,
            51.816
          ],
          [
            -176.642,
            51.857
          ],
          [
            -176.606,
            51.903
          ],
          [
            -176.546,
            51.91
          ],
          [
            -176.564,
            51.986
          ]
        ],
        [
          [
            -176.319,
            51.867
          ],
          [
            -176.418,
            51.85
          ],
          [
            -176.387,
            51.821
          ],
          [
            -176.41,
            51.811
          ],
          [
            -176.386,
            51.729
          ],
          [
            -176.336,
            51.722
          ],
          [
            -176.256,
            51.771
          ],
          [
            -176.276,
            51.818
          ],
          [
            -176.351,
            51.826
          ],
          [
            -176.279,
            51.845
          ],
          [
            -176.319,
            51.867
          ]
        ],
        [
          [
            -177.913,
            51.641
          ],
          [
            -177.879,
            51.685
          ],
          [
            -177.842,
            51.668
          ],
          [
            -177.803,
            51.699
          ],
          [
            -177.811,
            51.738
          ],
          [
            -177.771,
            51.768
          ],
          [
            -177.797,
            51.789
          ],
          [
            -177.655,
            51.811
          ],
          [
            -177.62,
            51.852
          ],
          [
            -177.834,
            51.832
          ],
          [
            -177.946,
            51.919
          ],
          [
            -178.148,
            51.911
          ],
          [
            -178.215,
            51.877
          ],
          [
            -177.955,
            51.765
          ],
          [
            -177.958,
            51.719
          ],
          [
            -178.091,
            51.699
          ],
          [
            -178.101,
            51.665
          ],
          [
            -177.962,
            51.641
          ],
          [
            -177.946,
            51.602
          ],
          [
            -177.899,
            51.594
          ],
          [
            -177.913,
            51.641
          ]
        ],
        [
          [
            -177.198,
            51.864
          ],
          [
            -177.203,
            51.817
          ],
          [
            -177.243,
            51.793
          ],
          [
            -177.525,
            51.716
          ],
          [
            -177.636,
            51.734
          ],
          [
            -177.704,
            51.701
          ],
          [
            -177.642,
            51.649
          ],
          [
            -177.621,
            51.696
          ],
          [
            -177.426,
            51.725
          ],
          [
            -177.271,
            51.672
          ],
          [
            -177.154,
            51.699
          ],
          [
            -177.128,
            51.724
          ],
          [
            -177.131,
            51.831
          ],
          [
            -177.044,
            51.895
          ],
          [
            -177.175,
            51.935
          ],
          [
            -177.198,
            51.864
          ]
        ],
        [
          [
            -187.241,
            53.01
          ],
          [
            -187.357,
            53.001
          ],
          [
            -187.524,
            52.924
          ],
          [
            -187.346,
            52.923
          ],
          [
            -187.372,
            52.862
          ],
          [
            -187.197,
            52.891
          ],
          [
            -187.239,
            52.794
          ],
          [
            -187.109,
            52.792
          ],
          [
            -187.081,
            52.744
          ],
          [
            -186.915,
            52.829
          ],
          [
            -186.862,
            52.778
          ],
          [
            -186.769,
            52.849
          ],
          [
            -186.673,
            52.802
          ],
          [
            -186.566,
            52.829
          ],
          [
            -186.563,
            52.852
          ],
          [
            -186.731,
            52.866
          ],
          [
            -186.677,
            52.908
          ],
          [
            -186.742,
            52.941
          ],
          [
            -186.854,
            52.922
          ],
          [
            -186.816,
            52.961
          ],
          [
            -186.86,
            52.99
          ],
          [
            -187.034,
            52.974
          ],
          [
            -187.241,
            53.01
          ]
        ],
        [
          [
            -186.233,
            52.508
          ],
          [
            -186.369,
            52.504
          ],
          [
            -186.471,
            52.438
          ],
          [
            -186.546,
            52.451
          ],
          [
            -186.625,
            52.399
          ],
          [
            -186.371,
            52.392
          ],
          [
            -186.34,
            52.349
          ],
          [
            -186.264,
            52.353
          ],
          [
            -186.292,
            52.441
          ],
          [
            -186.212,
            52.501
          ],
          [
            -186.233,
            52.508
          ]
        ],
        [
          [
            -182.492,
            51.991
          ],
          [
            -182.633,
            51.97
          ],
          [
            -182.773,
            51.878
          ],
          [
            -182.681,
            51.821
          ],
          [
            -182.658,
            51.886
          ],
          [
            -182.6,
            51.926
          ],
          [
            -182.395,
            51.92
          ],
          [
            -182.384,
            51.951
          ],
          [
            -182.451,
            51.969
          ],
          [
            -182.355,
            52.038
          ],
          [
            -182.32,
            52.104
          ],
          [
            -182.431,
            52.113
          ],
          [
            -182.492,
            51.991
          ]
        ],
        [
          [
            -180.451,
            51.991
          ],
          [
            -180.512,
            51.976
          ],
          [
            -180.5,
            51.914
          ],
          [
            -180.36,
            51.867
          ],
          [
            -180.263,
            51.903
          ],
          [
            -180.223,
            51.954
          ],
          [
            -180.368,
            52.029
          ],
          [
            -180.451,
            51.991
          ]
        ],
        [
          [
            -181.281,
            51.582
          ],
          [
            -181.04,
            51.54
          ],
          [
            -180.928,
            51.45
          ],
          [
            -180.755,
            51.384
          ],
          [
            -180.771,
            51.36
          ],
          [
            -180.748,
            51.347
          ],
          [
            -180.527,
            51.373
          ],
          [
            -180.593,
            51.407
          ],
          [
            -180.72,
            51.393
          ],
          [
            -180.705,
            51.416
          ],
          [
            -180.753,
            51.407
          ],
          [
            -180.803,
            51.466
          ],
          [
            -180.883,
            51.479
          ],
          [
            -181.113,
            51.618
          ],
          [
            -181.327,
            51.657
          ],
          [
            -181.364,
            51.638
          ],
          [
            -181.281,
            51.582
          ]
        ]
      ]
    ]
  }
}