{
  "type": "Feature",
  "properties": {
    "article_id": "KUR-2025",
    "unit_id": "LME_049",
    "geometry_method": "reported/inferred bounding box shown against the target polygon"
  },
  "geometry": {
    "type": "Polygon",
    "coordinates": [
      [
        [
          148,
          35
        ],
        [
          164,
          35
        ],
        [
          164,
          45
        ],
        [
          148,
          45
        ],
        [
          148,
          35
        ]
      ]
    ]
  }
}