{
  "type": "Feature",
  "properties": {
    "article_id": "BEN-2020",
    "unit_id": "LME_029",
    "geometry_method": "reported/inferred bounding box shown against the target polygon"
  },
  "geometry": {
    "type": "Polygon",
    "coordinates": [
      [
        [
          14,
          -37
        ],
        [
          28,
          -37
        ],
        [
          28,
          -29
        ],
        [
          14,
          -29
        ],
        [
          14,
          -37
        ]
      ]
    ]
  }
}