{
  "type": "Feature",
  "properties": {
    "article_id": "BEN-2007",
    "unit_id": "LME_029",
    "geometry_method": "reported/inferred bounding box shown against the target polygon"
  },
  "geometry": {
    "type": "Polygon",
    "coordinates": [
      [
        [
          11,
          -29
        ],
        [
          17,
          -29
        ],
        [
          17,
          -15.001
        ],
        [
          11,
          -15.001
        ],
        [
          11,
          -29
        ]
      ]
    ]
  }
}