{
  "type": "Feature",
  "properties": {
    "article_id": "ICE-2018",
    "unit_id": "LME_059",
    "geometry_method": "target polygon used as intended model envelope"
  },
  "geometry": {
    "type": "MultiPolygon",
    "coordinates": [
      [
        [
          [
            -23.393,
            66.095
          ],
          [
            -23.532883720930226,
            66.12763953488373
          ],
          [
            -23.53,
            66.128
          ],
          [
            -23.393,
            66.095
          ]
        ]
      ],
      [
        [
          [
            -22.670315950920237,
            66.35034130879346
          ],
          [
            -22.666,
            66.356
          ],
          [
            -22.61,
            66.367
          ],
          [
            -22.670315950920237,
            66.35034130879346
          ]
        ]
      ],
      [
        [
          [
            -10.443,
            62.026
          ],
          [
            -13.599,
            63.888
          ],
          [
            -18.565,
            62.918
          ],
          [
            -24.718,
            63.106
          ],
          [
            -28.312,
            64.554
          ],
          [
            -30.077,
            64.777
          ],
          [
            -18.01,
            69.009
          ],
          [
            -14.013,
            71.489
          ],
          [
            -7.952,
            70.019
          ],
          [
            -7.74,
            63.013
          ],
          [
            -8.849,
            63.001
          ],
          [
            -10.443,
            62.026
          ]
        ],
        [
          [
            -16.356,
            66.512
          ],
          [
            -16.413,
            66.48
          ],
          [
            -16.431,
            66.517
          ],
          [
            -16.511,
            66.483
          ],
          [
            -16.528,
            66.508
          ],
          [
            -16.564,
            66.495
          ],
          [
            -16.577,
            66.475
          ],
          [
            -16.509,
            66.423
          ],
          [
            -16.515,
            66.36
          ],
          [
            -16.416,
            66.275
          ],
          [
            -16.489,
            66.191
          ],
          [
            -16.428,
            66.143
          ],
          [
            -16.52,
            66.183
          ],
          [
            -16.626,
            66.165
          ],
          [
            -16.509,
            66.198
          ],
          [
            -16.689,
            66.159
          ],
          [
            -16.595,
            66.091
          ],
          [
            -16.701,
            66.139
          ],
          [
            -16.746,
            66.109
          ],
          [
            -16.781,
            66.131
          ],
          [
            -16.724,
            66.146
          ],
          [
            -16.934,
            66.11
          ],
          [
            -16.969,
            66.186
          ],
          [
            -17.144,
            66.214
          ],
          [
            -17.233,
            66.19
          ],
          [
            -17.271,
            66.161
          ],
          [
            -17.259,
            66.127
          ],
          [
            -17.356,
            66.098
          ],
          [
            -17.412,
            65.958
          ],
          [
            -17.438,
            65.996
          ],
          [
            -17.609,
            65.987
          ],
          [
            -17.496,
            65.982
          ],
          [
            -17.574,
            65.968
          ],
          [
            -17.541,
            65.913
          ],
          [
            -17.689,
            66.041
          ],
          [
            -17.913,
            66.146
          ],
          [
            -18.299,
            66.175
          ],
          [
            -18.333,
            66.148
          ],
          [
            -18.293,
            66.012
          ],
          [
            -18.219,
            65.959
          ],
          [
            -18.221,
            65.929
          ],
          [
            -18.145,
            65.923
          ],
          [
            -18.069,
            65.846
          ],
          [
            -18.109,
            65.728
          ],
          [
            -18.05,
            65.672
          ],
          [
            -18.069,
            65.643
          ],
          [
            -18.095,
            65.693
          ],
          [
            -18.181,
            65.736
          ],
          [
            -18.207,
            65.861
          ],
          [
            -18.264,
            65.869
          ],
          [
            -18.336,
            65.943
          ],
          [
            -18.536,
            65.97
          ],
          [
            -18.519,
            66.024
          ],
          [
            -18.548,
            66.082
          ],
          [
            -18.662,
            66.087
          ],
          [
            -18.618,
            66.121
          ],
          [
            -18.683,
            66.165
          ],
          [
            -18.803,
            66.136
          ],
          [
            -18.791,
            66.193
          ],
          [
            -18.866,
            66.2
          ],
          [
            -18.906,
            66.146
          ],
          [
            -18.929,
            66.19
          ],
          [
            -19.07,
            66.16
          ],
          [
            -19.108,
            66.107
          ],
          [
            -19.055,
            66.067
          ],
          [
            -19.145,
            66.099
          ],
          [
            -19.173,
            66.074
          ],
          [
            -19.38,
            66.082
          ],
          [
            -19.453,
            66.056
          ],
          [
            -19.418,
            65.999
          ],
          [
            -19.513,
            65.952
          ],
          [
            -19.451,
            65.922
          ],
          [
            -19.39,
            65.833
          ],
          [
            -19.452,
            65.726
          ],
          [
            -19.441,
            65.746
          ],
          [
            -19.529,
            65.763
          ],
          [
            -19.559,
            65.733
          ],
          [
            -19.636,
            65.747
          ],
          [
            -19.7,
            65.862
          ],
          [
            -19.869,
            65.892
          ],
          [
            -20.095,
            66.125
          ],
          [
            -20.421,
            66.086
          ],
          [
            -20.447,
            66.024
          ],
          [
            -20.311,
            65.86
          ],
          [
            -20.336,
            65.819
          ],
          [
            -20.276,
            65.778
          ],
          [
            -20.263,
            65.724
          ],
          [
            -20.309,
            65.677
          ],
          [
            -20.273,
            65.66
          ],
          [
            -20.378,
            65.592
          ],
          [
            -20.39,
            65.525
          ],
          [
            -20.405,
            65.591
          ],
          [
            -20.527,
            65.57
          ],
          [
            -20.431,
            65.543
          ],
          [
            -20.474,
            65.488
          ],
          [
            -20.582,
            65.531
          ],
          [
            -20.574,
            65.579
          ],
          [
            -20.62,
            65.583
          ],
          [
            -20.614,
            65.548
          ],
          [
            -20.644,
            65.543
          ],
          [
            -20.623,
            65.668
          ],
          [
            -20.664,
            65.691
          ],
          [
            -20.927,
            65.589
          ],
          [
            -20.989,
            65.468
          ],
          [
            -20.909,
            65.343
          ],
          [
            -20.96,
            65.349
          ],
          [
            -21.044,
            65.445
          ],
          [
            -21.095,
            65.452
          ],
          [
            -21.069,
            65.331
          ],
          [
            -21.116,
            65.262
          ],
          [
            -21.067,
            65.186
          ],
          [
            -21.084,
            65.159
          ],
          [
            -21.196,
            65.297
          ],
          [
            -21.205,
            65.436
          ],
          [
            -21.291,
            65.48
          ],
          [
            -21.478,
            65.441
          ],
          [
            -21.308,
            65.524
          ],
          [
            -21.309,
            65.597
          ],
          [
            -21.482,
            65.558
          ],
          [
            -21.4,
            65.63
          ],
          [
            -21.648,
            65.651
          ],
          [
            -21.686,
            65.691
          ],
          [
            -21.668,
            65.72
          ],
          [
            -21.778,
            65.766
          ],
          [
            -21.67,
            65.761
          ],
          [
            -21.589,
            65.688
          ],
          [
            -21.444,
            65.686
          ],
          [
            -21.338,
            65.733
          ],
          [
            -21.479,
            65.762
          ],
          [
            -21.293,
            65.833
          ],
          [
            -21.278,
            65.86
          ],
          [
            -21.324,
            65.873
          ],
          [
            -21.278,
            65.891
          ],
          [
            -21.289,
            65.925
          ],
          [
            -21.438,
            65.933
          ],
          [
            -21.393,
            65.96
          ],
          [
            -21.603,
            65.953
          ],
          [
            -21.321,
            65.986
          ],
          [
            -21.342,
            66.015
          ],
          [
            -21.534,
            66.021
          ],
          [
            -21.555,
            66.052
          ],
          [
            -21.509,
            66.057
          ],
          [
            -21.55,
            66.093
          ],
          [
            -21.637,
            66.084
          ],
          [
            -21.615,
            66.044
          ],
          [
            -21.669,
            66.02
          ],
          [
            -21.637,
            66.055
          ],
          [
            -21.721,
            66.072
          ],
          [
            -21.75,
            66.184
          ],
          [
            -21.985,
            66.205
          ],
          [
            -21.922,
            66.235
          ],
          [
            -21.97,
            66.273
          ],
          [
            -22.225,
            66.268
          ],
          [
            -22.236,
            66.317
          ],
          [
            -22.204,
            66.335
          ],
          [
            -22.358,
            66.393
          ],
          [
            -22.434,
            66.464
          ],
          [
            -22.464,
            66.463
          ],
          [
            -22.426,
            66.446
          ],
          [
            -22.433,
            66.421
          ],
          [
            -22.572,
            66.462
          ],
          [
            -22.666,
            66.418
          ],
          [
            -22.938,
            66.466
          ],
          [
            -22.858,
            66.423
          ],
          [
            -23.12,
            66.436
          ],
          [
            -23.024,
            66.389
          ],
          [
            -23.034,
            66.366
          ],
          [
            -23.189,
            66.35
          ],
          [
            -22.938,
            66.299
          ],
          [
            -22.803,
            66.362
          ],
          [
            -22.835,
            66.336
          ],
          [
            -22.82,
            66.309
          ],
          [
            -22.670315950920237,
            66.35034130879346
          ],
          [
            -22.711,
            66.297
          ],
          [
            -22.597,
            66.286
          ],
          [
            -22.504,
            66.329
          ],
          [
            -22.468,
            66.309
          ],
          [
            -22.566,
            66.274
          ],
          [
            -22.367,
            66.274
          ],
          [
            -22.557,
            66.247
          ],
          [
            -22.547,
            66.217
          ],
          [
            -22.743,
            66.261
          ],
          [
            -22.989,
            66.227
          ],
          [
            -22.834,
            66.146
          ],
          [
            -22.503,
            66.077
          ],
          [
            -22.383,
            66.091
          ],
          [
            -22.486,
            66.031
          ],
          [
            -22.413,
            65.99
          ],
          [
            -22.359,
            65.908
          ],
          [
            -22.464,
            65.832
          ],
          [
            -22.42,
            65.921
          ],
          [
            -22.45,
            65.899
          ],
          [
            -22.458,
            65.942
          ],
          [
            -22.531,
            65.972
          ],
          [
            -22.646,
            65.826
          ],
          [
            -22.569,
            65.973
          ],
          [
            -22.68,
            66.055
          ],
          [
            -22.761,
            66.054
          ],
          [
            -22.824,
            65.91
          ],
          [
            -22.819,
            66.0
          ],
          [
            -22.939,
            65.941
          ],
          [
            -22.843,
            66.015
          ],
          [
            -22.898,
            66.007
          ],
          [
            -22.923,
            66.046
          ],
          [
            -23.059,
            65.966
          ],
          [
            -22.981,
            66.023
          ],
          [
            -22.979,
            66.075
          ],
          [
            -23.026,
            66.103
          ],
          [
            -23.108,
            66.076
          ],
          [
            -23.16,
            66.145
          ],
          [
            -23.474,
            66.199
          ],
          [
            -23.603,
            66.144
          ],
          [
            -23.532883720930226,
            66.12763953488373
          ],
          [
            -23.666,
            66.111
          ],
          [
            -23.426,
            66.032
          ],
          [
            -23.371,
            65.987
          ],
          [
            -23.431,
            66.022
          ],
          [
            -23.767,
            66.071
          ],
          [
            -23.819,
            66.013
          ],
          [
            -23.586,
            65.905
          ],
          [
            -23.213,
            65.837
          ],
          [
            -23.595,
            65.869
          ],
          [
            -23.793,
            65.919
          ],
          [
            -23.845,
            65.91
          ],
          [
            -23.873,
            65.867
          ],
          [
            -23.772,
            65.787
          ],
          [
            -23.598,
            65.756
          ],
          [
            -23.192,
            65.776
          ],
          [
            -23.252,
            65.757
          ],
          [
            -23.233,
            65.739
          ],
          [
            -23.539,
            65.716
          ],
          [
            -23.453,
            65.672
          ],
          [
            -23.289,
            65.671
          ],
          [
            -23.57,
            65.607
          ],
          [
            -23.558,
            65.659
          ],
          [
            -23.62,
            65.7
          ],
          [
            -24.101,
            65.807
          ],
          [
            -24.133,
            65.783
          ],
          [
            -24.073,
            65.699
          ],
          [
            -23.803,
            65.608
          ],
          [
            -24.084,
            65.647
          ],
          [
            -24.068,
            65.629
          ],
          [
            -23.886,
            65.535
          ],
          [
            -23.806,
            65.531
          ],
          [
            -23.892,
            65.518
          ],
          [
            -24.318,
            65.637
          ],
          [
            -24.375,
            65.603
          ],
          [
            -24.376,
            65.559
          ],
          [
            -24.542,
            65.498
          ],
          [
            -24.204,
            65.501
          ],
          [
            -23.961,
            65.464
          ],
          [
            -24.003,
            65.448
          ],
          [
            -23.981,
            65.416
          ],
          [
            -23.879,
            65.402
          ],
          [
            -23.723,
            65.417
          ],
          [
            -23.652,
            65.468
          ],
          [
            -23.498,
            65.473
          ],
          [
            -23.406,
            65.517
          ],
          [
            -23.229,
            65.483
          ],
          [
            -23.185,
            65.514
          ],
          [
            -23.205,
            65.537
          ],
          [
            -23.178,
            65.577
          ],
          [
            -23.15,
            65.548
          ],
          [
            -23.017,
            65.539
          ],
          [
            -22.964,
            65.555
          ],
          [
            -22.951,
            65.607
          ],
          [
            -22.913,
            65.565
          ],
          [
            -22.851,
            65.613
          ],
          [
            -22.798,
            65.599
          ],
          [
            -22.887,
            65.541
          ],
          [
            -22.726,
            65.499
          ],
          [
            -22.763,
            65.626
          ],
          [
            -22.686,
            65.626
          ],
          [
            -22.714,
            65.574
          ],
          [
            -22.653,
            65.524
          ],
          [
            -22.62,
            65.562
          ],
          [
            -22.59,
            65.531
          ],
          [
            -22.559,
            65.543
          ],
          [
            -22.536,
            65.572
          ],
          [
            -22.556,
            65.63
          ],
          [
            -22.499,
            65.566
          ],
          [
            -22.495,
            65.504
          ],
          [
            -22.305,
            65.562
          ],
          [
            -22.344,
            65.527
          ],
          [
            -22.259,
            65.526
          ],
          [
            -22.109,
            65.595
          ],
          [
            -22.159,
            65.542
          ],
          [
            -22.387,
            65.489
          ],
          [
            -22.23,
            65.425
          ],
          [
            -22.115,
            65.483
          ],
          [
            -22.108,
            65.525
          ],
          [
            -22.072,
            65.478
          ],
          [
            -21.993,
            65.501
          ],
          [
            -21.939,
            65.463
          ],
          [
            -21.975,
            65.436
          ],
          [
            -21.699,
            65.449
          ],
          [
            -22.337,
            65.296
          ],
          [
            -22.555,
            65.187
          ],
          [
            -22.458,
            65.178
          ],
          [
            -22.561,
            65.171
          ],
          [
            -22.071,
            65.105
          ],
          [
            -21.872,
            65.157
          ],
          [
            -21.823,
            65.2
          ],
          [
            -21.742,
            65.202
          ],
          [
            -21.729,
            65.157
          ],
          [
            -21.845,
            65.072
          ],
          [
            -21.791,
            65.055
          ],
          [
            -21.82,
            65.028
          ],
          [
            -22.529,
            65.051
          ],
          [
            -22.616,
            65.021
          ],
          [
            -22.584,
            64.974
          ],
          [
            -22.69,
            65.029
          ],
          [
            -22.749,
            65.023
          ],
          [
            -22.694,
            65.046
          ],
          [
            -22.724,
            65.076
          ],
          [
            -22.874,
            65.031
          ],
          [
            -22.789,
            65.025
          ],
          [
            -22.936,
            64.987
          ],
          [
            -23.033,
            65.006
          ],
          [
            -23.112,
            64.959
          ],
          [
            -23.11,
            64.918
          ],
          [
            -23.16,
            64.952
          ],
          [
            -23.084,
            65.005
          ],
          [
            -23.19,
            65.016
          ],
          [
            -23.239,
            64.991
          ],
          [
            -23.221,
            64.947
          ],
          [
            -23.254,
            64.922
          ],
          [
            -23.363,
            64.966
          ],
          [
            -23.649,
            64.892
          ],
          [
            -23.834,
            64.927
          ],
          [
            -24.06,
            64.891
          ],
          [
            -23.944,
            64.753
          ],
          [
            -23.84,
            64.726
          ],
          [
            -23.664,
            64.738
          ],
          [
            -23.632,
            64.787
          ],
          [
            -23.557,
            64.816
          ],
          [
            -23.454,
            64.79
          ],
          [
            -23.283,
            64.826
          ],
          [
            -22.729,
            64.77
          ],
          [
            -22.777,
            64.797
          ],
          [
            -22.691,
            64.804
          ],
          [
            -22.638,
            64.78
          ],
          [
            -22.684,
            64.772
          ],
          [
            -22.654,
            64.762
          ],
          [
            -22.409,
            64.819
          ],
          [
            -22.432,
            64.762
          ],
          [
            -22.322,
            64.747
          ],
          [
            -22.41,
            64.669
          ],
          [
            -22.19,
            64.734
          ],
          [
            -22.327,
            64.689
          ],
          [
            -22.349,
            64.642
          ],
          [
            -22.441,
            64.66
          ],
          [
            -22.345,
            64.611
          ],
          [
            -22.348,
            64.555
          ],
          [
            -22.244,
            64.572
          ],
          [
            -22.259,
            64.551
          ],
          [
            -22.22,
            64.524
          ],
          [
            -22.254,
            64.486
          ],
          [
            -22.171,
            64.454
          ],
          [
            -22.084,
            64.472
          ],
          [
            -22.028,
            64.568
          ],
          [
            -22.021,
            64.521
          ],
          [
            -21.779,
            64.587
          ],
          [
            -21.67,
            64.659
          ],
          [
            -21.701,
            64.628
          ],
          [
            -21.599,
            64.657
          ],
          [
            -21.508,
            64.646
          ],
          [
            -21.681,
            64.615
          ],
          [
            -21.584,
            64.614
          ],
          [
            -21.619,
            64.596
          ],
          [
            -21.497,
            64.566
          ],
          [
            -21.702,
            64.608
          ],
          [
            -21.82,
            64.553
          ],
          [
            -21.778,
            64.539
          ],
          [
            -21.979,
            64.501
          ],
          [
            -22.041,
            64.396
          ],
          [
            -21.996,
            64.374
          ],
          [
            -21.861,
            64.387
          ],
          [
            -22.103,
            64.314
          ],
          [
            -21.939,
            64.304
          ],
          [
            -21.678,
            64.401
          ],
          [
            -21.448,
            64.391
          ],
          [
            -21.468,
            64.369
          ],
          [
            -21.363,
            64.385
          ],
          [
            -21.461,
            64.356
          ],
          [
            -21.583,
            64.382
          ],
          [
            -21.689,
            64.355
          ],
          [
            -21.649,
            64.343
          ],
          [
            -21.759,
            64.34
          ],
          [
            -21.926,
            64.229
          ],
          [
            -21.722,
            64.214
          ],
          [
            -21.763,
            64.178
          ],
          [
            -21.699,
            64.179
          ],
          [
            -21.815,
            64.171
          ],
          [
            -21.823,
            64.144
          ],
          [
            -21.788,
            64.137
          ],
          [
            -21.814,
            64.131
          ],
          [
            -22.037,
            64.158
          ],
          [
            -21.915,
            64.107
          ],
          [
            -22.043,
            64.106
          ],
          [
            -21.964,
            64.079
          ],
          [
            -22.046,
            64.047
          ],
          [
            -22.368,
            64.012
          ],
          [
            -22.396,
            63.975
          ],
          [
            -22.541,
            63.976
          ],
          [
            -22.59,
            64.044
          ],
          [
            -22.703,
            64.081
          ],
          [
            -22.739,
            63.978
          ],
          [
            -22.631,
            63.948
          ],
          [
            -22.687,
            63.938
          ],
          [
            -22.726,
            63.89
          ],
          [
            -22.694,
            63.869
          ],
          [
            -22.719,
            63.826
          ],
          [
            -22.689,
            63.806
          ],
          [
            -22.326,
            63.861
          ],
          [
            -22.047,
            63.835
          ],
          [
            -21.804,
            63.873
          ],
          [
            -21.619,
            63.824
          ],
          [
            -21.207,
            63.886
          ],
          [
            -21.3,
            63.918
          ],
          [
            -21.257,
            63.943
          ],
          [
            -21.054,
            63.945
          ],
          [
            -21.189,
            63.929
          ],
          [
            -21.184,
            63.881
          ],
          [
            -20.82,
            63.779
          ],
          [
            -20.832,
            63.796
          ],
          [
            -20.746,
            63.799
          ],
          [
            -20.692,
            63.838
          ],
          [
            -20.722,
            63.866
          ],
          [
            -20.701,
            63.868
          ],
          [
            -20.669,
            63.818
          ],
          [
            -20.715,
            63.78
          ],
          [
            -20.602,
            63.765
          ],
          [
            -20.774,
            63.77
          ],
          [
            -20.57,
            63.706
          ],
          [
            -20.565,
            63.748
          ],
          [
            -20.414,
            63.837
          ],
          [
            -20.443,
            63.783
          ],
          [
            -20.311,
            63.73
          ],
          [
            -20.477,
            63.768
          ],
          [
            -20.543,
            63.746
          ],
          [
            -20.554,
            63.708
          ],
          [
            -20.436,
            63.641
          ],
          [
            -20.504,
            63.699
          ],
          [
            -20.467,
            63.708
          ],
          [
            -20.371,
            63.632
          ],
          [
            -20.402,
            63.625
          ],
          [
            -20.332,
            63.631
          ],
          [
            -20.293,
            63.603
          ],
          [
            -20.35,
            63.603
          ],
          [
            -20.171,
            63.536
          ],
          [
            -19.724,
            63.547
          ],
          [
            -19.742,
            63.529
          ],
          [
            -19.255,
            63.429
          ],
          [
            -18.775,
            63.391
          ],
          [
            -18.158,
            63.466
          ],
          [
            -18.265,
            63.461
          ],
          [
            -18.315,
            63.545
          ],
          [
            -18.119,
            63.533
          ],
          [
            -18.223,
            63.494
          ],
          [
            -18.213,
            63.468
          ],
          [
            -17.933,
            63.528
          ],
          [
            -17.859,
            63.603
          ],
          [
            -17.965,
            63.622
          ],
          [
            -17.841,
            63.629
          ],
          [
            -17.796,
            63.668
          ],
          [
            -17.973,
            63.669
          ],
          [
            -17.9,
            63.681
          ],
          [
            -17.87,
            63.732
          ],
          [
            -17.794,
            63.738
          ],
          [
            -17.815,
            63.75
          ],
          [
            -17.723,
            63.747
          ],
          [
            -17.717,
            63.774
          ],
          [
            -17.623,
            63.749
          ],
          [
            -17.716,
            63.704
          ],
          [
            -17.55,
            63.781
          ],
          [
            -17.562,
            63.75
          ],
          [
            -17.209,
            63.809
          ],
          [
            -16.999,
            63.791
          ],
          [
            -17.028,
            63.85
          ],
          [
            -16.971,
            63.861
          ],
          [
            -16.967,
            63.917
          ],
          [
            -16.941,
            63.891
          ],
          [
            -16.967,
            63.785
          ],
          [
            -16.928,
            63.785
          ],
          [
            -16.926,
            63.864
          ],
          [
            -16.911,
            63.797
          ],
          [
            -16.885,
            63.865
          ],
          [
            -16.787,
            63.8
          ],
          [
            -16.782,
            63.842
          ],
          [
            -16.75,
            63.844
          ],
          [
            -16.783,
            63.859
          ],
          [
            -16.721,
            63.846
          ],
          [
            -16.453,
            63.908
          ],
          [
            -16.303,
            64.0
          ],
          [
            -16.344,
            63.999
          ],
          [
            -15.983,
            64.122
          ],
          [
            -16.016,
            64.133
          ],
          [
            -15.384,
            64.277
          ],
          [
            -15.379,
            64.355
          ],
          [
            -15.474,
            64.396
          ],
          [
            -15.343,
            64.348
          ],
          [
            -15.325,
            64.301
          ],
          [
            -15.278,
            64.296
          ],
          [
            -15.291,
            64.332
          ],
          [
            -15.242,
            64.29
          ],
          [
            -15.204,
            64.298
          ],
          [
            -15.221,
            64.261
          ],
          [
            -15.102,
            64.296
          ],
          [
            -15.011,
            64.258
          ],
          [
            -14.925,
            64.264
          ],
          [
            -14.878,
            64.281
          ],
          [
            -14.948,
            64.32
          ],
          [
            -14.782,
            64.37
          ],
          [
            -14.71,
            64.428
          ],
          [
            -14.568,
            64.412
          ],
          [
            -14.746,
            64.383
          ],
          [
            -14.543,
            64.403
          ],
          [
            -14.467,
            64.534
          ],
          [
            -14.341,
            64.598
          ],
          [
            -14.477,
            64.549
          ],
          [
            -14.571,
            64.566
          ],
          [
            -14.575,
            64.592
          ],
          [
            -14.403,
            64.612
          ],
          [
            -14.488,
            64.66
          ],
          [
            -14.271,
            64.657
          ],
          [
            -14.511,
            64.797
          ],
          [
            -14.433,
            64.788
          ],
          [
            -14.339,
            64.711
          ],
          [
            -14.25,
            64.689
          ],
          [
            -14.08,
            64.709
          ],
          [
            -13.989,
            64.739
          ],
          [
            -14.041,
            64.786
          ],
          [
            -13.834,
            64.8
          ],
          [
            -13.961,
            64.838
          ],
          [
            -13.827,
            64.824
          ],
          [
            -13.765,
            64.861
          ],
          [
            -14.051,
            64.934
          ],
          [
            -13.701,
            64.918
          ],
          [
            -13.923,
            65.013
          ],
          [
            -14.231,
            65.032
          ],
          [
            -13.992,
            65.043
          ],
          [
            -14.03,
            65.078
          ],
          [
            -13.853,
            65.034
          ],
          [
            -13.795,
            64.99
          ],
          [
            -13.679,
            64.982
          ],
          [
            -13.499,
            65.069
          ],
          [
            -13.526,
            65.093
          ],
          [
            -13.521,
            65.165
          ],
          [
            -13.623,
            65.099
          ],
          [
            -13.685,
            65.115
          ],
          [
            -13.659,
            65.138
          ],
          [
            -13.745,
            65.139
          ],
          [
            -13.637,
            65.158
          ],
          [
            -13.622,
            65.192
          ],
          [
            -14.035,
            65.193
          ],
          [
            -13.66,
            65.214
          ],
          [
            -13.57,
            65.259
          ],
          [
            -13.699,
            65.303
          ],
          [
            -14.005,
            65.27
          ],
          [
            -13.739,
            65.314
          ],
          [
            -13.731,
            65.337
          ],
          [
            -13.837,
            65.361
          ],
          [
            -13.678,
            65.37
          ],
          [
            -13.611,
            65.51
          ],
          [
            -13.697,
            65.55
          ],
          [
            -13.805,
            65.523
          ],
          [
            -13.815,
            65.565
          ],
          [
            -13.87,
            65.574
          ],
          [
            -13.848,
            65.587
          ],
          [
            -13.864,
            65.611
          ],
          [
            -14.0,
            65.599
          ],
          [
            -14.246,
            65.658
          ],
          [
            -14.192,
            65.631
          ],
          [
            -14.306,
            65.652
          ],
          [
            -14.564,
            65.495
          ],
          [
            -14.361,
            65.648
          ],
          [
            -14.274,
            65.669
          ],
          [
            -14.398,
            65.717
          ],
          [
            -14.337,
            65.783
          ],
          [
            -14.832,
            65.724
          ],
          [
            -14.847,
            65.74
          ],
          [
            -14.785,
            65.787
          ],
          [
            -14.892,
            65.759
          ],
          [
            -14.813,
            65.792
          ],
          [
            -14.797,
            65.832
          ],
          [
            -14.653,
            65.883
          ],
          [
            -14.605,
            65.949
          ],
          [
            -14.619,
            65.994
          ],
          [
            -14.715,
            66.064
          ],
          [
            -14.891,
            66.027
          ],
          [
            -15.09,
            66.048
          ],
          [
            -15.061,
            66.094
          ],
          [
            -15.177,
            66.108
          ],
          [
            -14.946,
            66.189
          ],
          [
            -14.937,
            66.219
          ],
          [
            -15.001,
            66.277
          ],
          [
            -14.558,
            66.382
          ],
          [
            -14.93,
            66.383
          ],
          [
            -15.099,
            66.279
          ],
          [
            -15.335,
            66.259
          ],
          [
            -15.339,
            66.179
          ],
          [
            -15.382,
            66.143
          ],
          [
            -15.568,
            66.231
          ],
          [
            -15.691,
            66.224
          ],
          [
            -15.684,
            66.265
          ],
          [
            -15.773,
            66.288
          ],
          [
            -15.682,
            66.341
          ],
          [
            -15.71,
            66.397
          ],
          [
            -15.933,
            66.418
          ],
          [
            -15.931,
            66.476
          ],
          [
            -15.894,
            66.487
          ],
          [
            -16.029,
            66.536
          ],
          [
            -16.178,
            66.534
          ],
          [
            -16.296,
            66.479
          ],
          [
            -16.356,
            66.512
          ]
        ]
      ]
    ]
  }
}