{
  "type": "Feature",
  "properties": {
    "article_id": "SCO-2004",
    "unit_id": "LME_008",
    "geometry_method": "target polygon used as intended model envelope"
  },
  "geometry": {
    "type": "MultiPolygon",
    "coordinates": [
      [
        [
          [
            -55.598,
            44.686
          ],
          [
            -55.85,
            44.728
          ],
          [
            -56.086,
            44.721
          ],
          [
            -56.139,
            44.604
          ],
          [
            -56.247,
            44.597
          ],
          [
            -56.452,
            44.501
          ],
          [
            -57.053,
            44.413
          ],
          [
            -57.228,
            44.315
          ],
          [
            -57.499,
            44.26
          ],
          [
            -57.573,
            44.196
          ],
          [
            -57.711,
            44.25
          ],
          [
            -57.801,
            44.166
          ],
          [
            -57.918,
            44.162
          ],
          [
            -58.23,
            44.032
          ],
          [
            -58.347,
            44.029
          ],
          [
            -58.434,
            43.937
          ],
          [
            -58.682,
            43.883
          ],
          [
            -58.754,
            43.833
          ],
          [
            -58.88,
            43.854
          ],
          [
            -58.95,
            43.715
          ],
          [
            -59.041,
            43.633
          ],
          [
            -59.516,
            43.586
          ],
          [
            -59.851,
            43.498
          ],
          [
            -59.891,
            43.449
          ],
          [
            -60.093,
            43.352
          ],
          [
            -60.467,
            43.309
          ],
          [
            -60.571,
            43.268
          ],
          [
            -60.804,
            43.259
          ],
          [
            -60.894,
            43.178
          ],
          [
            -61.008,
            43.167
          ],
          [
            -61.158,
            43.203
          ],
          [
            -61.553,
            43.006
          ],
          [
            -61.634,
            42.933
          ],
          [
            -61.74,
            42.9
          ],
          [
            -61.859,
            42.901
          ],
          [
            -62.185,
            42.821
          ],
          [
            -62.434,
            42.857
          ],
          [
            -62.716,
            42.806
          ],
          [
            -62.754,
            42.763
          ],
          [
            -62.887,
            42.808
          ],
          [
            -62.868,
            42.71
          ],
          [
            -62.964,
            42.691
          ],
          [
            -63.66,
            42.66
          ],
          [
            -63.986,
            42.583
          ],
          [
            -64.333,
            42.568
          ],
          [
            -64.399,
            42.497
          ],
          [
            -64.866,
            42.347
          ],
          [
            -64.901,
            42.295
          ],
          [
            -64.995,
            42.259
          ],
          [
            -65.343,
            42.461
          ],
          [
            -65.685,
            42.757
          ],
          [
            -65.869,
            42.982
          ],
          [
            -66.247,
            43.561
          ],
          [
            -66.319,
            43.73
          ],
          [
            -66.337,
            43.955
          ],
          [
            -66.267,
            44.278
          ],
          [
            -66.123,
            44.449
          ],
          [
            -65.943,
            44.578
          ],
          [
            -65.841,
            44.574
          ],
          [
            -66.119,
            44.338
          ],
          [
            -66.134,
            44.23
          ],
          [
            -66.212,
            44.095
          ],
          [
            -66.15,
            44.011
          ],
          [
            -66.168,
            43.863
          ],
          [
            -66.147,
            43.824
          ],
          [
            -66.108,
            43.841
          ],
          [
            -66.137,
            43.8
          ],
          [
            -66.123,
            43.741
          ],
          [
            -66.081,
            43.768
          ],
          [
            -66.063,
            43.716
          ],
          [
            -66.042,
            43.748
          ],
          [
            -66.026,
            43.694
          ],
          [
            -65.989,
            43.733
          ],
          [
            -65.983,
            43.698
          ],
          [
            -65.967,
            43.742
          ],
          [
            -66.005,
            43.841
          ],
          [
            -65.982,
            43.843
          ],
          [
            -65.963,
            43.775
          ],
          [
            -65.933,
            43.827
          ],
          [
            -65.866,
            43.761
          ],
          [
            -65.861,
            43.804
          ],
          [
            -65.818,
            43.63
          ],
          [
            -65.797,
            43.606
          ],
          [
            -65.78,
            43.691
          ],
          [
            -65.783,
            43.571
          ],
          [
            -65.756,
            43.549
          ],
          [
            -65.739,
            43.573
          ],
          [
            -65.726,
            43.502
          ],
          [
            -65.658,
            43.49
          ],
          [
            -65.569,
            43.57
          ],
          [
            -65.474,
            43.465
          ],
          [
            -65.487,
            43.519
          ],
          [
            -65.449,
            43.56
          ],
          [
            -65.404,
            43.503
          ],
          [
            -65.455,
            43.597
          ],
          [
            -65.339,
            43.549
          ],
          [
            -65.36,
            43.605
          ],
          [
            -65.326,
            43.675
          ],
          [
            -65.368,
            43.735
          ],
          [
            -65.338,
            43.736
          ],
          [
            -65.332,
            43.769
          ],
          [
            -65.327,
            43.697
          ],
          [
            -65.269,
            43.665
          ],
          [
            -65.224,
            43.708
          ],
          [
            -65.257,
            43.771
          ],
          [
            -65.237,
            43.799
          ],
          [
            -65.176,
            43.702
          ],
          [
            -65.134,
            43.741
          ],
          [
            -65.146,
            43.679
          ],
          [
            -65.125,
            43.671
          ],
          [
            -65.084,
            43.752
          ],
          [
            -65.074,
            43.699
          ],
          [
            -65.031,
            43.704
          ],
          [
            -65.008,
            43.747
          ],
          [
            -65.04,
            43.827
          ],
          [
            -64.965,
            43.752
          ],
          [
            -64.929,
            43.802
          ],
          [
            -64.966,
            43.873
          ],
          [
            -64.906,
            43.801
          ],
          [
            -64.881,
            43.834
          ],
          [
            -64.908,
            43.878
          ],
          [
            -64.835,
            43.825
          ],
          [
            -64.821,
            43.865
          ],
          [
            -64.786,
            43.868
          ],
          [
            -64.845,
            43.922
          ],
          [
            -64.666,
            43.99
          ],
          [
            -64.663,
            44.024
          ],
          [
            -64.716,
            44.052
          ],
          [
            -64.556,
            44.077
          ],
          [
            -64.543,
            44.116
          ],
          [
            -64.616,
            44.133
          ],
          [
            -64.604,
            44.157
          ],
          [
            -64.494,
            44.14
          ],
          [
            -64.428,
            44.228
          ],
          [
            -64.364,
            44.257
          ],
          [
            -64.359,
            44.288
          ],
          [
            -64.431,
            44.338
          ],
          [
            -64.319,
            44.265
          ],
          [
            -64.258,
            44.27
          ],
          [
            -64.239,
            44.294
          ],
          [
            -64.29,
            44.302
          ],
          [
            -64.261,
            44.324
          ],
          [
            -64.336,
            44.327
          ],
          [
            -64.346,
            44.357
          ],
          [
            -64.211,
            44.362
          ],
          [
            -64.305,
            44.376
          ],
          [
            -64.257,
            44.408
          ],
          [
            -64.331,
            44.409
          ],
          [
            -64.356,
            44.443
          ],
          [
            -64.298,
            44.464
          ],
          [
            -64.324,
            44.473
          ],
          [
            -64.296,
            44.564
          ],
          [
            -64.224,
            44.534
          ],
          [
            -64.17,
            44.586
          ],
          [
            -64.122,
            44.544
          ],
          [
            -64.122,
            44.485
          ],
          [
            -64.083,
            44.467
          ],
          [
            -64.047,
            44.519
          ],
          [
            -64.009,
            44.513
          ],
          [
            -64.064,
            44.591
          ],
          [
            -64.059,
            44.638
          ],
          [
            -63.887,
            44.691
          ],
          [
            -63.938,
            44.622
          ],
          [
            -63.932,
            44.513
          ],
          [
            -63.867,
            44.489
          ],
          [
            -63.783,
            44.527
          ],
          [
            -63.798,
            44.469
          ],
          [
            -63.764,
            44.497
          ],
          [
            -63.713,
            44.454
          ],
          [
            -63.634,
            44.474
          ],
          [
            -63.631,
            44.436
          ],
          [
            -63.6,
            44.484
          ],
          [
            -63.571,
            44.462
          ],
          [
            -63.52,
            44.508
          ],
          [
            -63.562,
            44.632
          ],
          [
            -63.641,
            44.673
          ],
          [
            -63.658,
            44.715
          ],
          [
            -63.44,
            44.591
          ],
          [
            -63.412,
            44.632
          ],
          [
            -63.451,
            44.672
          ],
          [
            -63.397,
            44.681
          ],
          [
            -63.404,
            44.642
          ],
          [
            -63.283,
            44.627
          ],
          [
            -63.24,
            44.677
          ],
          [
            -63.246,
            44.732
          ],
          [
            -63.212,
            44.674
          ],
          [
            -63.164,
            44.726
          ],
          [
            -63.143,
            44.689
          ],
          [
            -63.119,
            44.787
          ],
          [
            -63.055,
            44.673
          ],
          [
            -63.012,
            44.708
          ],
          [
            -63.056,
            44.773
          ],
          [
            -63.003,
            44.766
          ],
          [
            -62.998,
            44.704
          ],
          [
            -62.929,
            44.734
          ],
          [
            -62.834,
            44.712
          ],
          [
            -62.796,
            44.724
          ],
          [
            -62.826,
            44.744
          ],
          [
            -62.801,
            44.779
          ],
          [
            -62.654,
            44.791
          ],
          [
            -62.612,
            44.839
          ],
          [
            -62.536,
            44.799
          ],
          [
            -62.551,
            44.861
          ],
          [
            -62.515,
            44.852
          ],
          [
            -62.476,
            44.896
          ],
          [
            -62.457,
            44.83
          ],
          [
            -62.381,
            44.914
          ],
          [
            -62.339,
            44.889
          ],
          [
            -62.337,
            44.921
          ],
          [
            -62.24,
            44.958
          ],
          [
            -61.981,
            44.983
          ],
          [
            -62.051,
            45.006
          ],
          [
            -61.932,
            45.046
          ],
          [
            -61.883,
            45.024
          ],
          [
            -61.835,
            45.051
          ],
          [
            -61.859,
            45.075
          ],
          [
            -61.814,
            45.074
          ],
          [
            -61.82,
            45.104
          ],
          [
            -61.642,
            45.084
          ],
          [
            -61.672,
            45.114
          ],
          [
            -61.638,
            45.12
          ],
          [
            -61.696,
            45.178
          ],
          [
            -61.596,
            45.143
          ],
          [
            -61.459,
            45.145
          ],
          [
            -61.349,
            45.174
          ],
          [
            -61.36,
            45.21
          ],
          [
            -61.268,
            45.255
          ],
          [
            -61.204,
            45.246
          ],
          [
            -61.167,
            45.204
          ],
          [
            -61.171,
            45.255
          ],
          [
            -61.122,
            45.272
          ],
          [
            -61.152,
            45.233
          ],
          [
            -61.123,
            45.209
          ],
          [
            -61.023,
            45.256
          ],
          [
            -61.036,
            45.293
          ],
          [
            -60.97,
            45.27
          ],
          [
            -60.966,
            45.318
          ],
          [
            -61.139,
            45.349
          ],
          [
            -61.464,
            45.347
          ],
          [
            -61.462,
            45.384
          ],
          [
            -61.239,
            45.454
          ],
          [
            -61.229,
            45.502
          ],
          [
            -61.333,
            45.541
          ],
          [
            -61.471,
            45.682
          ],
          [
            -61.565,
            45.674
          ],
          [
            -61.618,
            45.611
          ],
          [
            -61.656,
            45.624
          ],
          [
            -61.632,
            45.638
          ],
          [
            -61.725,
            45.621
          ],
          [
            -61.881,
            45.687
          ],
          [
            -61.917,
            45.886
          ],
          [
            -62.25,
            45.708
          ],
          [
            -62.425,
            45.673
          ],
          [
            -62.44,
            45.655
          ],
          [
            -62.356,
            45.677
          ],
          [
            -62.486,
            45.604
          ],
          [
            -62.51,
            45.616
          ],
          [
            -62.474,
            45.656
          ],
          [
            -62.609,
            45.684
          ],
          [
            -62.675,
            45.671
          ],
          [
            -62.651,
            45.628
          ],
          [
            -62.704,
            45.652
          ],
          [
            -62.744,
            45.611
          ],
          [
            -62.743,
            45.655
          ],
          [
            -62.791,
            45.638
          ],
          [
            -62.775,
            45.671
          ],
          [
            -62.636,
            45.714
          ],
          [
            -62.754,
            45.758
          ],
          [
            -62.673,
            45.768
          ],
          [
            -63.108,
            45.809
          ],
          [
            -63.066,
            45.756
          ],
          [
            -63.19,
            45.734
          ],
          [
            -63.187,
            45.772
          ],
          [
            -63.286,
            45.721
          ],
          [
            -63.38,
            45.766
          ],
          [
            -63.229,
            45.805
          ],
          [
            -63.524,
            45.81
          ],
          [
            -63.429,
            45.824
          ],
          [
            -63.483,
            45.858
          ],
          [
            -63.404,
            45.854
          ],
          [
            -63.457,
            45.874
          ],
          [
            -63.656,
            45.872
          ],
          [
            -63.664,
            45.815
          ],
          [
            -63.682,
            45.849
          ],
          [
            -63.749,
            45.836
          ],
          [
            -63.715,
            45.863
          ],
          [
            -63.804,
            45.886
          ],
          [
            -63.869,
            45.931
          ],
          [
            -63.864,
            45.961
          ],
          [
            -64.094,
            46.022
          ],
          [
            -64.068,
            46.059
          ],
          [
            -63.919,
            46.053
          ],
          [
            -63.776,
            46.121
          ],
          [
            -63.971,
            46.181
          ],
          [
            -64.058,
            46.18
          ],
          [
            -64.082,
            46.151
          ],
          [
            -64.117,
            46.182
          ],
          [
            -64.146,
            46.157
          ],
          [
            -64.154,
            46.193
          ],
          [
            -64.254,
            46.234
          ],
          [
            -64.518,
            46.243
          ],
          [
            -64.559,
            46.22
          ],
          [
            -64.569,
            46.287
          ],
          [
            -64.517,
            46.321
          ],
          [
            -64.56,
            46.366
          ],
          [
            -64.579,
            46.328
          ],
          [
            -64.699,
            46.322
          ],
          [
            -64.632,
            46.338
          ],
          [
            -64.612,
            46.41
          ],
          [
            -64.711,
            46.48
          ],
          [
            -64.673,
            46.501
          ],
          [
            -64.724,
            46.581
          ],
          [
            -64.711,
            46.68
          ],
          [
            -64.749,
            46.703
          ],
          [
            -64.753,
            46.664
          ],
          [
            -64.817,
            46.696
          ],
          [
            -64.854,
            46.672
          ],
          [
            -64.853,
            46.705
          ],
          [
            -64.789,
            46.724
          ],
          [
            -64.873,
            46.782
          ],
          [
            -64.905,
            46.851
          ],
          [
            -64.88,
            46.931
          ],
          [
            -64.803,
            46.987
          ],
          [
            -64.826,
            47.05
          ],
          [
            -64.799,
            47.08
          ],
          [
            -64.933,
            47.084
          ],
          [
            -64.979,
            47.056
          ],
          [
            -65.025,
            47.092
          ],
          [
            -65.213,
            47.045
          ],
          [
            -65.205,
            47.088
          ],
          [
            -65.37,
            47.087
          ],
          [
            -64.966,
            47.289
          ],
          [
            -64.941,
            47.374
          ],
          [
            -64.904,
            47.393
          ],
          [
            -64.91,
            47.353
          ],
          [
            -64.881,
            47.432
          ],
          [
            -64.867,
            47.485
          ],
          [
            -64.928,
            47.451
          ],
          [
            -64.87,
            47.511
          ],
          [
            -64.901,
            47.513
          ],
          [
            -64.894,
            47.557
          ],
          [
            -64.819,
            47.608
          ],
          [
            -64.813,
            47.675
          ],
          [
            -64.677,
            47.736
          ],
          [
            -64.733,
            47.762
          ],
          [
            -64.77,
            47.707
          ],
          [
            -64.791,
            47.742
          ],
          [
            -64.847,
            47.744
          ],
          [
            -64.786,
            47.772
          ],
          [
            -64.824,
            47.811
          ],
          [
            -65.072,
            47.777
          ],
          [
            -64.977,
            47.838
          ],
          [
            -65.045,
            47.844
          ],
          [
            -65.241,
            47.807
          ],
          [
            -65.476,
            47.681
          ],
          [
            -65.607,
            47.66
          ],
          [
            -65.635,
            47.621
          ],
          [
            -65.671,
            47.652
          ],
          [
            -65.629,
            47.67
          ],
          [
            -65.794,
            47.891
          ],
          [
            -66.339,
            48.014
          ],
          [
            -66.357,
            48.073
          ],
          [
            -66.75,
            47.98
          ],
          [
            -66.844,
            47.997
          ],
          [
            -66.538,
            48.056
          ],
          [
            -66.471,
            48.119
          ],
          [
            -66.294,
            48.064
          ],
          [
            -66.268,
            48.096
          ],
          [
            -66.293,
            48.113
          ],
          [
            -66.08,
            48.096
          ],
          [
            -65.893,
            48.219
          ],
          [
            -65.892,
            48.171
          ],
          [
            -65.811,
            48.117
          ],
          [
            -65.504,
            48.049
          ],
          [
            -65.456,
            48.0
          ],
          [
            -65.197,
            48.034
          ],
          [
            -64.946,
            48.143
          ],
          [
            -64.966,
            48.185
          ],
          [
            -64.771,
            48.196
          ],
          [
            -64.694,
            48.311
          ],
          [
            -64.719,
            48.338
          ],
          [
            -64.322,
            48.417
          ],
          [
            -64.309,
            48.463
          ],
          [
            -64.213,
            48.498
          ],
          [
            -64.192,
            48.525
          ],
          [
            -64.279,
            48.554
          ],
          [
            -64.27,
            48.605
          ],
          [
            -64.162,
            48.627
          ],
          [
            -64.337,
            48.756
          ],
          [
            -64.428,
            48.774
          ],
          [
            -64.374,
            48.788
          ],
          [
            -64.401,
            48.817
          ],
          [
            -64.539,
            48.821
          ],
          [
            -64.473,
            48.832
          ],
          [
            -64.558,
            48.88
          ],
          [
            -64.299,
            48.824
          ],
          [
            -64.158,
            48.756
          ],
          [
            -64.21,
            48.817
          ],
          [
            -64.23,
            48.906
          ],
          [
            -63.357,
            48.788
          ],
          [
            -62.626,
            48.569
          ],
          [
            -62.327,
            48.561
          ],
          [
            -62.024,
            48.439
          ],
          [
            -61.598,
            48.342
          ],
          [
            -61.199,
            48.33
          ],
          [
            -60.849,
            48.263
          ],
          [
            -59.839,
            47.935
          ],
          [
            -59.453,
            47.724
          ],
          [
            -58.51,
            46.995
          ],
          [
            -58.22,
            46.813
          ],
          [
            -57.948,
            46.517
          ],
          [
            -56.92,
            45.592
          ],
          [
            -56.216,
            45.055
          ],
          [
            -56.041,
            44.973
          ],
          [
            -55.462,
            44.913
          ],
          [
            -55.504,
            44.76
          ],
          [
            -55.598,
            44.686
          ]
        ],
        [
          [
            -60.88,
            45.561
          ],
          [
            -61.024,
            45.575
          ],
          [
            -61.104,
            45.546
          ],
          [
            -61.072,
            45.502
          ],
          [
            -60.999,
            45.494
          ],
          [
            -61.021,
            45.469
          ],
          [
            -61.0,
            45.456
          ],
          [
            -60.947,
            45.534
          ],
          [
            -60.88,
            45.561
          ]
        ],
        [
          [
            -61.146,
            45.579
          ],
          [
            -61.168,
            45.551
          ],
          [
            -60.871,
            45.64
          ],
          [
            -60.854,
            45.604
          ],
          [
            -60.666,
            45.565
          ],
          [
            -60.234,
            45.701
          ],
          [
            -60.174,
            45.764
          ],
          [
            -60.074,
            45.796
          ],
          [
            -60.161,
            45.836
          ],
          [
            -60.13,
            45.868
          ],
          [
            -59.994,
            45.866
          ],
          [
            -59.973,
            45.901
          ],
          [
            -59.801,
            45.937
          ],
          [
            -59.824,
            45.997
          ],
          [
            -59.96,
            46.021
          ],
          [
            -59.81,
            46.106
          ],
          [
            -59.885,
            46.079
          ],
          [
            -59.816,
            46.166
          ],
          [
            -59.941,
            46.152
          ],
          [
            -59.951,
            46.201
          ],
          [
            -60.076,
            46.199
          ],
          [
            -60.039,
            46.224
          ],
          [
            -60.132,
            46.249
          ],
          [
            -60.194,
            46.203
          ],
          [
            -60.199,
            46.144
          ],
          [
            -60.24,
            46.174
          ],
          [
            -60.289,
            46.155
          ],
          [
            -60.203,
            46.235
          ],
          [
            -60.285,
            46.321
          ],
          [
            -60.348,
            46.311
          ],
          [
            -60.656,
            46.068
          ],
          [
            -60.548,
            46.104
          ],
          [
            -60.373,
            46.223
          ],
          [
            -60.295,
            46.232
          ],
          [
            -60.305,
            46.211
          ],
          [
            -60.785,
            45.946
          ],
          [
            -60.686,
            45.887
          ],
          [
            -60.396,
            45.996
          ],
          [
            -60.72,
            45.788
          ],
          [
            -60.749,
            45.742
          ],
          [
            -60.734,
            45.674
          ],
          [
            -60.761,
            45.691
          ],
          [
            -60.844,
            45.641
          ],
          [
            -60.798,
            45.707
          ],
          [
            -60.914,
            45.754
          ],
          [
            -61.071,
            45.69
          ],
          [
            -61.149,
            45.7
          ],
          [
            -61.109,
            45.73
          ],
          [
            -61.118,
            45.764
          ],
          [
            -60.935,
            45.825
          ],
          [
            -60.97,
            45.857
          ],
          [
            -60.916,
            45.853
          ],
          [
            -60.968,
            45.883
          ],
          [
            -61.095,
            45.85
          ],
          [
            -61.044,
            45.885
          ],
          [
            -61.066,
            45.894
          ],
          [
            -60.808,
            45.931
          ],
          [
            -60.804,
            45.979
          ],
          [
            -60.734,
            46.053
          ],
          [
            -60.876,
            46.037
          ],
          [
            -60.993,
            45.941
          ],
          [
            -61.126,
            45.924
          ],
          [
            -61.113,
            45.955
          ],
          [
            -60.975,
            45.988
          ],
          [
            -60.88,
            46.079
          ],
          [
            -60.85,
            46.079
          ],
          [
            -60.87,
            46.052
          ],
          [
            -60.646,
            46.106
          ],
          [
            -60.42,
            46.28
          ],
          [
            -60.416,
            46.328
          ],
          [
            -60.468,
            46.317
          ],
          [
            -60.614,
            46.196
          ],
          [
            -60.345,
            46.606
          ],
          [
            -60.385,
            46.636
          ],
          [
            -60.354,
            46.649
          ],
          [
            -60.396,
            46.666
          ],
          [
            -60.347,
            46.686
          ],
          [
            -60.302,
            46.837
          ],
          [
            -60.326,
            46.868
          ],
          [
            -60.445,
            46.862
          ],
          [
            -60.451,
            46.898
          ],
          [
            -60.498,
            46.897
          ],
          [
            -60.385,
            47.017
          ],
          [
            -60.489,
            46.994
          ],
          [
            -60.592,
            47.033
          ],
          [
            -60.64,
            47.0
          ],
          [
            -60.704,
            46.891
          ],
          [
            -60.892,
            46.774
          ],
          [
            -61.014,
            46.592
          ],
          [
            -61.034,
            46.629
          ],
          [
            -61.058,
            46.596
          ],
          [
            -61.033,
            46.562
          ],
          [
            -61.089,
            46.458
          ],
          [
            -61.283,
            46.239
          ],
          [
            -61.439,
            46.159
          ],
          [
            -61.483,
            46.067
          ],
          [
            -61.548,
            46.026
          ],
          [
            -61.455,
            45.706
          ],
          [
            -61.32,
            45.553
          ],
          [
            -61.269,
            45.548
          ],
          [
            -61.217,
            45.607
          ],
          [
            -61.146,
            45.579
          ]
        ],
        [
          [
            -62.459,
            46.006
          ],
          [
            -62.574,
            46.035
          ],
          [
            -62.447,
            46.091
          ],
          [
            -62.473,
            46.15
          ],
          [
            -62.514,
            46.142
          ],
          [
            -62.478,
            46.121
          ],
          [
            -62.542,
            46.122
          ],
          [
            -62.534,
            46.168
          ],
          [
            -62.604,
            46.177
          ],
          [
            -62.568,
            46.187
          ],
          [
            -62.589,
            46.206
          ],
          [
            -62.498,
            46.182
          ],
          [
            -62.585,
            46.232
          ],
          [
            -62.425,
            46.216
          ],
          [
            -62.437,
            46.252
          ],
          [
            -62.495,
            46.271
          ],
          [
            -62.374,
            46.262
          ],
          [
            -62.36,
            46.283
          ],
          [
            -62.401,
            46.307
          ],
          [
            -62.335,
            46.312
          ],
          [
            -62.358,
            46.356
          ],
          [
            -62.267,
            46.341
          ],
          [
            -62.286,
            46.377
          ],
          [
            -62.173,
            46.349
          ],
          [
            -61.965,
            46.453
          ],
          [
            -62.166,
            46.486
          ],
          [
            -62.477,
            46.478
          ],
          [
            -62.699,
            46.452
          ],
          [
            -62.588,
            46.425
          ],
          [
            -63.211,
            46.429
          ],
          [
            -63.239,
            46.4
          ],
          [
            -63.32,
            46.493
          ],
          [
            -63.458,
            46.51
          ],
          [
            -63.422,
            46.496
          ],
          [
            -63.455,
            46.462
          ],
          [
            -63.497,
            46.488
          ],
          [
            -63.491,
            46.525
          ],
          [
            -63.647,
            46.567
          ],
          [
            -63.723,
            46.544
          ],
          [
            -63.701,
            46.516
          ],
          [
            -63.74,
            46.496
          ],
          [
            -63.7,
            46.466
          ],
          [
            -63.709,
            46.437
          ],
          [
            -63.841,
            46.464
          ],
          [
            -63.812,
            46.495
          ],
          [
            -63.832,
            46.516
          ],
          [
            -63.938,
            46.477
          ],
          [
            -63.833,
            46.577
          ],
          [
            -63.832,
            46.617
          ],
          [
            -63.904,
            46.604
          ],
          [
            -63.882,
            46.646
          ],
          [
            -63.981,
            46.714
          ],
          [
            -63.975,
            46.742
          ],
          [
            -64.067,
            46.749
          ],
          [
            -64.092,
            46.779
          ],
          [
            -63.967,
            46.892
          ],
          [
            -63.999,
            47.062
          ],
          [
            -64.183,
            46.946
          ],
          [
            -64.286,
            46.809
          ],
          [
            -64.41,
            46.711
          ],
          [
            -64.388,
            46.621
          ],
          [
            -64.224,
            46.63
          ],
          [
            -64.133,
            46.591
          ],
          [
            -64.071,
            46.636
          ],
          [
            -64.058,
            46.569
          ],
          [
            -64.113,
            46.535
          ],
          [
            -64.13,
            46.407
          ],
          [
            -63.982,
            46.394
          ],
          [
            -63.93,
            46.425
          ],
          [
            -63.89,
            46.397
          ],
          [
            -63.745,
            46.395
          ],
          [
            -63.766,
            46.38
          ],
          [
            -63.715,
            46.354
          ],
          [
            -63.801,
            46.373
          ],
          [
            -63.786,
            46.34
          ],
          [
            -63.811,
            46.327
          ],
          [
            -63.643,
            46.225
          ],
          [
            -63.481,
            46.218
          ],
          [
            -63.224,
            46.14
          ],
          [
            -63.139,
            46.192
          ],
          [
            -63.273,
            46.195
          ],
          [
            -63.173,
            46.224
          ],
          [
            -63.195,
            46.27
          ],
          [
            -63.123,
            46.237
          ],
          [
            -62.963,
            46.32
          ],
          [
            -63.122,
            46.212
          ],
          [
            -62.984,
            46.174
          ],
          [
            -62.985,
            46.196
          ],
          [
            -62.944,
            46.19
          ],
          [
            -62.959,
            46.129
          ],
          [
            -62.891,
            46.159
          ],
          [
            -62.866,
            46.14
          ],
          [
            -63.031,
            46.061
          ],
          [
            -62.896,
            46.065
          ],
          [
            -62.935,
            46.046
          ],
          [
            -62.857,
            45.977
          ],
          [
            -62.742,
            45.959
          ],
          [
            -62.542,
            45.971
          ],
          [
            -62.459,
            46.006
          ]
        ],
        [
          [
            -61.783,
            47.261
          ],
          [
            -61.819,
            47.233
          ],
          [
            -61.965,
            47.276
          ],
          [
            -61.92,
            47.347
          ],
          [
            -61.866,
            47.349
          ],
          [
            -61.83,
            47.402
          ],
          [
            -61.764,
            47.397
          ],
          [
            -61.701,
            47.492
          ],
          [
            -61.594,
            47.555
          ],
          [
            -61.6680431451613,
            47.536717741935476
          ],
          [
            -61.542,
            47.617
          ],
          [
            -61.471,
            47.617
          ],
          [
            -61.536,
            47.546
          ],
          [
            -61.378,
            47.631
          ],
          [
            -61.536,
            47.632
          ],
          [
            -61.928,
            47.407
          ],
          [
            -62.015,
            47.236
          ],
          [
            -61.941,
            47.213
          ],
          [
            -61.799,
            47.233
          ],
          [
            -61.783,
            47.261
          ]
        ],
        [
          [
            -64.609,
            47.887
          ],
          [
            -64.686,
            47.852
          ],
          [
            -64.687,
            47.791
          ],
          [
            -64.646,
            47.789
          ],
          [
            -64.691,
            47.753
          ],
          [
            -64.647,
            47.729
          ],
          [
            -64.605,
            47.748
          ],
          [
            -64.515,
            47.833
          ],
          [
            -64.474,
            47.934
          ],
          [
            -64.521,
            47.869
          ],
          [
            -64.609,
            47.887
          ]
        ]
      ],
      [
        [
          [
            -61.68227717300283,
            47.527651482163805
          ],
          [
            -61.777,
            47.432
          ],
          [
            -61.856,
            47.417
          ],
          [
            -61.68227717300283,
            47.527651482163805
          ]
        ]
      ],
      [
        [
          [
            -61.68227717300283,
            47.527651482163805
          ],
          [
            -61.675,
            47.535
          ],
          [
            -61.6680431451613,
            47.536717741935476
          ],
          [
            -61.68227717300283,
            47.527651482163805
          ]
        ]
      ]
    ]
  }
}