{
  "type": "Feature",
  "properties": {
    "article_id": "NS-2025",
    "unit_id": "LME_022",
    "geometry_method": "reported/inferred bounding box shown against the target polygon"
  },
  "geometry": {
    "type": "Polygon",
    "coordinates": [
      [
        [
          -4,
          55.8
        ],
        [
          1,
          55.8
        ],
        [
          1,
          61
        ],
        [
          -4,
          61
        ],
        [
          -4,
          55.8
        ]
      ]
    ]
  }
}