{
  "type": "Feature",
  "properties": {
    "article_id": "EBR-2005",
    "unit_id": "LME_016",
    "geometry_method": "target polygon used as intended model envelope"
  },
  "geometry": {
    "type": "MultiPolygon",
    "coordinates": [
      [
        [
          [
            -37.856,
            -22.967
          ],
          [
            -40.967,
            -21.954
          ],
          [
            -41.014,
            -21.761
          ],
          [
            -41.01,
            -21.615
          ],
          [
            -41.064,
            -21.501
          ],
          [
            -40.97,
            -21.357
          ],
          [
            -40.961,
            -21.236
          ],
          [
            -40.846,
            -21.093
          ],
          [
            -40.814,
            -20.928
          ],
          [
            -40.766,
            -20.859
          ],
          [
            -40.655,
            -20.811
          ],
          [
            -40.624,
            -20.831
          ],
          [
            -40.475,
            -20.636
          ],
          [
            -40.406,
            -20.599
          ],
          [
            -40.262,
            -20.328
          ],
          [
            -40.366,
            -20.318
          ],
          [
            -40.376,
            -20.27
          ],
          [
            -40.347,
            -20.256
          ],
          [
            -40.369,
            -20.234
          ],
          [
            -40.299,
            -20.234
          ],
          [
            -40.293,
            -20.282
          ],
          [
            -40.262,
            -20.263
          ],
          [
            -40.237,
            -20.284
          ],
          [
            -40.167,
            -20.118
          ],
          [
            -40.182,
            -20.046
          ],
          [
            -40.128,
            -19.965
          ],
          [
            -40.152,
            -19.954
          ],
          [
            -40.091,
            -19.921
          ],
          [
            -40.003,
            -19.738
          ],
          [
            -39.806,
            -19.64
          ],
          [
            -39.699,
            -19.393
          ],
          [
            -39.748,
            -18.705
          ],
          [
            -39.644,
            -18.223
          ],
          [
            -39.452,
            -17.95
          ],
          [
            -39.276,
            -17.869
          ],
          [
            -39.131,
            -17.684
          ],
          [
            -39.191,
            -17.576
          ],
          [
            -39.207,
            -17.147
          ],
          [
            -39.116,
            -16.892
          ],
          [
            -39.131,
            -16.761
          ],
          [
            -39.047,
            -16.422
          ],
          [
            -39.001,
            -16.362
          ],
          [
            -39.014,
            -16.287
          ],
          [
            -38.862,
            -15.858
          ],
          [
            -38.934,
            -15.694
          ],
          [
            -38.96,
            -15.54
          ],
          [
            -39.022,
            -14.82
          ],
          [
            -39.053,
            -14.807
          ],
          [
            -39.032,
            -14.783
          ],
          [
            -39.067,
            -14.644
          ],
          [
            -38.921,
            -13.916
          ],
          [
            -38.941,
            -13.888
          ],
          [
            -38.991,
            -13.921
          ],
          [
            -38.947,
            -13.966
          ],
          [
            -38.974,
            -14.018
          ],
          [
            -38.959,
            -14.066
          ],
          [
            -39.057,
            -14.115
          ],
          [
            -39.039,
            -14.176
          ],
          [
            -39.076,
            -14.144
          ],
          [
            -39.071,
            -14.078
          ],
          [
            -39.025,
            -14.091
          ],
          [
            -38.979,
            -14.06
          ],
          [
            -38.993,
            -13.977
          ],
          [
            -39.063,
            -13.941
          ],
          [
            -39.069,
            -13.871
          ],
          [
            -39.017,
            -13.893
          ],
          [
            -38.991,
            -13.857
          ],
          [
            -39.111,
            -13.764
          ],
          [
            -39.112,
            -13.726
          ],
          [
            -39.15,
            -13.743
          ],
          [
            -39.094,
            -13.715
          ],
          [
            -39.027,
            -13.82
          ],
          [
            -38.98,
            -13.834
          ],
          [
            -38.998,
            -13.764
          ],
          [
            -38.963,
            -13.681
          ],
          [
            -39.004,
            -13.602
          ],
          [
            -39.005,
            -13.509
          ],
          [
            -39.053,
            -13.484
          ],
          [
            -39.082,
            -13.608
          ],
          [
            -39.118,
            -13.606
          ],
          [
            -39.082,
            -13.588
          ],
          [
            -39.048,
            -13.339
          ],
          [
            -39.033,
            -13.372
          ],
          [
            -38.954,
            -13.376
          ],
          [
            -38.943,
            -13.244
          ],
          [
            -38.807,
            -13.151
          ],
          [
            -38.9,
            -13.118
          ],
          [
            -38.894,
            -13.08
          ],
          [
            -38.786,
            -13.021
          ],
          [
            -38.725,
            -12.874
          ],
          [
            -38.856,
            -12.852
          ],
          [
            -38.919,
            -12.736
          ],
          [
            -38.86,
            -12.661
          ],
          [
            -38.875,
            -12.757
          ],
          [
            -38.853,
            -12.828
          ],
          [
            -38.81,
            -12.845
          ],
          [
            -38.751,
            -12.765
          ],
          [
            -38.694,
            -12.576
          ],
          [
            -38.698,
            -12.619
          ],
          [
            -38.649,
            -12.626
          ],
          [
            -38.627,
            -12.711
          ],
          [
            -38.505,
            -12.729
          ],
          [
            -38.477,
            -12.932
          ],
          [
            -38.511,
            -12.925
          ],
          [
            -38.536,
            -13.016
          ],
          [
            -38.477,
            -13.018
          ],
          [
            -38.32,
            -12.939
          ],
          [
            -37.996,
            -12.576
          ],
          [
            -37.935,
            -12.435
          ],
          [
            -37.62,
            -11.987
          ],
          [
            -37.364,
            -11.465
          ],
          [
            -37.488,
            -11.52
          ],
          [
            -37.393,
            -11.45
          ],
          [
            -37.469,
            -11.367
          ],
          [
            -37.412,
            -11.403
          ],
          [
            -37.395,
            -11.334
          ],
          [
            -37.331,
            -11.287
          ],
          [
            -37.349,
            -11.25
          ],
          [
            -37.314,
            -11.263
          ],
          [
            -37.348,
            -11.188
          ],
          [
            -37.306,
            -11.245
          ],
          [
            -37.299,
            -11.202
          ],
          [
            -37.276,
            -11.26
          ],
          [
            -37.364,
            -11.316
          ],
          [
            -37.398,
            -11.402
          ],
          [
            -37.33,
            -11.427
          ],
          [
            -37.265,
            -11.287
          ],
          [
            -37.151,
            -11.192
          ],
          [
            -37.164,
            -11.114
          ],
          [
            -37.221,
            -11.108
          ],
          [
            -37.202,
            -11.092
          ],
          [
            -37.28,
            -11.037
          ],
          [
            -37.207,
            -11.037
          ],
          [
            -37.157,
            -11.104
          ],
          [
            -37.053,
            -10.949
          ],
          [
            -37.04,
            -10.837
          ],
          [
            -37.142,
            -10.825
          ],
          [
            -37.094,
            -10.801
          ],
          [
            -37.153,
            -10.749
          ],
          [
            -37.078,
            -10.734
          ],
          [
            -37.069,
            -10.794
          ],
          [
            -37.009,
            -10.811
          ],
          [
            -37.022,
            -10.936
          ],
          [
            -36.859,
            -10.739
          ],
          [
            -36.568,
            -10.544
          ],
          [
            -36.393,
            -10.493
          ],
          [
            -36.284,
            -10.352
          ],
          [
            -36.281,
            -10.287
          ],
          [
            -36.044,
            -10.076
          ],
          [
            -35.796,
            -9.728
          ],
          [
            -35.869,
            -9.764
          ],
          [
            -35.952,
            -9.603
          ],
          [
            -35.905,
            -9.622
          ],
          [
            -35.86,
            -9.739
          ],
          [
            -35.792,
            -9.683
          ],
          [
            -35.794,
            -9.59
          ],
          [
            -35.737,
            -9.651
          ],
          [
            -35.773,
            -9.695
          ],
          [
            -35.69,
            -9.669
          ],
          [
            -35.658,
            -9.586
          ],
          [
            -35.583,
            -9.536
          ],
          [
            -35.457,
            -9.346
          ],
          [
            -35.328,
            -9.229
          ],
          [
            -35.156,
            -8.929
          ],
          [
            -35.074,
            -8.972
          ],
          [
            -35.141,
            -8.901
          ],
          [
            -35.132,
            -8.832
          ],
          [
            -34.97,
            -8.431
          ],
          [
            -34.992,
            -8.449
          ],
          [
            -34.987,
            -8.419
          ],
          [
            -35.017,
            -8.411
          ],
          [
            -34.936,
            -8.351
          ],
          [
            -34.94,
            -8.271
          ],
          [
            -34.88,
            -8.113
          ],
          [
            -34.927,
            -8.038
          ],
          [
            -34.856,
            -8.074
          ],
          [
            -34.815,
            -7.935
          ],
          [
            -34.845,
            -7.836
          ],
          [
            -34.893,
            -7.805
          ],
          [
            -34.858,
            -7.73
          ],
          [
            -34.907,
            -7.736
          ],
          [
            -34.852,
            -7.696
          ],
          [
            -34.876,
            -7.622
          ],
          [
            -34.831,
            -7.683
          ],
          [
            -34.801,
            -7.631
          ],
          [
            -34.841,
            -7.554
          ],
          [
            -34.923,
            -7.564
          ],
          [
            -34.814,
            -7.538
          ],
          [
            -34.793,
            -7.167
          ],
          [
            -34.831,
            -7.109
          ],
          [
            -34.83,
            -6.979
          ],
          [
            -34.857,
            -7.076
          ],
          [
            -34.915,
            -7.128
          ],
          [
            -34.858,
            -6.919
          ],
          [
            -34.912,
            -6.88
          ],
          [
            -34.943,
            -6.78
          ],
          [
            -34.972,
            -6.439
          ],
          [
            -35.015,
            -6.375
          ],
          [
            -35.037,
            -6.244
          ],
          [
            -35.088,
            -6.199
          ],
          [
            -35.136,
            -6.229
          ],
          [
            -35.155,
            -6.209
          ],
          [
            -35.115,
            -6.166
          ],
          [
            -35.093,
            -6.179
          ],
          [
            -35.105,
            -5.981
          ],
          [
            -35.146,
            -5.939
          ],
          [
            -35.226,
            -5.584
          ],
          [
            -35.368,
            -5.287
          ],
          [
            -35.48,
            -5.166
          ],
          [
            -35.604,
            -5.111
          ],
          [
            -35.98,
            -5.049
          ],
          [
            -36.129,
            -5.097
          ],
          [
            -36.288,
            -5.092
          ],
          [
            -36.255,
            -5.102
          ],
          [
            -36.28,
            -5.111
          ],
          [
            -36.582,
            -5.088
          ],
          [
            -36.526,
            -5.109
          ],
          [
            -36.544,
            -5.134
          ],
          [
            -36.769,
            -5.067
          ],
          [
            -36.883,
            -4.949
          ],
          [
            -37.174,
            -4.919
          ],
          [
            -37.29,
            -4.726
          ],
          [
            -37.643,
            -4.588
          ],
          [
            -37.717,
            -4.517
          ],
          [
            -37.761,
            -4.404
          ],
          [
            -37.889,
            -4.357
          ],
          [
            -38.049,
            -4.221
          ],
          [
            -38.258,
            -3.954
          ],
          [
            -38.389,
            -3.858
          ],
          [
            -38.467,
            -3.704
          ],
          [
            -38.503,
            -3.725
          ],
          [
            -38.657,
            -3.681
          ],
          [
            -38.806,
            -3.549
          ],
          [
            -38.913,
            -3.506
          ],
          [
            -39.007,
            -3.384
          ],
          [
            -39.083,
            -3.379
          ],
          [
            -39.273,
            -3.232
          ],
          [
            -39.477,
            -3.154
          ],
          [
            -39.616,
            -3.046
          ],
          [
            -39.692,
            -3.017
          ],
          [
            -39.728,
            -3.037
          ],
          [
            -39.725,
            -3.013
          ],
          [
            -39.997,
            -2.846
          ],
          [
            -40.117,
            -2.829
          ],
          [
            -40.144,
            -2.85
          ],
          [
            -40.191,
            -2.82
          ],
          [
            -40.491,
            -2.786
          ],
          [
            -40.83,
            -2.886
          ],
          [
            -40.849,
            -2.858
          ],
          [
            -41.1,
            -2.881
          ],
          [
            -41.083,
            -2.918
          ],
          [
            -41.14,
            -2.886
          ],
          [
            -41.281,
            -2.882
          ],
          [
            -41.311,
            -2.906
          ],
          [
            -41.24,
            -2.97
          ],
          [
            -41.241,
            -3.024
          ],
          [
            -41.282,
            -2.971
          ],
          [
            -41.342,
            -2.956
          ],
          [
            -41.334,
            -2.929
          ],
          [
            -41.424,
            -2.904
          ],
          [
            -41.443,
            -2.947
          ],
          [
            -41.462,
            -2.896
          ],
          [
            -41.523,
            -2.912
          ],
          [
            -41.675,
            -2.883
          ],
          [
            -41.7,
            -2.867
          ],
          [
            -41.665,
            -2.856
          ],
          [
            -41.773,
            -2.783
          ],
          [
            -40.502,
            0.41
          ],
          [
            -38.286,
            -0.334
          ],
          [
            -36.549,
            -0.986
          ],
          [
            -34.663,
            -1.567
          ],
          [
            -34.17,
            -1.923
          ],
          [
            -33.549,
            -2.3
          ],
          [
            -32.873,
            -2.823
          ],
          [
            -32.015,
            -4.318
          ],
          [
            -31.887,
            -4.686
          ],
          [
            -31.833,
            -5.26
          ],
          [
            -31.879,
            -5.557
          ],
          [
            -31.828,
            -6.418
          ],
          [
            -31.896,
            -7.18
          ],
          [
            -32.055,
            -7.957
          ],
          [
            -32.266,
            -8.768
          ],
          [
            -32.35,
            -9.345
          ],
          [
            -32.728,
            -9.899
          ],
          [
            -33.31,
            -11.294
          ],
          [
            -33.811,
            -11.969
          ],
          [
            -34.646,
            -13.228
          ],
          [
            -35.219,
            -14.486
          ],
          [
            -35.9,
            -15.684
          ],
          [
            -36.072,
            -16.565
          ],
          [
            -36.174,
            -17.286
          ],
          [
            -36.344,
            -18.091
          ],
          [
            -36.412,
            -19.069
          ],
          [
            -36.97,
            -20.923
          ],
          [
            -37.387,
            -22.145
          ],
          [
            -37.856,
            -22.967
          ]
        ],
        [
          [
            -38.908,
            -13.386
          ],
          [
            -39.039,
            -13.398
          ],
          [
            -39.041,
            -13.462
          ],
          [
            -38.964,
            -13.496
          ],
          [
            -38.979,
            -13.565
          ],
          [
            -38.941,
            -13.565
          ],
          [
            -38.906,
            -13.499
          ],
          [
            -38.908,
            -13.386
          ]
        ],
        [
          [
            -38.78,
            -13.135
          ],
          [
            -38.592,
            -12.988
          ],
          [
            -38.643,
            -12.892
          ],
          [
            -38.692,
            -12.881
          ],
          [
            -38.669,
            -12.965
          ],
          [
            -38.793,
            -13.058
          ],
          [
            -38.78,
            -13.135
          ]
        ],
        [
          [
            -32.461,
            -3.881
          ],
          [
            -32.393,
            -3.851
          ],
          [
            -32.402,
            -3.832
          ],
          [
            -32.483,
            -3.878
          ],
          [
            -32.461,
            -3.881
          ]
        ]
      ]
    ]
  }
}