{
  "type": "Feature",
  "properties": {
    "article_id": "GUI-2004",
    "unit_id": "LME_028",
    "geometry_method": "target polygon used as intended article/model envelope"
  },
  "geometry": {
    "type": "MultiPolygon",
    "coordinates": [
      [
        [
          [
            9.739,
            -6.826
          ],
          [
            9.372,
            -6.875
          ],
          [
            8.588,
            -7.24
          ],
          [
            8.601,
            -7.343
          ],
          [
            6.952,
            -3.631
          ],
          [
            6.732,
            -3.246
          ],
          [
            6.586,
            -2.716
          ],
          [
            6.24,
            -1.963
          ],
          [
            6.108,
            -1.515
          ],
          [
            6.128,
            -1.255
          ],
          [
            6.083,
            -1.008
          ],
          [
            5.404,
            0.343
          ],
          [
            5.14,
            0.972
          ],
          [
            4.454,
            1.532
          ],
          [
            3.33,
            2.153
          ],
          [
            2.002,
            2.649
          ],
          [
            1.544,
            2.729
          ],
          [
            0.972,
            2.647
          ],
          [
            -2.916,
            1.483
          ],
          [
            -4.596,
            1.106
          ],
          [
            -5.351,
            1.044
          ],
          [
            -6.049,
            1.073
          ],
          [
            -6.764,
            1.158
          ],
          [
            -7.958,
            1.177
          ],
          [
            -9.313,
            1.363
          ],
          [
            -10.832,
            1.68
          ],
          [
            -12.116,
            1.792
          ],
          [
            -12.883,
            1.969
          ],
          [
            -13.481,
            2.308
          ],
          [
            -14.94,
            3.391
          ],
          [
            -15.923,
            4.3
          ],
          [
            -16.383,
            4.836
          ],
          [
            -16.85,
            5.153
          ],
          [
            -17.421,
            5.616
          ],
          [
            -17.765,
            6.221
          ],
          [
            -18.134,
            7.06
          ],
          [
            -18.58,
            7.773
          ],
          [
            -19.15,
            9.278
          ],
          [
            -19.577,
            11.167
          ],
          [
            -19.87,
            11.943
          ],
          [
            -17.538,
            11.664
          ],
          [
            -15.964,
            11.755
          ],
          [
            -15.958,
            11.733
          ],
          [
            -15.898,
            11.766
          ],
          [
            -15.889,
            11.817
          ],
          [
            -15.882,
            11.77
          ],
          [
            -15.852,
            11.768
          ],
          [
            -15.804,
            11.881
          ],
          [
            -15.732,
            11.861
          ],
          [
            -15.798,
            11.868
          ],
          [
            -15.823,
            11.742
          ],
          [
            -15.652,
            11.805
          ],
          [
            -15.431,
            11.959
          ],
          [
            -15.361,
            11.963
          ],
          [
            -15.208,
            11.903
          ],
          [
            -15.086,
            11.983
          ],
          [
            -15.012,
            11.98
          ],
          [
            -14.99,
            11.953
          ],
          [
            -15.027,
            11.948
          ],
          [
            -15.064,
            11.841
          ],
          [
            -14.932,
            11.751
          ],
          [
            -15.066,
            11.8
          ],
          [
            -15.089,
            11.854
          ],
          [
            -15.073,
            11.94
          ],
          [
            -15.203,
            11.866
          ],
          [
            -15.438,
            11.88
          ],
          [
            -15.524,
            11.785
          ],
          [
            -15.547,
            11.683
          ],
          [
            -15.491,
            11.707
          ],
          [
            -15.487,
            11.653
          ],
          [
            -15.423,
            11.683
          ],
          [
            -15.467,
            11.602
          ],
          [
            -15.444,
            11.551
          ],
          [
            -15.416,
            11.609
          ],
          [
            -15.408,
            11.579
          ],
          [
            -15.372,
            11.591
          ],
          [
            -15.39,
            11.656
          ],
          [
            -15.343,
            11.605
          ],
          [
            -15.346,
            11.68
          ],
          [
            -15.323,
            11.632
          ],
          [
            -15.31,
            11.661
          ],
          [
            -15.287,
            11.649
          ],
          [
            -15.322,
            11.708
          ],
          [
            -15.291,
            11.703
          ],
          [
            -15.269,
            11.742
          ],
          [
            -15.265,
            11.667
          ],
          [
            -15.225,
            11.756
          ],
          [
            -15.186,
            11.721
          ],
          [
            -15.212,
            11.725
          ],
          [
            -15.233,
            11.649
          ],
          [
            -15.131,
            11.702
          ],
          [
            -15.173,
            11.656
          ],
          [
            -15.134,
            11.644
          ],
          [
            -15.11,
            11.684
          ],
          [
            -15.099,
            11.617
          ],
          [
            -15.063,
            11.644
          ],
          [
            -15.079,
            11.596
          ],
          [
            -15.009,
            11.604
          ],
          [
            -15.125,
            11.539
          ],
          [
            -15.146,
            11.581
          ],
          [
            -15.093,
            11.591
          ],
          [
            -15.11,
            11.616
          ],
          [
            -15.141,
            11.596
          ],
          [
            -15.159,
            11.628
          ],
          [
            -15.212,
            11.629
          ],
          [
            -15.204,
            11.566
          ],
          [
            -15.23,
            11.618
          ],
          [
            -15.284,
            11.618
          ],
          [
            -15.243,
            11.572
          ],
          [
            -15.297,
            11.599
          ],
          [
            -15.337,
            11.575
          ],
          [
            -15.288,
            11.562
          ],
          [
            -15.294,
            11.536
          ],
          [
            -15.35,
            11.56
          ],
          [
            -15.353,
            11.517
          ],
          [
            -15.402,
            11.531
          ],
          [
            -15.403,
            11.491
          ],
          [
            -15.471,
            11.49
          ],
          [
            -15.452,
            11.451
          ],
          [
            -15.507,
            11.333
          ],
          [
            -15.444,
            11.344
          ],
          [
            -15.343,
            11.462
          ],
          [
            -15.356,
            11.381
          ],
          [
            -15.264,
            11.428
          ],
          [
            -15.337,
            11.361
          ],
          [
            -15.386,
            11.373
          ],
          [
            -15.427,
            11.289
          ],
          [
            -15.407,
            11.185
          ],
          [
            -15.349,
            11.139
          ],
          [
            -15.226,
            11.128
          ],
          [
            -15.236,
            11.22
          ],
          [
            -15.204,
            11.232
          ],
          [
            -15.21,
            11.091
          ],
          [
            -15.274,
            11.03
          ],
          [
            -15.234,
            10.994
          ],
          [
            -15.003,
            11.22
          ],
          [
            -15.001,
            11.137
          ],
          [
            -15.04,
            11.137
          ],
          [
            -15.104,
            11.063
          ],
          [
            -15.116,
            10.974
          ],
          [
            -15.082,
            10.961
          ],
          [
            -15.051,
            10.993
          ],
          [
            -15.085,
            10.923
          ],
          [
            -15.014,
            10.953
          ],
          [
            -15.081,
            10.878
          ],
          [
            -15.011,
            10.774
          ],
          [
            -14.944,
            10.792
          ],
          [
            -14.981,
            10.864
          ],
          [
            -14.912,
            10.913
          ],
          [
            -14.957,
            10.976
          ],
          [
            -14.905,
            10.965
          ],
          [
            -14.918,
            11.028
          ],
          [
            -14.889,
            11.035
          ],
          [
            -14.856,
            10.963
          ],
          [
            -14.809,
            11.014
          ],
          [
            -14.795,
            10.977
          ],
          [
            -14.75,
            10.978
          ],
          [
            -14.682,
            11.056
          ],
          [
            -14.669,
            11.025
          ],
          [
            -14.734,
            10.959
          ],
          [
            -14.816,
            10.935
          ],
          [
            -14.809,
            10.821
          ],
          [
            -14.74,
            10.872
          ],
          [
            -14.793,
            10.74
          ],
          [
            -14.755,
            10.694
          ],
          [
            -14.723,
            10.764
          ],
          [
            -14.657,
            10.808
          ],
          [
            -14.708,
            10.757
          ],
          [
            -14.716,
            10.694
          ],
          [
            -14.678,
            10.689
          ],
          [
            -14.698,
            10.637
          ],
          [
            -14.501,
            10.883
          ],
          [
            -14.62,
            10.673
          ],
          [
            -14.632,
            10.611
          ],
          [
            -14.598,
            10.602
          ],
          [
            -14.668,
            10.522
          ],
          [
            -14.657,
            10.47
          ],
          [
            -14.536,
            10.507
          ],
          [
            -14.55,
            10.417
          ],
          [
            -14.463,
            10.337
          ],
          [
            -14.459,
            10.211
          ],
          [
            -14.374,
            10.232
          ],
          [
            -14.276,
            10.153
          ],
          [
            -14.245,
            10.181
          ],
          [
            -14.254,
            10.137
          ],
          [
            -14.221,
            10.102
          ],
          [
            -14.137,
            10.177
          ],
          [
            -14.126,
            10.152
          ],
          [
            -14.185,
            10.093
          ],
          [
            -14.135,
            10.047
          ],
          [
            -14.086,
            10.063
          ],
          [
            -14.084,
            10.137
          ],
          [
            -14.002,
            10.197
          ],
          [
            -14.066,
            10.105
          ],
          [
            -14.021,
            10.113
          ],
          [
            -13.993,
            10.077
          ],
          [
            -14.029,
            10.097
          ],
          [
            -14.066,
            10.032
          ],
          [
            -13.815,
            9.847
          ],
          [
            -13.741,
            9.865
          ],
          [
            -13.689,
            9.952
          ],
          [
            -13.751,
            9.763
          ],
          [
            -13.674,
            9.746
          ],
          [
            -13.651,
            9.843
          ],
          [
            -13.616,
            9.776
          ],
          [
            -13.56,
            9.781
          ],
          [
            -13.623,
            9.727
          ],
          [
            -13.627,
            9.641
          ],
          [
            -13.725,
            9.507
          ],
          [
            -13.586,
            9.568
          ],
          [
            -13.54,
            9.499
          ],
          [
            -13.487,
            9.568
          ],
          [
            -13.524,
            9.467
          ],
          [
            -13.478,
            9.414
          ],
          [
            -13.398,
            9.437
          ],
          [
            -13.43,
            9.362
          ],
          [
            -13.412,
            9.283
          ],
          [
            -13.362,
            9.28
          ],
          [
            -13.356,
            9.334
          ],
          [
            -13.301,
            9.351
          ],
          [
            -13.301,
            9.314
          ],
          [
            -13.328,
            9.314
          ],
          [
            -13.323,
            9.185
          ],
          [
            -13.277,
            9.168
          ],
          [
            -13.231,
            9.263
          ],
          [
            -13.257,
            9.182
          ],
          [
            -13.156,
            9.179
          ],
          [
            -13.241,
            9.166
          ],
          [
            -13.323,
            9.078
          ],
          [
            -13.291,
            8.963
          ],
          [
            -13.232,
            8.966
          ],
          [
            -13.194,
            8.914
          ],
          [
            -13.084,
            8.941
          ],
          [
            -13.163,
            8.886
          ],
          [
            -12.988,
            8.851
          ],
          [
            -13.199,
            8.86
          ],
          [
            -13.237,
            8.824
          ],
          [
            -13.241,
            8.665
          ],
          [
            -13.165,
            8.519
          ],
          [
            -13.102,
            8.58
          ],
          [
            -13.154,
            8.667
          ],
          [
            -13.084,
            8.617
          ],
          [
            -13.053,
            8.664
          ],
          [
            -13.029,
            8.648
          ],
          [
            -13.088,
            8.593
          ],
          [
            -13.053,
            8.577
          ],
          [
            -12.939,
            8.595
          ],
          [
            -12.877,
            8.681
          ],
          [
            -12.939,
            8.579
          ],
          [
            -12.871,
            8.563
          ],
          [
            -13.014,
            8.556
          ],
          [
            -13.126,
            8.453
          ],
          [
            -13.051,
            8.418
          ],
          [
            -13.046,
            8.37
          ],
          [
            -13.198,
            8.494
          ],
          [
            -13.288,
            8.496
          ],
          [
            -13.266,
            8.449
          ],
          [
            -13.287,
            8.42
          ],
          [
            -13.166,
            8.273
          ],
          [
            -13.166,
            8.166
          ],
          [
            -12.977,
            8.252
          ],
          [
            -12.981,
            8.184
          ],
          [
            -12.918,
            8.103
          ],
          [
            -12.876,
            8.098
          ],
          [
            -12.908,
            8.033
          ],
          [
            -12.886,
            7.964
          ],
          [
            -12.822,
            7.918
          ],
          [
            -12.882,
            7.938
          ],
          [
            -12.959,
            7.9
          ],
          [
            -12.82,
            7.792
          ],
          [
            -12.761,
            7.818
          ],
          [
            -12.793,
            7.795
          ],
          [
            -12.783,
            7.758
          ],
          [
            -12.701,
            7.699
          ],
          [
            -12.573,
            7.686
          ],
          [
            -12.468,
            7.786
          ],
          [
            -12.469,
            7.725
          ],
          [
            -12.488,
            7.74
          ],
          [
            -12.542,
            7.657
          ],
          [
            -12.522,
            7.624
          ],
          [
            -12.485,
            7.648
          ],
          [
            -12.463,
            7.556
          ],
          [
            -12.386,
            7.545
          ],
          [
            -12.253,
            7.609
          ],
          [
            -12.182,
            7.595
          ],
          [
            -12.301,
            7.526
          ],
          [
            -12.433,
            7.528
          ],
          [
            -12.495,
            7.443
          ],
          [
            -12.366,
            7.39
          ],
          [
            -12.439,
            7.416
          ],
          [
            -12.504,
            7.387
          ],
          [
            -11.751,
            7.097
          ],
          [
            -11.384,
            6.836
          ],
          [
            -11.359,
            6.698
          ],
          [
            -10.896,
            6.497
          ],
          [
            -10.799,
            6.389
          ],
          [
            -10.756,
            6.402
          ],
          [
            -10.794,
            6.371
          ],
          [
            -10.772,
            6.307
          ],
          [
            -10.811,
            6.316
          ],
          [
            -10.764,
            6.271
          ],
          [
            -10.38,
            6.127
          ],
          [
            -10.464,
            6.196
          ],
          [
            -10.442,
            6.203
          ],
          [
            -10.331,
            6.136
          ],
          [
            -10.364,
            6.109
          ],
          [
            -10.248,
            6.061
          ],
          [
            -10.174,
            5.978
          ],
          [
            -10.066,
            5.92
          ],
          [
            -10.045,
            5.855
          ],
          [
            -9.785,
            5.611
          ],
          [
            -9.591,
            5.477
          ],
          [
            -9.595,
            5.432
          ],
          [
            -9.503,
            5.387
          ],
          [
            -9.412,
            5.259
          ],
          [
            -9.094,
            5.017
          ],
          [
            -8.538,
            4.75
          ],
          [
            -8.439,
            4.671
          ],
          [
            -8.328,
            4.639
          ],
          [
            -8.252,
            4.574
          ],
          [
            -7.949,
            4.502
          ],
          [
            -7.718,
            4.358
          ],
          [
            -7.431,
            4.351
          ],
          [
            -7.199,
            4.514
          ],
          [
            -7.042,
            4.542
          ],
          [
            -6.912,
            4.656
          ],
          [
            -6.619,
            4.723
          ],
          [
            -5.89,
            5.023
          ],
          [
            -5.604,
            5.067
          ],
          [
            -5.548,
            5.109
          ],
          [
            -5.483,
            5.091
          ],
          [
            -5.003,
            5.129
          ],
          [
            -5.048,
            5.187
          ],
          [
            -5.109,
            5.165
          ],
          [
            -5.18029207232267,
            5.199732035234121
          ],
          [
            -5.11,
            5.184
          ],
          [
            -5.002,
            5.212
          ],
          [
            -5.009,
            5.153
          ],
          [
            -4.894,
            5.129
          ],
          [
            -4.004,
            5.232
          ],
          [
            -4.071,
            5.261
          ],
          [
            -4.03,
            5.273
          ],
          [
            -4.191,
            5.279
          ],
          [
            -4.406,
            5.222
          ],
          [
            -4.559,
            5.221
          ],
          [
            -4.535,
            5.2
          ],
          [
            -4.555,
            5.192
          ],
          [
            -4.707,
            5.21
          ],
          [
            -4.748,
            5.168
          ],
          [
            -4.812,
            5.178
          ],
          [
            -4.793,
            5.216
          ],
          [
            -4.728,
            5.232
          ],
          [
            -4.746,
            5.27
          ],
          [
            -4.704,
            5.269
          ],
          [
            -4.667,
            5.314
          ],
          [
            -4.67,
            5.25
          ],
          [
            -4.709,
            5.255
          ],
          [
            -4.702,
            5.233
          ],
          [
            -4.598,
            5.24
          ],
          [
            -4.558,
            5.263
          ],
          [
            -4.565,
            5.296
          ],
          [
            -4.523,
            5.256
          ],
          [
            -4.452,
            5.256
          ],
          [
            -4.483,
            5.276
          ],
          [
            -4.466,
            5.297
          ],
          [
            -4.349,
            5.272
          ],
          [
            -4.278,
            5.311
          ],
          [
            -4.241,
            5.279
          ],
          [
            -4.129,
            5.306
          ],
          [
            -3.982,
            5.265
          ],
          [
            -3.947,
            5.296
          ],
          [
            -4.011,
            5.312
          ],
          [
            -3.918,
            5.312
          ],
          [
            -3.902,
            5.345
          ],
          [
            -3.879,
            5.303
          ],
          [
            -3.742,
            5.27
          ],
          [
            -3.808,
            5.376
          ],
          [
            -3.754,
            5.353
          ],
          [
            -3.714,
            5.281
          ],
          [
            -3.733,
            5.259
          ],
          [
            -3.78,
            5.263
          ],
          [
            -3.778,
            5.242
          ],
          [
            -3.887,
            5.286
          ],
          [
            -3.899,
            5.255
          ],
          [
            -3.933,
            5.281
          ],
          [
            -4.004,
            5.254
          ],
          [
            -3.813,
            5.193
          ],
          [
            -3.746,
            5.19
          ],
          [
            -3.729,
            5.236
          ],
          [
            -3.701,
            5.179
          ],
          [
            -3.297,
            5.118
          ],
          [
            -3.277,
            5.147
          ],
          [
            -3.325,
            5.188
          ],
          [
            -3.245,
            5.226
          ],
          [
            -3.286,
            5.252
          ],
          [
            -3.242,
            5.294
          ],
          [
            -3.259,
            5.335
          ],
          [
            -3.143,
            5.368
          ],
          [
            -3.125,
            5.326
          ],
          [
            -3.199,
            5.209
          ],
          [
            -3.136,
            5.142
          ],
          [
            -3.064,
            5.151
          ],
          [
            -2.969,
            5.111
          ],
          [
            -2.944,
            5.175
          ],
          [
            -2.867,
            5.188
          ],
          [
            -2.842,
            5.141
          ],
          [
            -2.93,
            5.119
          ],
          [
            -2.966,
            5.079
          ],
          [
            -3.027,
            5.113
          ],
          [
            -3.138,
            5.108
          ],
          [
            -3.233,
            5.157
          ],
          [
            -3.27,
            5.11
          ],
          [
            -2.33,
            4.914
          ],
          [
            -2.106,
            4.77
          ],
          [
            -2.09,
            4.728
          ],
          [
            -1.974,
            4.745
          ],
          [
            -1.907,
            4.822
          ],
          [
            -1.751,
            4.873
          ],
          [
            -1.7,
            4.945
          ],
          [
            -1.636,
            4.963
          ],
          [
            -1.613,
            5.021
          ],
          [
            -1.251,
            5.094
          ],
          [
            -1.0,
            5.216
          ],
          [
            -0.796,
            5.208
          ],
          [
            -0.641,
            5.339
          ],
          [
            -0.493,
            5.368
          ],
          [
            -0.38,
            5.484
          ],
          [
            -0.069,
            5.578
          ],
          [
            0.157,
            5.72
          ],
          [
            0.31,
            5.776
          ],
          [
            0.662,
            5.754
          ],
          [
            0.646,
            5.879
          ],
          [
            0.575,
            5.992
          ],
          [
            0.433,
            6.071
          ],
          [
            0.378,
            6.024
          ],
          [
            0.312,
            6.036
          ],
          [
            0.208,
            6.09
          ],
          [
            0.231,
            6.105
          ],
          [
            0.371,
            6.045
          ],
          [
            0.412,
            6.084
          ],
          [
            0.501,
            6.062
          ],
          [
            0.634,
            5.948
          ],
          [
            0.684,
            5.754
          ],
          [
            0.821,
            5.757
          ],
          [
            0.973,
            5.801
          ],
          [
            1.073,
            6.018
          ],
          [
            1.291,
            6.138
          ],
          [
            1.869,
            6.274
          ],
          [
            2.276,
            6.323
          ],
          [
            2.934,
            6.389
          ],
          [
            3.388,
            6.389
          ],
          [
            3.37,
            6.45
          ],
          [
            3.401,
            6.546
          ],
          [
            3.467,
            6.595
          ],
          [
            3.476,
            6.536
          ],
          [
            3.524,
            6.521
          ],
          [
            3.767,
            6.613
          ],
          [
            3.857,
            6.601
          ],
          [
            3.771,
            6.59
          ],
          [
            3.721,
            6.529
          ],
          [
            3.573,
            6.508
          ],
          [
            3.536,
            6.449
          ],
          [
            3.391,
            6.439
          ],
          [
            3.416,
            6.409
          ],
          [
            3.991,
            6.421
          ],
          [
            4.418,
            6.358
          ],
          [
            4.69,
            6.183
          ],
          [
            4.884,
            6.005
          ],
          [
            5.05,
            5.755
          ],
          [
            5.094,
            5.807
          ],
          [
            5.29,
            5.904
          ],
          [
            5.251,
            5.852
          ],
          [
            5.157,
            5.816
          ],
          [
            5.153,
            5.775
          ],
          [
            5.109,
            5.793
          ],
          [
            5.088,
            5.692
          ],
          [
            5.181,
            5.574
          ],
          [
            5.289,
            5.613
          ],
          [
            5.334,
            5.721
          ],
          [
            5.314,
            5.624
          ],
          [
            5.336,
            5.598
          ],
          [
            5.382,
            5.593
          ],
          [
            5.445,
            5.654
          ],
          [
            5.501,
            5.621
          ],
          [
            5.497,
            5.576
          ],
          [
            5.435,
            5.625
          ],
          [
            5.386,
            5.557
          ],
          [
            5.223,
            5.58
          ],
          [
            5.191,
            5.55
          ],
          [
            5.194,
            5.502
          ],
          [
            5.257,
            5.436
          ],
          [
            5.372,
            5.39
          ],
          [
            5.436,
            5.392
          ],
          [
            5.438,
            5.437
          ],
          [
            5.482,
            5.403
          ],
          [
            5.51,
            5.488
          ],
          [
            5.64,
            5.536
          ],
          [
            5.537,
            5.479
          ],
          [
            5.543,
            5.405
          ],
          [
            5.579,
            5.381
          ],
          [
            5.5,
            5.376
          ],
          [
            5.475,
            5.342
          ],
          [
            5.418,
            5.367
          ],
          [
            5.337,
            5.346
          ],
          [
            5.366,
            5.162
          ],
          [
            5.441,
            5.158
          ],
          [
            5.454,
            5.189
          ],
          [
            5.494,
            5.146
          ],
          [
            5.453,
            5.145
          ],
          [
            5.469,
            5.089
          ],
          [
            5.433,
            5.134
          ],
          [
            5.384,
            5.109
          ],
          [
            5.497,
            4.806
          ],
          [
            5.578,
            4.719
          ],
          [
            5.555,
            4.715
          ],
          [
            5.579,
            4.66
          ],
          [
            5.8,
            4.457
          ],
          [
            5.778,
            4.455
          ],
          [
            5.843,
            4.411
          ],
          [
            5.863,
            4.435
          ],
          [
            5.862,
            4.389
          ],
          [
            5.931,
            4.341
          ],
          [
            5.968,
            4.34
          ],
          [
            5.956,
            4.391
          ],
          [
            5.988,
            4.416
          ],
          [
            6.001,
            4.307
          ],
          [
            6.063,
            4.289
          ],
          [
            6.045,
            4.412
          ],
          [
            6.086,
            4.417
          ],
          [
            6.107,
            4.368
          ],
          [
            6.086,
            4.282
          ],
          [
            6.221,
            4.282
          ],
          [
            6.196,
            4.311
          ],
          [
            6.232,
            4.392
          ],
          [
            6.199,
            4.439
          ],
          [
            6.246,
            4.409
          ],
          [
            6.237,
            4.494
          ],
          [
            6.262,
            4.391
          ],
          [
            6.3,
            4.442
          ],
          [
            6.33,
            4.431
          ],
          [
            6.248,
            4.297
          ],
          [
            6.411,
            4.313
          ],
          [
            6.431,
            4.345
          ],
          [
            6.574,
            4.327
          ],
          [
            6.589,
            4.465
          ],
          [
            6.556,
            4.508
          ],
          [
            6.602,
            4.473
          ],
          [
            6.613,
            4.326
          ],
          [
            6.694,
            4.33
          ],
          [
            6.657,
            4.508
          ],
          [
            6.68,
            4.525
          ],
          [
            6.696,
            4.421
          ],
          [
            6.732,
            4.605
          ],
          [
            6.717,
            4.35
          ],
          [
            6.871,
            4.353
          ],
          [
            6.799,
            4.526
          ],
          [
            6.822,
            4.601
          ],
          [
            6.794206349206349,
            4.662793650793651
          ],
          [
            6.854,
            4.603
          ],
          [
            6.817,
            4.552
          ],
          [
            6.871,
            4.392
          ],
          [
            7.006,
            4.369
          ],
          [
            7.025,
            4.389
          ],
          [
            6.979,
            4.478
          ],
          [
            6.979,
            4.58
          ],
          [
            6.923,
            4.576
          ],
          [
            6.9,
            4.677
          ],
          [
            6.984,
            4.603
          ],
          [
            6.962,
            4.725
          ],
          [
            7.04,
            4.644
          ],
          [
            7.004,
            4.569
          ],
          [
            7.041,
            4.44
          ],
          [
            7.073,
            4.435
          ],
          [
            7.061,
            4.487
          ],
          [
            7.111,
            4.449
          ],
          [
            7.168,
            4.473
          ],
          [
            7.18,
            4.523
          ],
          [
            7.145,
            4.557
          ],
          [
            7.176,
            4.571
          ],
          [
            7.157,
            4.626
          ],
          [
            7.056,
            4.721
          ],
          [
            7.072,
            4.754
          ],
          [
            7.106,
            4.681
          ],
          [
            7.177,
            4.664
          ],
          [
            7.271316441142655,
            4.510976386309365
          ],
          [
            7.232,
            4.528
          ],
          [
            7.135,
            4.389
          ],
          [
            7.308,
            4.409
          ],
          [
            7.329,
            4.486
          ],
          [
            7.280026976551151,
            4.507204814276821
          ],
          [
            7.332,
            4.53
          ],
          [
            7.272,
            4.558
          ],
          [
            7.277,
            4.598
          ],
          [
            7.423,
            4.553
          ],
          [
            7.504,
            4.567
          ],
          [
            7.531,
            4.602
          ],
          [
            7.517,
            4.68
          ],
          [
            7.55,
            4.707
          ],
          [
            7.536,
            4.541
          ],
          [
            7.747,
            4.497
          ],
          [
            7.729,
            4.52
          ],
          [
            8.033,
            4.554
          ],
          [
            8.297,
            4.55
          ],
          [
            8.36,
            4.636
          ],
          [
            8.318,
            4.669
          ],
          [
            8.315,
            4.757
          ],
          [
            8.259,
            4.824
          ],
          [
            8.275,
            4.857
          ],
          [
            8.177,
            4.991
          ],
          [
            8.343,
            4.806
          ],
          [
            8.384,
            4.787
          ],
          [
            8.421,
            4.846
          ],
          [
            8.402,
            4.75
          ],
          [
            8.476,
            4.754
          ],
          [
            8.479,
            4.704
          ],
          [
            8.533,
            4.703
          ],
          [
            8.536,
            4.776
          ],
          [
            8.591,
            4.821
          ],
          [
            8.576,
            4.699
          ],
          [
            8.511,
            4.629
          ],
          [
            8.522,
            4.599
          ],
          [
            8.554,
            4.606
          ],
          [
            8.504,
            4.569
          ],
          [
            8.504,
            4.528
          ],
          [
            8.546,
            4.502
          ],
          [
            8.589,
            4.534
          ],
          [
            8.579,
            4.488
          ],
          [
            8.719,
            4.504
          ],
          [
            8.641,
            4.692
          ],
          [
            8.653,
            4.736
          ],
          [
            8.719,
            4.584
          ],
          [
            8.779,
            4.542
          ],
          [
            8.808,
            4.555
          ],
          [
            8.802,
            4.595
          ],
          [
            8.874,
            4.543
          ],
          [
            8.846,
            4.638
          ],
          [
            8.899,
            4.588
          ],
          [
            8.9,
            4.522
          ],
          [
            8.934,
            4.547
          ],
          [
            8.898,
            4.441
          ],
          [
            8.923,
            4.302
          ],
          [
            8.99,
            4.203
          ],
          [
            8.968,
            4.109
          ],
          [
            9.117,
            4.012
          ],
          [
            9.203,
            4.013
          ],
          [
            9.209,
            3.96
          ],
          [
            9.242,
            3.956
          ],
          [
            9.323,
            4.032
          ],
          [
            9.31,
            3.942
          ],
          [
            9.432,
            3.899
          ],
          [
            9.474,
            3.916
          ],
          [
            9.423,
            4.019
          ],
          [
            9.447,
            4.029
          ],
          [
            9.492,
            3.966
          ],
          [
            9.531,
            3.983
          ],
          [
            9.452,
            4.067
          ],
          [
            9.478,
            4.113
          ],
          [
            9.528,
            4.03
          ],
          [
            9.578,
            4.009
          ],
          [
            9.754,
            4.141
          ],
          [
            9.612,
            3.956
          ],
          [
            9.767,
            3.956
          ],
          [
            9.678,
            3.901
          ],
          [
            9.747,
            3.866
          ],
          [
            9.751,
            3.822
          ],
          [
            9.607,
            3.866
          ],
          [
            9.59,
            3.797
          ],
          [
            9.655,
            3.747
          ],
          [
            9.601,
            3.747
          ],
          [
            9.543,
            3.809
          ],
          [
            9.627,
            3.671
          ],
          [
            9.627,
            3.598
          ],
          [
            9.818,
            3.625
          ],
          [
            9.643,
            3.534
          ],
          [
            9.722,
            3.49
          ],
          [
            9.891,
            3.274
          ],
          [
            9.929,
            3.267
          ],
          [
            9.9,
            3.252
          ],
          [
            9.967,
            3.082
          ],
          [
            9.896,
            2.953
          ],
          [
            9.82,
            2.542
          ],
          [
            9.817,
            2.35
          ],
          [
            9.772,
            2.325
          ],
          [
            9.786,
            2.137
          ],
          [
            9.762,
            2.093
          ],
          [
            9.814,
            1.925
          ],
          [
            9.612,
            1.66
          ],
          [
            9.648,
            1.578
          ],
          [
            9.741,
            1.596
          ],
          [
            9.693,
            1.563
          ],
          [
            9.593,
            1.573
          ],
          [
            9.561,
            1.493
          ],
          [
            9.457,
            1.391
          ],
          [
            9.457,
            1.331
          ],
          [
            9.35,
            1.177
          ],
          [
            9.407,
            1.105
          ],
          [
            9.544,
            1.125
          ],
          [
            9.581,
            1.04
          ],
          [
            9.702,
            1.131
          ],
          [
            9.705,
            1.093
          ],
          [
            9.85,
            1.074
          ],
          [
            9.789,
            1.053
          ],
          [
            9.79,
            0.968
          ],
          [
            9.782,
            1.027
          ],
          [
            9.737,
            1.058
          ],
          [
            9.671,
            1.054
          ],
          [
            9.565,
            0.983
          ],
          [
            9.625,
            0.781
          ],
          [
            9.638,
            0.596
          ],
          [
            9.608,
            0.469
          ],
          [
            9.579,
            0.482
          ],
          [
            9.583,
            0.597
          ],
          [
            9.548,
            0.564
          ],
          [
            9.522,
            0.604
          ],
          [
            9.461,
            0.6
          ],
          [
            9.56,
            0.615
          ],
          [
            9.538,
            0.675
          ],
          [
            9.32,
            0.625
          ],
          [
            9.303,
            0.535
          ],
          [
            9.403,
            0.486
          ],
          [
            9.5,
            0.291
          ],
          [
            9.564,
            0.314
          ],
          [
            9.776,
            0.183
          ],
          [
            9.934,
            0.21
          ],
          [
            10.027,
            0.189
          ],
          [
            9.909,
            0.183
          ],
          [
            9.819,
            0.114
          ],
          [
            9.761,
            0.127
          ],
          [
            9.811,
            0.018
          ],
          [
            9.737,
            0.114
          ],
          [
            9.63,
            0.153
          ],
          [
            9.588,
            0.113
          ],
          [
            9.563,
            0.163
          ],
          [
            9.511,
            0.183
          ],
          [
            9.487,
            0.093
          ],
          [
            9.428,
            0.203
          ],
          [
            9.354,
            0.186
          ],
          [
            9.379,
            0.289
          ],
          [
            9.348,
            0.363
          ],
          [
            9.303,
            0.312
          ],
          [
            9.352,
            0.019
          ],
          [
            9.307,
            -0.352
          ],
          [
            9.099,
            -0.605
          ],
          [
            9.113,
            -0.686
          ],
          [
            9.091,
            -0.66
          ],
          [
            9.05,
            -0.711
          ],
          [
            9.006,
            -0.879
          ],
          [
            9.001,
            -0.803
          ],
          [
            8.931,
            -0.69
          ],
          [
            8.89,
            -0.682
          ],
          [
            8.917,
            -0.727
          ],
          [
            8.864,
            -0.722
          ],
          [
            8.852,
            -0.807
          ],
          [
            8.793,
            -0.743
          ],
          [
            8.778,
            -0.631
          ],
          [
            8.72,
            -0.611
          ],
          [
            8.712,
            -0.571
          ],
          [
            8.71,
            -0.641
          ],
          [
            8.878,
            -0.978
          ],
          [
            8.933,
            -0.959
          ],
          [
            8.913,
            -1.013
          ],
          [
            8.868,
            -0.983
          ],
          [
            8.966,
            -1.112
          ],
          [
            8.994,
            -1.222
          ],
          [
            8.999,
            -1.16
          ],
          [
            9.027,
            -1.18
          ],
          [
            9.02796438547486,
            -1.2957262569832406
          ],
          [
            8.983,
            -1.234
          ],
          [
            9.231,
            -1.615
          ],
          [
            9.257,
            -1.846
          ],
          [
            9.308,
            -1.834
          ],
          [
            9.306,
            -1.874
          ],
          [
            9.339,
            -1.888
          ],
          [
            9.367,
            -1.824
          ],
          [
            9.429,
            -1.888
          ],
          [
            9.433,
            -1.852
          ],
          [
            9.485,
            -1.864
          ],
          [
            9.52,
            -1.932
          ],
          [
            9.501,
            -1.973
          ],
          [
            9.566,
            -2.032
          ],
          [
            9.538,
            -2.07
          ],
          [
            9.507,
            -2.002
          ],
          [
            9.461,
            -1.988
          ],
          [
            9.471,
            -1.923
          ],
          [
            9.376,
            -1.931
          ],
          [
            9.377,
            -1.891
          ],
          [
            9.357,
            -1.921
          ],
          [
            9.271,
            -1.866
          ],
          [
            9.572,
            -2.209
          ],
          [
            9.615,
            -2.377
          ],
          [
            9.699,
            -2.437
          ],
          [
            9.696,
            -2.381
          ],
          [
            9.726,
            -2.377
          ],
          [
            9.724,
            -2.439
          ],
          [
            9.759,
            -2.48
          ],
          [
            9.88,
            -2.414
          ],
          [
            9.912,
            -2.476
          ],
          [
            9.989,
            -2.497
          ],
          [
            9.958,
            -2.507
          ],
          [
            9.977,
            -2.56
          ],
          [
            10.01,
            -2.507
          ],
          [
            10.086,
            -2.564
          ],
          [
            10.076,
            -2.493
          ],
          [
            10.131,
            -2.52
          ],
          [
            10.156,
            -2.58
          ],
          [
            10.053,
            -2.587
          ],
          [
            10.016,
            -2.64
          ],
          [
            9.973,
            -2.626
          ],
          [
            9.969,
            -2.581
          ],
          [
            9.938,
            -2.594
          ],
          [
            9.923,
            -2.555
          ],
          [
            9.856,
            -2.542
          ],
          [
            9.84,
            -2.462
          ],
          [
            9.781,
            -2.509
          ],
          [
            9.701,
            -2.446
          ],
          [
            9.884,
            -2.646
          ],
          [
            10.239,
            -2.918
          ],
          [
            10.501,
            -3.169
          ],
          [
            10.63,
            -3.309
          ],
          [
            10.645,
            -3.424
          ],
          [
            10.934,
            -3.647
          ],
          [
            11.04,
            -3.847
          ],
          [
            11.321,
            -4.073
          ],
          [
            11.385,
            -4.196
          ],
          [
            11.753,
            -4.516
          ],
          [
            11.8,
            -4.599
          ],
          [
            11.757,
            -4.652
          ],
          [
            11.83,
            -4.731
          ],
          [
            11.807,
            -4.782
          ],
          [
            11.999,
            -5.016
          ],
          [
            12.116,
            -4.996
          ],
          [
            12.079,
            -5.049
          ],
          [
            12.017,
            -5.034
          ],
          [
            12.163,
            -5.266
          ],
          [
            12.229,
            -5.477
          ],
          [
            12.231,
            -5.526
          ],
          [
            12.178,
            -5.541
          ],
          [
            12.16,
            -5.586
          ],
          [
            12.155,
            -5.682
          ],
          [
            12.265,
            -5.865
          ],
          [
            12.386,
            -5.994
          ],
          [
            12.394,
            -5.958
          ],
          [
            12.458,
            -5.972
          ],
          [
            12.415,
            -6.023
          ],
          [
            12.264,
            -6.037
          ],
          [
            11.898,
            -6.175
          ],
          [
            11.385,
            -6.276
          ],
          [
            10.746,
            -6.589
          ],
          [
            9.739,
            -6.826
          ]
        ],
        [
          [
            9.001,
            -0.6
          ],
          [
            8.947,
            -0.658
          ],
          [
            9.002,
            -0.769
          ],
          [
            9.039,
            -0.743
          ],
          [
            9.047,
            -0.667
          ],
          [
            9.001,
            -0.6
          ]
        ],
        [
          [
            6.688,
            0.402
          ],
          [
            6.618,
            0.404
          ],
          [
            6.467,
            0.26
          ],
          [
            6.508,
            0.042
          ],
          [
            6.538,
            0.025
          ],
          [
            6.579,
            0.077
          ],
          [
            6.658,
            0.101
          ],
          [
            6.753,
            0.229
          ],
          [
            6.751,
            0.34
          ],
          [
            6.688,
            0.402
          ]
        ],
        [
          [
            7.373,
            1.687
          ],
          [
            7.362,
            1.611
          ],
          [
            7.327,
            1.607
          ],
          [
            7.338,
            1.557
          ],
          [
            7.399,
            1.531
          ],
          [
            7.404,
            1.553
          ],
          [
            7.463,
            1.635
          ],
          [
            7.428,
            1.651
          ],
          [
            7.464,
            1.672
          ],
          [
            7.407,
            1.702
          ],
          [
            7.373,
            1.687
          ]
        ],
        [
          [
            8.914,
            3.751
          ],
          [
            8.695,
            3.76
          ],
          [
            8.626,
            3.661
          ],
          [
            8.582,
            3.467
          ],
          [
            8.45,
            3.435
          ],
          [
            8.424,
            3.34
          ],
          [
            8.454,
            3.262
          ],
          [
            8.691,
            3.196
          ],
          [
            8.716,
            3.234
          ],
          [
            8.774,
            3.311
          ],
          [
            8.784,
            3.394
          ],
          [
            8.955,
            3.634
          ],
          [
            8.961,
            3.7
          ],
          [
            8.914,
            3.751
          ]
        ],
        [
          [
            -12.903,
            7.573
          ],
          [
            -12.953,
            7.568
          ],
          [
            -12.619,
            7.478
          ],
          [
            -12.575,
            7.447
          ],
          [
            -12.564,
            7.389
          ],
          [
            -12.521,
            7.401
          ],
          [
            -12.497,
            7.574
          ],
          [
            -12.596,
            7.606
          ],
          [
            -12.591,
            7.634
          ],
          [
            -12.885,
            7.614
          ],
          [
            -12.903,
            7.573
          ]
        ],
        [
          [
            -16.053,
            11.186
          ],
          [
            -16.083,
            11.207
          ],
          [
            -16.244,
            11.101
          ],
          [
            -16.148,
            11.025
          ],
          [
            -16.132,
            11.06
          ],
          [
            -16.128,
            11.026
          ],
          [
            -16.082,
            11.026
          ],
          [
            -16.049,
            11.071
          ],
          [
            -16.053,
            11.186
          ]
        ],
        [
          [
            -16.026,
            11.423
          ],
          [
            -15.9,
            11.453
          ],
          [
            -15.906,
            11.578
          ],
          [
            -15.948,
            11.611
          ],
          [
            -16.084,
            11.46
          ],
          [
            -16.026,
            11.423
          ]
        ],
        [
          [
            -16.369,
            11.508
          ],
          [
            -16.304,
            11.483
          ],
          [
            -16.267,
            11.49
          ],
          [
            -16.245,
            11.578
          ],
          [
            -16.422,
            11.533
          ],
          [
            -16.419,
            11.483
          ],
          [
            -16.369,
            11.508
          ]
        ]
      ],
      [
        [
          [
            7.280026976551151,
            4.507204814276821
          ],
          [
            7.275,
            4.505
          ],
          [
            7.271316441142655,
            4.510976386309365
          ],
          [
            7.280026976551151,
            4.507204814276821
          ]
        ]
      ],
      [
        [
          [
            6.719,
            4.83
          ],
          [
            6.79,
            4.809
          ],
          [
            6.766,
            4.751
          ],
          [
            6.784402803168799,
            4.684589884216943
          ],
          [
            6.719,
            4.83
          ]
        ]
      ],
      [
        [
          [
            -5.356,
            5.129
          ],
          [
            -5.360570982839314,
            5.13425663026521
          ],
          [
            -5.354709819462792,
            5.1333866138265085
          ],
          [
            -5.356,
            5.129
          ]
        ]
      ],
      [
        [
          [
            -5.360570982839314,
            5.13425663026521
          ],
          [
            -5.406,
            5.141
          ],
          [
            -5.396,
            5.175
          ],
          [
            -5.360570982839314,
            5.13425663026521
          ]
        ]
      ],
      [
        [
          [
            -5.354709819462792,
            5.1333866138265085
          ],
          [
            -5.341,
            5.18
          ],
          [
            -5.336,
            5.158
          ],
          [
            -5.309,
            5.172
          ],
          [
            -5.297,
            5.195
          ],
          [
            -5.341,
            5.201
          ],
          [
            -5.32,
            5.231
          ],
          [
            -5.192613480055021,
            5.202489683631362
          ],
          [
            -5.231,
            5.199
          ],
          [
            -5.188,
            5.157
          ],
          [
            -5.281,
            5.174
          ],
          [
            -5.336,
            5.144
          ],
          [
            -5.278,
            5.122
          ],
          [
            -5.354709819462792,
            5.1333866138265085
          ]
        ]
      ],
      [
        [
          [
            -5.18029207232267,
            5.199732035234121
          ],
          [
            -5.192613480055021,
            5.202489683631362
          ],
          [
            -5.187,
            5.203
          ],
          [
            -5.18029207232267,
            5.199732035234121
          ]
        ]
      ],
      [
        [
          [
            9.329,
            -1.368
          ],
          [
            9.334,
            -1.282
          ],
          [
            9.339,
            -1.395
          ],
          [
            9.287,
            -1.416
          ],
          [
            9.291,
            -1.467
          ],
          [
            9.248,
            -1.474
          ],
          [
            9.285,
            -1.567
          ],
          [
            9.392,
            -1.563
          ],
          [
            9.449,
            -1.465
          ],
          [
            9.484,
            -1.491
          ],
          [
            9.502,
            -1.588
          ],
          [
            9.56,
            -1.611
          ],
          [
            9.422,
            -1.606
          ],
          [
            9.417,
            -1.672
          ],
          [
            9.389,
            -1.615
          ],
          [
            9.315,
            -1.655
          ],
          [
            9.291,
            -1.639
          ],
          [
            9.279,
            -1.676
          ],
          [
            9.261,
            -1.537
          ],
          [
            9.152,
            -1.466
          ],
          [
            9.034049655172414,
            -1.3040799999999997
          ],
          [
            9.114,
            -1.358
          ],
          [
            9.142,
            -1.336
          ],
          [
            9.169,
            -1.409
          ],
          [
            9.219,
            -1.413
          ],
          [
            9.266,
            -1.364
          ],
          [
            9.329,
            -1.368
          ]
        ]
      ],
      [
        [
          [
            9.034049655172414,
            -1.3040799999999997
          ],
          [
            9.028,
            -1.3
          ],
          [
            9.02796438547486,
            -1.2957262569832406
          ],
          [
            9.034049655172414,
            -1.3040799999999997
          ]
        ]
      ],
      [
        [
          [
            6.784402803168799,
            4.684589884216943
          ],
          [
            6.794206349206349,
            4.662793650793651
          ],
          [
            6.789,
            4.668
          ],
          [
            6.784402803168799,
            4.684589884216943
          ]
        ]
      ]
    ]
  }
}