{"type": "Feature", "properties": {"geometry_method": "target polygon used as intended model envelope", "geometry_confidence": "medium"}, "geometry": {"type": "MultiPolygon", "coordinates": [[[[29.107, 41.21], [29.093, 41.244], [28.835, 41.282], [28.2, 41.529], [28.077, 41.648], [28.089, 41.674], [27.977, 41.806], [27.981, 41.889], [28.048, 41.889], [28.022, 41.998], [27.983, 42.067], [27.748, 42.252], [27.779, 42.336], [27.73, 42.335], [27.699, 42.388], [27.72, 42.41], [27.653, 42.414], [27.623, 42.458], [27.506, 42.431], [27.478, 42.461], [27.466, 42.428], [27.449, 42.477], [27.482, 42.483], [27.515, 42.556], [27.652, 42.557], [27.628, 42.624], [27.736, 42.661], [27.729, 42.71], [27.897, 42.703], [27.886, 43.032], [27.945, 43.167], [27.907, 43.196], [28.016, 43.226], [28.093, 43.37], [28.3, 43.422], [28.471, 43.366], [28.588, 43.496], [28.585, 43.801], [28.671, 43.991], [28.633, 44.157], [28.669, 44.18], [28.63, 44.299], [28.831, 44.482], [28.928, 44.617], [28.753, 44.462], [28.772, 44.551], [28.725, 44.555], [28.786, 44.586], [28.77726547455296, 44.59962585969738], [28.95918001350439, 44.689594463200535], [28.9, 44.711], [28.91, 44.69], [28.852, 44.649], [28.784, 44.647], [28.798, 44.719], [28.943, 44.763], [28.922, 44.787], [28.95, 44.825], [28.864, 44.878], [28.868, 44.943], [28.98, 45.006], [29.112, 44.969], [29.043, 44.928], [29.045, 44.859], [29.072, 44.823], [29.102, 44.867], [29.146, 44.808], [28.977, 44.746], [28.996, 44.69], [29.162, 44.784], [29.607, 44.841], [29.66, 45.113], [29.701, 45.159], [29.65, 45.163], [29.624, 45.213], [29.731, 45.225], [29.761, 45.324], [29.739, 45.47], [29.711, 45.436], [29.663, 45.476], [29.642, 45.437], [29.601, 45.475], [29.704, 45.569], [29.667, 45.537], [29.593, 45.555], [29.596, 45.683], [29.637, 45.71], [29.618, 45.74], [29.65, 45.786], [29.634, 45.821], [29.697, 45.782], [29.68, 45.694], [29.74, 45.609], [29.866, 45.673], [29.8, 45.709], [29.804, 45.737], [29.89, 45.764], [29.934, 45.723], [29.921, 45.801], [29.935, 45.818], [29.952, 45.772], [29.97, 45.842], [30.066, 45.8], [30.097, 45.814], [30.117, 45.894], [30.141, 45.82], [30.241, 45.871], [30.66, 46.258], [30.689, 46.317], [30.654, 46.35], [30.711, 46.336], [30.763, 46.376], [30.794, 46.448], [30.748, 46.506], [30.789, 46.548], [31.073, 46.614], [31.335, 46.601], [31.416, 46.624], [31.506, 46.721], [31.456, 46.747], [31.444, 46.798], [31.516, 46.739], [31.614, 46.816], [31.477, 46.631], [31.579, 46.607], [31.641, 46.654], [31.809, 46.616], [31.907, 46.649], [31.909, 46.729], [31.863, 46.797], [31.942, 46.855], [31.975, 46.923], [31.898, 46.933], [31.94, 47.003], [31.844, 47.001], [31.87, 47.088], [31.813, 47.12], [31.808, 47.187], [31.726, 47.219], [31.749, 47.253], [31.752, 47.217], [31.832, 47.192], [31.842, 47.13], [31.893, 47.102], [31.872, 47.016], [31.981, 47.007], [31.933, 46.946], [32.012, 46.922], [31.935, 46.766], [32.02, 46.629], [32.118, 46.604], [32.139, 46.559], [32.237, 46.603], [32.332, 46.556], [32.647, 46.641], [32.422, 46.537], [32.422, 46.49], [32.357, 46.459], [32.11, 46.509], [31.871, 46.516], [31.761, 46.554], [31.579, 46.543], [31.508, 46.58], [31.684, 46.429], [31.703, 46.49], [31.778, 46.493], [32.004, 46.451], [32.059, 46.396], [31.967, 46.347], [31.763, 46.318], [31.788, 46.285], [31.891, 46.28], [31.888, 46.314], [32.14, 46.202], [32.266, 46.197], [32.243, 46.173], [32.267, 46.125], [32.527, 46.074], [32.774, 46.13], [33.012, 46.121], [33.028, 46.164], [33.123, 46.131], [33.192, 46.162], [33.229, 46.219], [33.218, 46.125], [33.269, 46.142], [33.322, 46.12], [33.293, 46.091], [33.334, 46.106], [33.419, 46.049], [33.506, 46.041], [33.504, 46.08], [33.556, 46.084], [33.527, 46.117], [33.611, 46.147], [33.649, 46.083], [33.623, 45.941], [33.674, 45.957], [33.773, 45.927], [33.69, 45.907], [33.686, 45.856], [33.623, 45.877], [33.543, 45.838], [33.481, 45.848], [33.236, 45.742], [33.17, 45.784], [33.184, 45.739], [32.899, 45.643], [32.819, 45.592], [32.825, 45.559], [32.75, 45.564], [32.63, 45.51], [32.536, 45.464], [32.481, 45.396], [32.509, 45.339], [32.577, 45.318], [32.654, 45.311], [32.727, 45.356], [32.932, 45.344], [33.258, 45.157], [33.394, 45.186], [33.542, 45.112], [33.622, 44.921], [33.604, 44.857], [33.553, 44.841], [33.52, 44.783], [33.548, 44.7], [33.514, 44.641], [33.568, 44.614], [33.365, 44.582], [33.466, 44.51], [33.58, 44.493], [33.629, 44.428], [33.707, 44.395], [33.93, 44.379], [34.123, 44.432], [34.271, 44.544], [34.332, 44.544], [34.436, 44.699], [34.519, 44.744], [34.731, 44.811], [34.896, 44.809], [34.964, 44.839], [35.088, 44.793], [35.139, 44.882], [35.226, 44.916], [35.25, 44.956], [35.363, 44.942], [35.362, 44.986], [35.434, 45.002], [35.395, 45.023], [35.407, 45.057], [35.515, 45.116], [35.677, 45.1], [35.857, 44.986], [35.991, 44.995], [36.043, 45.04], [36.233, 45.006], [36.273, 45.041], [36.44, 45.066], [36.456, 45.085], [36.405, 45.152], [36.433, 45.275], [36.495, 45.29], [36.497, 45.341], [36.626, 45.334], [36.636, 45.38], [36.599, 45.424], [36.304, 45.437], [36.295, 45.468], [36.14, 45.461], [35.987, 45.358], [35.863, 45.404], [35.843, 45.441], [35.864, 45.458], [35.824, 45.468], [35.718, 45.336], [35.475, 45.291], [35.312, 45.383], [35.054, 45.654], [34.874, 45.924], [34.827, 46.069], [34.736, 46.108], [34.667, 46.094], [34.747, 46.01], [34.774, 46.038], [34.801, 46.009], [34.845, 45.907], [34.813, 45.813], [34.902, 45.837], [35.05, 45.614], [35.335, 45.337], [35.452, 45.273], [35.39, 45.252], [35.182, 45.337], [35.127, 45.326], [35.012, 45.419], [35.097, 45.471], [35.073, 45.548], [34.98, 45.656], [34.836, 45.7], [34.869, 45.736], [34.713, 45.722], [34.761, 45.766], [34.742, 45.811], [34.649, 45.786], [34.677, 45.842], [34.753, 45.854], [34.747, 45.896], [34.461, 45.767], [34.549, 45.861], [34.608, 45.881], [34.633, 45.942], [34.542, 45.966], [34.571, 45.917], [34.489, 45.874], [34.477, 45.929], [34.436, 45.925], [34.412, 45.857], [34.409, 45.891], [34.357, 45.884], [34.416, 45.946], [34.359, 45.978], [34.383, 45.989], [34.356, 46.019], [34.299, 45.995], [34.273, 46.046], [34.226, 46.001], [34.222, 46.034], [34.115, 46.055], [34.198, 45.995], [34.201, 45.948], [34.143, 45.938], [34.113, 45.978], [34.166, 45.994], [34.007, 46.099], [33.939, 46.09], [33.995, 46.069], [33.974, 46.017], [33.916, 46.056], [33.869, 46.031], [33.885, 46.072], [33.84, 46.109], [33.847, 46.159], [33.802, 46.173], [33.779, 46.119], [33.672, 46.221], [33.721, 46.212], [33.774, 46.248], [33.885, 46.231], [33.966, 46.21], [34.034, 46.132], [34.064, 46.152], [34.131, 46.117], [34.126, 46.159], [34.079, 46.184], [34.137, 46.204], [34.151, 46.146], [34.193, 46.171], [34.146, 46.225], [34.162, 46.282], [34.293, 46.164], [34.304, 46.096], [34.33, 46.167], [34.292, 46.188], [34.317, 46.214], [34.476, 46.14], [34.542, 46.187], [34.575, 46.152], [34.556, 46.092], [34.523, 46.124], [34.487, 46.094], [34.477, 46.121], [34.438, 46.086], [34.465, 46.032], [34.427, 46.047], [34.402, 46.014], [34.468, 46.001], [34.474, 45.958], [34.578, 45.991], [34.632, 46.075], [34.618, 46.145], [34.64, 46.174], [34.788, 46.14], [34.897, 46.255], [34.938, 46.227], [35.12, 46.299], [35.217, 46.405], [35.167, 46.475], [35.185, 46.506], [35.234, 46.445], [35.284, 46.434], [35.268, 46.345], [35.347, 46.344], [35.201, 46.182], [35.047, 46.139], [34.989, 46.074], [35.174, 46.136], [35.494, 46.449], [35.628, 46.489], [35.753, 46.589], [35.907, 46.651], [36.199, 46.666], [36.272, 46.603], [36.376, 46.709], [36.614, 46.775], [36.736, 46.766], [36.793, 46.729], [36.799, 46.683], [36.771, 46.638], [36.745, 46.644], [36.774, 46.63], [36.859, 46.797], [37.239, 46.934], [37.321, 46.902], [37.324, 46.872], [37.554, 47.086], [37.741, 47.069], [38.074, 47.095], [38.136, 47.059], [38.114, 47.022], [38.236, 47.109], [38.45, 47.134], [38.545, 47.22], [38.787, 47.257], [38.813, 47.285], [38.789, 47.245], [38.558, 47.215], [38.478, 47.133], [38.558, 47.111], [38.561, 47.134], [38.937, 47.18], [38.952, 47.254], [39.076, 47.281], [39.256, 47.261], [39.279, 47.226], [39.245, 47.146], [39.263, 47.093], [39.329, 47.13], [39.387, 47.113], [39.311, 47.089], [39.27, 47.008], [39.079, 47.029], [38.777, 46.882], [38.546, 46.842], [38.471, 46.86], [38.411, 46.828], [38.365, 46.749], [38.377, 46.709], [38.403, 46.741], [38.492, 46.737], [38.584, 46.693], [38.585, 46.653], [38.388, 46.653], [38.302, 46.677], [38.268, 46.726], [38.016, 46.619], [37.84, 46.624], [37.735, 46.669], [37.821, 46.484], [37.904, 46.402], [37.997, 46.344], [38.016, 46.366], [37.98, 46.396], [38.083, 46.392], [38.266, 46.275], [38.296, 46.217], [38.574, 46.082], [38.556, 46.029], [38.457, 46.025], [38.264, 46.134], [38.19, 46.127], [38.044, 45.854], [38.048, 45.812], [37.994, 45.827], [38.077, 45.933], [38.038, 45.961], [38.073, 46.026], [38.033, 46.025], [38.097, 46.051], [37.931, 46.017], [37.84, 45.767], [37.663, 45.669], [37.704, 45.619], [37.618, 45.635], [37.624, 45.667], [37.591, 45.627], [37.584, 45.426], [37.619, 45.414], [37.646, 45.449], [37.634, 45.549], [37.662, 45.557], [37.622, 45.569], [37.629, 45.607], [37.699, 45.561], [37.683, 45.487], [37.746, 45.442], [37.701, 45.449], [37.731, 45.417], [37.719, 45.383], [37.76, 45.398], [37.699, 45.339], [37.737, 45.299], [37.632, 45.327], [37.572, 45.292], [37.602, 45.327], [37.504, 45.33], [37.519, 45.363], [37.38, 45.306], [37.165, 45.327], [37.165, 45.3], [37.319, 45.272], [37.077, 45.236], [37.066, 45.257], [37.11, 45.267], [37.135, 45.334], [36.831, 45.437], [36.731, 45.403], [36.666, 45.328], [36.78, 45.385], [36.847, 45.36], [36.805, 45.31], [36.759, 45.356], [36.783, 45.292], [36.956, 45.313], [36.961, 45.275], [36.575, 45.185], [36.629, 45.125], [36.842, 45.102], [37.2, 44.982], [37.305, 44.91], [37.294, 44.865], [37.371, 44.747], [37.484, 44.671], [37.796, 44.632], [37.825, 44.652], [37.788, 44.725], [37.872, 44.689], [37.999, 44.546], [38.062, 44.553], [38.055, 44.52], [38.116, 44.489], [38.181, 44.397], [38.594, 44.331], [38.76, 44.27], [38.869, 44.174], [38.964, 44.148], [39.287, 43.927], [39.721, 43.564], [39.87, 43.495], [39.92, 43.409], [40.225, 43.314], [40.326, 43.142], [40.385, 43.166], [40.587, 43.083], [40.844, 43.068], [40.933, 42.972], [41.033, 42.973], [41.156, 42.789], [41.221, 42.799], [41.429, 42.738], [41.508, 42.611], [41.553, 42.386], [41.633, 42.272], [41.653, 42.141], [41.763, 41.992], [41.775, 41.886], [41.73, 41.726], [41.388, 41.373], [40.931, 41.187], [40.833, 41.195], [40.543, 41.029], [40.458, 41.042], [40.129, 40.916], [39.998, 40.976], [39.877, 40.954], [39.733, 41.014], [39.646, 41.002], [39.421, 41.109], [39.279, 41.05], [39.163, 41.083], [38.816, 41.01], [38.71, 40.95], [38.635, 40.974], [38.524, 40.921], [38.361, 40.909], [38.277, 40.951], [37.892, 40.983], [37.794, 41.046], [37.789, 41.116], [37.706, 41.112], [37.687, 41.137], [37.608, 41.048], [37.526, 41.03], [37.295, 41.144], [37.058, 41.167], [37.023, 41.267], [36.81, 41.356], [36.618, 41.375], [36.539, 41.272], [36.434, 41.241], [36.24, 41.356], [36.131, 41.464], [36.131, 41.599], [36.051, 41.692], [35.969, 41.731], [35.915, 41.642], [35.956, 41.735], [35.577, 41.627], [35.287, 41.713], [35.093, 41.923], [35.123, 42.009], [35.211, 42.021], [35.083, 42.022], [35.021, 42.09], [34.946, 42.093], [34.851, 41.979], [34.716, 41.942], [34.489, 41.974], [34.315, 41.941], [33.334, 42.02], [32.86, 41.861], [32.601, 41.832], [32.419, 41.739], [32.282, 41.723], [32.158, 41.607], [31.405, 41.313], [31.403, 41.197], [31.231, 41.089], [30.762, 41.085], [30.281, 41.212], [30.161, 41.141], [29.987, 41.139], [29.213, 41.237], [29.094, 41.182], [29.067, 41.09], [29.038, 41.157], [29.107, 41.21]], [[28.96306329113924, 44.68818987341772], [28.96, 44.69], [28.95918001350439, 44.689594463200535], [28.96306329113924, 44.68818987341772]], [[28.982, 44.677], [28.947, 44.628], [28.994, 44.677], [28.96306329113924, 44.68818987341772], [28.982, 44.677]]], [[[28.776843113032736, 44.60028474366893], [28.77726547455296, 44.59962585969738], [28.776, 44.599], [28.776843113032736, 44.60028474366893]]], [[[28.776843113032736, 44.60028474366893], [28.761, 44.625], [28.797, 44.631], [28.776843113032736, 44.60028474366893]]]]}}