{"type": "Feature", "properties": {"geometry_method": "Selected EEZ used as intended study envelope", "geometry_confidence": "low"}, "geometry": {"type": "MultiPolygon", "coordinates": [[[[69.30158460271717, -49.54708810209963], [69.295, -49.542], [69.29994557823129, -49.53375736961452], [69.30158460271717, -49.54708810209963]]], [[[69.291, -49.461], [69.322, -49.497], [69.29994557823129, -49.53375736961452], [69.291, -49.461]]], [[[69.87947058823528, -49.372823529411754], [69.871, -49.37], [69.87538551532032, -49.37058830083565], [69.87947058823528, -49.372823529411754]]], [[[64.551, -52.438], [63.929, -52.0], [63.452, -51.501], [63.13, -50.957], [62.968, -50.386], [62.966, -49.804], [63.119, -49.232], [63.415, -48.685], [63.574, -48.499], [63.715, -47.918], [63.997, -47.37], [64.408, -46.862], [65.136, -46.23], [65.756, -45.841], [66.456, -45.528], [67.216, -45.3], [68.016, -45.162], [68.836, -45.119], [69.658, -45.17], [70.456, -45.315], [71.881, -45.711], [72.715, -46.111], [73.563, -46.465], [74.207, -46.856], [74.748, -47.314], [75.168, -47.821], [75.457, -48.368], [75.654, -49.074], [75.65, -49.656], [75.602, -49.826], [72.475, -51.052], [71.208, -51.409], [69.734, -51.972], [68.092, -52.708], [67.056, -53.235], [66.154, -53.071], [65.303, -52.8], [64.551, -52.438]], [[69.789, -49.685], [69.796, -49.659], [69.754, -49.643], [69.75, -49.672], [69.789, -49.685]], [[69.726, -49.595], [69.736, -49.648], [69.759, -49.625], [69.726, -49.595]], [[69.508, -48.698], [69.486, -48.668], [69.471, -48.694], [69.508, -48.698]], [[69.142, -48.925], [69.139, -48.982], [69.21, -48.947], [69.202, -48.915], [69.243, -48.886], [69.208, -48.885], [69.209, -48.842], [69.142, -48.925]], [[69.442, -48.918], [69.411, -48.882], [69.409, -48.917], [69.442, -48.918]], [[69.64, -49.144], [69.597, -49.158], [69.634, -49.169], [69.509, -49.199], [69.641, -49.208], [69.663, -49.198], [69.638, -49.159], [69.67, -49.151], [69.64, -49.144]], [[69.706, -49.214], [69.688, -49.205], [69.667, -49.216], [69.706, -49.214]], [[69.926, -49.403], [69.933, -49.423], [69.959, -49.409], [69.926, -49.403]], [[69.898, -49.515], [69.815, -49.492], [69.843, -49.528], [70.001, -49.581], [69.898, -49.515]], [[69.844, -49.456], [69.867, -49.451], [69.842, -49.423], [69.802, -49.428], [69.888, -49.489], [69.906, -49.476], [69.844, -49.456]], [[68.6, -48.639], [68.659, -48.647], [68.676, -48.628], [68.6, -48.639]], [[68.78, -48.613], [68.815, -48.596], [68.798, -48.573], [68.759, -48.601], [68.78, -48.613]], [[69.347, -49.082], [69.279, -49.071], [69.342, -49.051], [69.315, -49.012], [69.409, -48.957], [69.404, -48.928], [69.301, -48.958], [69.377, -48.921], [69.351, -48.884], [69.272, -48.926], [69.192, -48.994], [69.205, -49.114], [69.347, -49.082]], [[69.69, -49.568], [69.62, -49.511], [69.625, -49.489], [69.704, -49.541], [69.667, -49.483], [69.763, -49.53], [69.766, -49.59], [69.856, -49.711], [69.955, -49.695], [70.078, -49.736], [70.126, -49.689], [70.157, -49.712], [70.248, -49.696], [70.223, -49.641], [70.139, -49.634], [70.29, -49.629], [70.318, -49.568], [70.14, -49.51], [70.007, -49.543], [70.023, -49.583], [70.135, -49.632], [70.099, -49.633], [69.782, -49.549], [69.807, -49.543], [69.771, -49.514], [69.8, -49.513], [69.766, -49.488], [69.786, -49.477], [69.607, -49.384], [69.733, -49.42], [69.814, -49.488], [69.749, -49.392], [69.923, -49.447], [69.876, -49.404], [69.92, -49.395], [69.87947058823528, -49.372823529411754], [69.931, -49.39], [69.953, -49.381], [69.87538551532032, -49.37058830083565], [69.814, -49.337], [69.991, -49.375], [70.23, -49.351], [70.279, -49.438], [70.442, -49.441], [70.303, -49.385], [70.336, -49.384], [70.318, -49.362], [70.342, -49.346], [70.445, -49.382], [70.537, -49.304], [70.556, -49.199], [70.512, -49.153], [70.518, -49.095], [70.319, -49.05], [70.239, -49.086], [70.216, -49.158], [70.185, -49.142], [70.136, -49.177], [70.146, -49.139], [70.071, -49.113], [70.04, -49.143], [69.982, -49.139], [69.929, -49.195], [69.878, -49.195], [69.884, -49.215], [69.851, -49.206], [69.854, -49.265], [69.797, -49.295], [69.789, -49.262], [69.706, -49.317], [69.57, -49.304], [69.706, -49.305], [69.692, -49.281], [69.731, -49.262], [69.4, -49.276], [69.544, -49.244], [69.441, -49.248], [69.522, -49.229], [69.413, -49.224], [69.445, -49.199], [69.356, -49.187], [69.442, -49.174], [69.46, -49.143], [69.409, -49.163], [69.432, -49.131], [69.295, -49.184], [69.351, -49.132], [69.338, -49.107], [69.531, -49.137], [69.653, -49.12], [69.561, -49.116], [69.656, -49.102], [69.571, -49.097], [69.664, -49.066], [69.56, -49.041], [69.608, -49.027], [69.552, -49.022], [69.602, -49.003], [69.549, -49.008], [69.629, -48.97], [69.548, -48.989], [69.589, -48.967], [69.568, -48.94], [69.482, -49.074], [69.437, -49.088], [69.469, -49.055], [69.441, -49.014], [69.438, -49.044], [69.412, -49.03], [69.339, -49.099], [69.219, -49.133], [69.154, -49.113], [69.191, -49.066], [69.097, -48.991], [69.037, -49.041], [69.076, -49.127], [68.989, -49.087], [69.016, -49.06], [69.002, -49.019], [69.031, -49.007], [68.995, -48.986], [69.036, -49.003], [69.113, -48.968], [69.102, -48.914], [69.035, -48.935], [69.137, -48.864], [69.149, -48.815], [69.119, -48.849], [69.098, -48.807], [69.18, -48.783], [69.17, -48.759], [69.018, -48.807], [69.014, -48.853], [69.003, -48.819], [68.938, -48.842], [68.967, -48.881], [68.92439534883721, -48.859697674418605], [68.959, -48.805], [69.124, -48.731], [68.968, -48.769], [69.077, -48.719], [68.972, -48.732], [69.073, -48.691], [69.024, -48.679], [69.06, -48.672], [69.034, -48.66], [69.006, -48.682], [68.944, -48.666], [68.967, -48.696], [68.921, -48.704], [68.953, -48.714], [68.9, -48.722], [68.95, -48.753], [68.933, -48.775], [68.902, -48.777], [68.888, -48.824], [68.781, -48.846], [68.887, -48.992], [68.847, -48.956], [68.804, -48.962], [68.782, -49.017], [68.821, -49.055], [68.761, -49.028], [68.725, -49.086], [68.78, -49.095], [68.765, -49.126], [68.856, -49.11], [68.785, -49.132], [68.81, -49.162], [68.928, -49.146], [68.859, -49.171], [68.885, -49.189], [68.78, -49.169], [68.79, -49.201], [68.752, -49.204], [68.777, -49.248], [68.851, -49.275], [68.808, -49.279], [68.808, -49.307], [68.879, -49.323], [68.915, -49.291], [68.922, -49.327], [68.804, -49.349], [68.668, -49.321], [68.643, -49.348], [68.775, -49.373], [68.808, -49.351], [68.811, -49.388], [68.889, -49.369], [68.835, -49.403], [68.895, -49.413], [68.914, -49.462], [68.816, -49.484], [68.814, -49.511], [68.843, -49.506], [68.762, -49.608], [68.783, -49.645], [68.729, -49.664], [68.773, -49.73], [69.085, -49.691], [69.065, -49.54], [69.09, -49.544], [69.114, -49.646], [69.148, -49.629], [69.123, -49.6], [69.183, -49.591], [69.12, -49.582], [69.169, -49.565], [69.114, -49.517], [69.217, -49.585], [69.148, -49.51], [69.19, -49.525], [69.184, -49.496], [69.088, -49.485], [69.116, -49.473], [69.23, -49.482], [69.254, -49.569], [69.306, -49.583], [69.30158460271717, -49.54708810209963], [69.427, -49.644], [69.595, -49.642], [69.643, -49.674], [69.702, -49.619], [69.69, -49.568]]], [[[68.917, -48.856], [68.92439534883721, -48.859697674418605], [68.897, -48.903], [68.917, -48.856]]]]}}