{"type": "Feature", "properties": {"geometry_method": "Selected ecosystem polygon used as intended study envelope, not a recovered author boundary", "geometry_confidence": "low"}, "geometry": {"type": "MultiPolygon", "coordinates": [[[[-20.745, 31.19], [-21.055, 31.78], [-21.234, 32.424], [-21.264, 33.087], [-21.139, 33.742], [-20.86, 34.363], [-20.435, 34.927], [-20.078, 35.258], [-19.793, 35.474], [-19.125, 35.854], [-18.632, 36.042], [-17.599, 36.332], [-16.909, 36.472], [-16.088, 36.508], [-15.275, 36.408], [-14.506, 36.177], [-14.033, 35.955], [-13.604, 35.683], [-13.055, 35.194], [-12.763, 34.821], [-12.657, 34.618], [-12.59, 34.415], [-12.735, 33.199], [-13.04, 32.289], [-13.348, 32.117], [-13.872, 31.736], [-14.629, 29.927], [-14.738, 29.715], [-14.978, 29.379], [-15.114, 29.245], [-16.233, 29.309], [-16.889, 29.399], [-18.202, 30.871], [-19.594, 31.053], [-20.095, 31.16], [-20.745, 31.19]], [[-16.321, 33.108], [-16.393, 33.033], [-16.292, 33.06], [-16.321, 33.108]], [[-16.758, 32.757], [-16.822, 32.768], [-16.904, 32.837], [-17.052, 32.808], [-17.165, 32.869], [-17.266, 32.814], [-17.192, 32.724], [-16.946, 32.633], [-16.831, 32.64], [-16.746, 32.735], [-16.679, 32.739], [-16.758, 32.757]]]]}}