{
  "type": "Feature",
  "properties": {
    "article_id": "CAN-2014",
    "unit_id": "LME_027",
    "geometry_method": "reported/inferred bounding box shown against the target polygon"
  },
  "geometry": {
    "type": "Polygon",
    "coordinates": [
      [
        [
          -18.5,
          16
        ],
        [
          -15,
          16
        ],
        [
          -15,
          21.5
        ],
        [
          -18.5,
          21.5
        ],
        [
          -18.5,
          16
        ]
      ]
    ]
  }
}