{
  "type": "Feature",
  "properties": {
    "article_id": "SWP-2013",
    "unit_id": "HS_081",
    "geometry_method": "published/inferred bounding box; not a clipped or exact author polygon"
  },
  "geometry": {
    "type": "Polygon",
    "coordinates": [
      [
        [
          140,
          -48
        ],
        [
          150,
          -48
        ],
        [
          150,
          -39
        ],
        [
          140,
          -39
        ],
        [
          140,
          -48
        ]
      ]
    ]
  }
}