{
  "type": "Feature",
  "properties": {
    "article_id": "ARAB-2005",
    "unit_id": "LME_032",
    "geometry_method": "reported/inferred bounding box shown against the target polygon"
  },
  "geometry": {
    "type": "Polygon",
    "coordinates": [
      [
        [
          72,
          7.5
        ],
        [
          78,
          7.5
        ],
        [
          78,
          16
        ],
        [
          72,
          16
        ],
        [
          72,
          7.5
        ]
      ]
    ]
  }
}