{
  "type": "Feature",
  "properties": {
    "article_id": "NOR-2016",
    "unit_id": "LME_021",
    "geometry_method": "target polygon used as intended model envelope"
  },
  "geometry": {
    "type": "MultiPolygon",
    "coordinates": [
      [
        [
          [
            5.680955456570157,
            62.12723942093541
          ],
          [
            5.746,
            62.087
          ],
          [
            5.681,
            62.127
          ],
          [
            5.680955456570157,
            62.12723942093541
          ]
        ]
      ],
      [
        [
          [
            6.561859247135842,
            62.150456628477905
          ],
          [
            6.582,
            62.126
          ],
          [
            6.529,
            62.106
          ],
          [
            6.561859247135842,
            62.150456628477905
          ]
        ]
      ],
      [
        [
          [
            6.561859247135842,
            62.150456628477905
          ],
          [
            6.55698666666666,
            62.15637333333334
          ],
          [
            6.563,
            62.152
          ],
          [
            6.561859247135842,
            62.150456628477905
          ]
        ]
      ],
      [
        [
          [
            14.351,
            67.151
          ],
          [
            14.265,
            67.079
          ],
          [
            14.563,
            67.056
          ],
          [
            14.596,
            67.042
          ],
          [
            14.575,
            67.016
          ],
          [
            14.526,
            67.045
          ],
          [
            14.257,
            67.058
          ],
          [
            14.273,
            67.02
          ],
          [
            14.227,
            66.978
          ],
          [
            14.131,
            66.948
          ],
          [
            14.152,
            66.971
          ],
          [
            14.055,
            67.057
          ],
          [
            14.016,
            67.016
          ],
          [
            14.046,
            66.977
          ],
          [
            13.934,
            66.932
          ],
          [
            13.957,
            66.92
          ],
          [
            13.89,
            66.951
          ],
          [
            13.972,
            66.988
          ],
          [
            13.948,
            66.993
          ],
          [
            13.758,
            66.963
          ],
          [
            13.783,
            66.946
          ],
          [
            13.756,
            66.937
          ],
          [
            13.566,
            66.933
          ],
          [
            13.521,
            66.899
          ],
          [
            13.623,
            66.897
          ],
          [
            13.704,
            66.827
          ],
          [
            13.991,
            66.787
          ],
          [
            13.511,
            66.79
          ],
          [
            13.754,
            66.756
          ],
          [
            13.565,
            66.756
          ],
          [
            13.55,
            66.711
          ],
          [
            13.884,
            66.725
          ],
          [
            13.562,
            66.685
          ],
          [
            13.279,
            66.721
          ],
          [
            13.228,
            66.712
          ],
          [
            13.547,
            66.637
          ],
          [
            13.173,
            66.651
          ],
          [
            13.405,
            66.619
          ],
          [
            13.232,
            66.601
          ],
          [
            13.205,
            66.555
          ],
          [
            13.261,
            66.541
          ],
          [
            13.414,
            66.554
          ],
          [
            13.528,
            66.607
          ],
          [
            13.726,
            66.602
          ],
          [
            13.566,
            66.599
          ],
          [
            13.457,
            66.559
          ],
          [
            13.668,
            66.512
          ],
          [
            13.485,
            66.543
          ],
          [
            13.322,
            66.534
          ],
          [
            13.261,
            66.517
          ],
          [
            13.294,
            66.499
          ],
          [
            13.267,
            66.461
          ],
          [
            13.397,
            66.461
          ],
          [
            13.239,
            66.448
          ],
          [
            13.208,
            66.512
          ],
          [
            13.108,
            66.537
          ],
          [
            12.97,
            66.518
          ],
          [
            13.166,
            66.462
          ],
          [
            13.104,
            66.451
          ],
          [
            13.167,
            66.4
          ],
          [
            13.007,
            66.356
          ],
          [
            13.023,
            66.322
          ],
          [
            13.254,
            66.301
          ],
          [
            13.334,
            66.322
          ],
          [
            13.311,
            66.374
          ],
          [
            13.365,
            66.331
          ],
          [
            13.45,
            66.334
          ],
          [
            13.405,
            66.314
          ],
          [
            13.536,
            66.304
          ],
          [
            13.216,
            66.275
          ],
          [
            13.024,
            66.191
          ],
          [
            13.049,
            66.176
          ],
          [
            13.578,
            66.282
          ],
          [
            13.62,
            66.275
          ],
          [
            13.573,
            66.251
          ],
          [
            13.639,
            66.239
          ],
          [
            13.719,
            66.252
          ],
          [
            13.748,
            66.291
          ],
          [
            13.901,
            66.267
          ],
          [
            14.119,
            66.338
          ],
          [
            14.147,
            66.322
          ],
          [
            13.986,
            66.239
          ],
          [
            13.785,
            66.194
          ],
          [
            13.761,
            66.199
          ],
          [
            13.81,
            66.229
          ],
          [
            13.68,
            66.232
          ],
          [
            13.61,
            66.189
          ],
          [
            13.78,
            66.177
          ],
          [
            13.834,
            66.146
          ],
          [
            13.643,
            66.155
          ],
          [
            13.538,
            66.102
          ],
          [
            13.528,
            66.128
          ],
          [
            13.581,
            66.18
          ],
          [
            13.494,
            66.187
          ],
          [
            13.581,
            66.227
          ],
          [
            13.312,
            66.221
          ],
          [
            13.081,
            66.138
          ],
          [
            12.834,
            66.127
          ],
          [
            12.674,
            66.067
          ],
          [
            12.728,
            66.039
          ],
          [
            13.04,
            66.078
          ],
          [
            12.959,
            66.042
          ],
          [
            12.968,
            66.007
          ],
          [
            12.924,
            65.982
          ],
          [
            13.122,
            65.94
          ],
          [
            13.175,
            65.849
          ],
          [
            13.031,
            65.925
          ],
          [
            12.828,
            65.968
          ],
          [
            12.674,
            65.921
          ],
          [
            12.608,
            65.824
          ],
          [
            12.691,
            65.838
          ],
          [
            12.716,
            65.787
          ],
          [
            12.654,
            65.806
          ],
          [
            12.551,
            65.749
          ],
          [
            12.654,
            65.701
          ],
          [
            12.668,
            65.658
          ],
          [
            12.789,
            65.636
          ],
          [
            12.615,
            65.647
          ],
          [
            12.633,
            65.681
          ],
          [
            12.508,
            65.729
          ],
          [
            12.361,
            65.648
          ],
          [
            12.356,
            65.59
          ],
          [
            12.416,
            65.591
          ],
          [
            12.39,
            65.546
          ],
          [
            12.452,
            65.525
          ],
          [
            12.536,
            65.583
          ],
          [
            12.468,
            65.519
          ],
          [
            12.512,
            65.511
          ],
          [
            12.576,
            65.589
          ],
          [
            12.585,
            65.532
          ],
          [
            12.618,
            65.525
          ],
          [
            12.562,
            65.504
          ],
          [
            12.655,
            65.479
          ],
          [
            12.608,
            65.459
          ],
          [
            12.778,
            65.453
          ],
          [
            12.632,
            65.429
          ],
          [
            12.708,
            65.364
          ],
          [
            12.601,
            65.428
          ],
          [
            12.568,
            65.414
          ],
          [
            12.556,
            65.447
          ],
          [
            12.481,
            65.443
          ],
          [
            12.541,
            65.364
          ],
          [
            12.688,
            65.327
          ],
          [
            12.498,
            65.365
          ],
          [
            12.411,
            65.325
          ],
          [
            12.478,
            65.332
          ],
          [
            12.461,
            65.317
          ],
          [
            12.344,
            65.296
          ],
          [
            12.249,
            65.229
          ],
          [
            12.424,
            65.272
          ],
          [
            12.711,
            65.249
          ],
          [
            12.428624013854147,
            65.22764383298056
          ],
          [
            12.497,
            65.193
          ],
          [
            12.366,
            65.161
          ],
          [
            12.477,
            65.133
          ],
          [
            12.688,
            65.199
          ],
          [
            12.922,
            65.328
          ],
          [
            12.94,
            65.308
          ],
          [
            12.786,
            65.206
          ],
          [
            12.601,
            65.136
          ],
          [
            12.626,
            65.123
          ],
          [
            12.193,
            65.047
          ],
          [
            12.187,
            64.99
          ],
          [
            12.149,
            65.039
          ],
          [
            12.047,
            65.056
          ],
          [
            12.019,
            65.026
          ],
          [
            11.975,
            65.066
          ],
          [
            11.81,
            65.011
          ],
          [
            11.818,
            64.975
          ],
          [
            11.478,
            64.928
          ],
          [
            11.536,
            64.904
          ],
          [
            11.596,
            64.922
          ],
          [
            11.539,
            64.889
          ],
          [
            11.439,
            64.925
          ],
          [
            11.297,
            64.884
          ],
          [
            11.246,
            64.856
          ],
          [
            11.701,
            64.907
          ],
          [
            11.267,
            64.839
          ],
          [
            11.234,
            64.816
          ],
          [
            11.433,
            64.809
          ],
          [
            11.236,
            64.734
          ],
          [
            11.376,
            64.746
          ],
          [
            11.469,
            64.809
          ],
          [
            11.611,
            64.837
          ],
          [
            11.612,
            64.864
          ],
          [
            12.035,
            64.97
          ],
          [
            12.224,
            64.937
          ],
          [
            12.081,
            64.959
          ],
          [
            11.733,
            64.876
          ],
          [
            11.652,
            64.841
          ],
          [
            11.788,
            64.856
          ],
          [
            11.785,
            64.834
          ],
          [
            11.643,
            64.818
          ],
          [
            11.841,
            64.793
          ],
          [
            11.592,
            64.771
          ],
          [
            11.552,
            64.762
          ],
          [
            11.618,
            64.734
          ],
          [
            11.523,
            64.744
          ],
          [
            11.403,
            64.707
          ],
          [
            11.416,
            64.633
          ],
          [
            11.524,
            64.564
          ],
          [
            11.59,
            64.579
          ],
          [
            11.554,
            64.599
          ],
          [
            11.602,
            64.621
          ],
          [
            11.636,
            64.612
          ],
          [
            11.629,
            64.583
          ],
          [
            11.777,
            64.591
          ],
          [
            11.504,
            64.542
          ],
          [
            11.542,
            64.519
          ],
          [
            11.463,
            64.507
          ],
          [
            11.439,
            64.465
          ],
          [
            11.656,
            64.473
          ],
          [
            11.409,
            64.446
          ],
          [
            11.365,
            64.414
          ],
          [
            11.391,
            64.392
          ],
          [
            11.233,
            64.316
          ],
          [
            11.338,
            64.43
          ],
          [
            11.163,
            64.443
          ],
          [
            11.179,
            64.482
          ],
          [
            11.067,
            64.517
          ],
          [
            11.062,
            64.569
          ],
          [
            10.972,
            64.601
          ],
          [
            10.916,
            64.579
          ],
          [
            10.961,
            64.544
          ],
          [
            10.966,
            64.503
          ],
          [
            10.92,
            64.503
          ],
          [
            10.959,
            64.48
          ],
          [
            10.886,
            64.47
          ],
          [
            10.814,
            64.508
          ],
          [
            10.839,
            64.466
          ],
          [
            10.658,
            64.45
          ],
          [
            10.791,
            64.438
          ],
          [
            10.787,
            64.404
          ],
          [
            10.846,
            64.369
          ],
          [
            10.608,
            64.448
          ],
          [
            10.574,
            64.431
          ],
          [
            10.631,
            64.393
          ],
          [
            10.484,
            64.42
          ],
          [
            10.461,
            64.403
          ],
          [
            10.561,
            64.401
          ],
          [
            10.652,
            64.353
          ],
          [
            10.505,
            64.367
          ],
          [
            10.563,
            64.331
          ],
          [
            10.478,
            64.356
          ],
          [
            10.443,
            64.306
          ],
          [
            10.492,
            64.293
          ],
          [
            10.251,
            64.242
          ],
          [
            10.375,
            64.185
          ],
          [
            10.171,
            64.195
          ],
          [
            10.195,
            64.154
          ],
          [
            10.109,
            64.121
          ],
          [
            10.22,
            64.116
          ],
          [
            10.203,
            64.102
          ],
          [
            10.103,
            64.086
          ],
          [
            10.007,
            64.111
          ],
          [
            10.015,
            64.033
          ],
          [
            9.934,
            63.956
          ],
          [
            10.12,
            63.985
          ],
          [
            9.945,
            63.917
          ],
          [
            10.142,
            63.96
          ],
          [
            10.19,
            63.931
          ],
          [
            9.801,
            63.881
          ],
          [
            9.873,
            63.861
          ],
          [
            9.544,
            63.764
          ],
          [
            9.779,
            63.77
          ],
          [
            9.558,
            63.724
          ],
          [
            9.571,
            63.697
          ],
          [
            9.539,
            63.668
          ],
          [
            9.56,
            63.659
          ],
          [
            10.033,
            63.781
          ],
          [
            10.003,
            63.743
          ],
          [
            10.098,
            63.762
          ],
          [
            9.808,
            63.691
          ],
          [
            9.789,
            63.662
          ],
          [
            9.836,
            63.648
          ],
          [
            9.807,
            63.625
          ],
          [
            9.831,
            63.602
          ],
          [
            9.904,
            63.588
          ],
          [
            9.92,
            63.506
          ],
          [
            10.048,
            63.496
          ],
          [
            10.404,
            63.57
          ],
          [
            10.642,
            63.671
          ],
          [
            10.942,
            63.738
          ],
          [
            11.077,
            63.837
          ],
          [
            11.027,
            63.876
          ],
          [
            10.893,
            63.893
          ],
          [
            10.574,
            63.805
          ],
          [
            11.18,
            64.008
          ],
          [
            11.219,
            64.071
          ],
          [
            11.306,
            64.116
          ],
          [
            11.358,
            64.111
          ],
          [
            11.242,
            64.06
          ],
          [
            11.248,
            64.033
          ],
          [
            11.493,
            64.019
          ],
          [
            11.436,
            63.978
          ],
          [
            11.265,
            63.961
          ],
          [
            11.091,
            63.878
          ],
          [
            11.115,
            63.844
          ],
          [
            11.267,
            63.868
          ],
          [
            11.415,
            63.846
          ],
          [
            11.456,
            63.787
          ],
          [
            11.254,
            63.768
          ],
          [
            11.156,
            63.706
          ],
          [
            10.959,
            63.699
          ],
          [
            10.721,
            63.605
          ],
          [
            10.659,
            63.55
          ],
          [
            10.922,
            63.598
          ],
          [
            10.852,
            63.568
          ],
          [
            10.92,
            63.553
          ],
          [
            10.76,
            63.51
          ],
          [
            10.91,
            63.451
          ],
          [
            10.793,
            63.415
          ],
          [
            10.7,
            63.444
          ],
          [
            10.373,
            63.437
          ],
          [
            10.292,
            63.464
          ],
          [
            10.047,
            63.406
          ],
          [
            10.083,
            63.358
          ],
          [
            10.264,
            63.333
          ],
          [
            10.263,
            63.261
          ],
          [
            10.235,
            63.327
          ],
          [
            10.0,
            63.358
          ],
          [
            9.846,
            63.32
          ],
          [
            9.96,
            63.436
          ],
          [
            9.809,
            63.513
          ],
          [
            9.816,
            63.541
          ],
          [
            9.701,
            63.641
          ],
          [
            9.492,
            63.587
          ],
          [
            9.547,
            63.586
          ],
          [
            9.563,
            63.536
          ],
          [
            9.535,
            63.569
          ],
          [
            9.469,
            63.567
          ],
          [
            9.409,
            63.509
          ],
          [
            9.375,
            63.521
          ],
          [
            9.372,
            63.562
          ],
          [
            9.15,
            63.484
          ],
          [
            9.216,
            63.453
          ],
          [
            9.291,
            63.458
          ],
          [
            9.266,
            63.498
          ],
          [
            9.332,
            63.462
          ],
          [
            9.482,
            63.48
          ],
          [
            9.189,
            63.432
          ],
          [
            9.162,
            63.391
          ],
          [
            9.225,
            63.368
          ],
          [
            9.479,
            63.403
          ],
          [
            9.428,
            63.377
          ],
          [
            9.231,
            63.354
          ],
          [
            9.092,
            63.292
          ],
          [
            9.1,
            63.346
          ],
          [
            9.146,
            63.374
          ],
          [
            9.005,
            63.467
          ],
          [
            8.961,
            63.435
          ],
          [
            8.998,
            63.419
          ],
          [
            8.974,
            63.411
          ],
          [
            8.907,
            63.423
          ],
          [
            8.88,
            63.395
          ],
          [
            8.821,
            63.429
          ],
          [
            8.644,
            63.406
          ],
          [
            8.703,
            63.352
          ],
          [
            8.764,
            63.345
          ],
          [
            8.478,
            63.294
          ],
          [
            8.625,
            63.198
          ],
          [
            8.938,
            63.207
          ],
          [
            8.569,
            63.163
          ],
          [
            8.633,
            63.104
          ],
          [
            8.532,
            63.136
          ],
          [
            8.24,
            63.146
          ],
          [
            8.316,
            63.114
          ],
          [
            8.325,
            63.082
          ],
          [
            8.284,
            63.074
          ],
          [
            8.228,
            63.13
          ],
          [
            8.159,
            63.12
          ],
          [
            8.226,
            63.028
          ],
          [
            8.47,
            63.019
          ],
          [
            8.321,
            62.995
          ],
          [
            8.374,
            62.971
          ],
          [
            8.577,
            63.021
          ],
          [
            8.515,
            62.983
          ],
          [
            8.664,
            62.982
          ],
          [
            8.416,
            62.948
          ],
          [
            8.482,
            62.897
          ],
          [
            8.624,
            62.879
          ],
          [
            8.699,
            62.82
          ],
          [
            8.481,
            62.888
          ],
          [
            8.431,
            62.891
          ],
          [
            8.539,
            62.844
          ],
          [
            8.4,
            62.885
          ],
          [
            8.333,
            62.875
          ],
          [
            8.307,
            62.938
          ],
          [
            8.339,
            62.961
          ],
          [
            8.138,
            63.036
          ],
          [
            8.089,
            63.107
          ],
          [
            7.982,
            63.084
          ],
          [
            7.879,
            63.011
          ],
          [
            7.952,
            62.998
          ],
          [
            7.971,
            63.01
          ],
          [
            7.947,
            63.024
          ],
          [
            7.982,
            63.025
          ],
          [
            8.141,
            62.952
          ],
          [
            8.208,
            62.908
          ],
          [
            8.169,
            62.885
          ],
          [
            8.184,
            62.841
          ],
          [
            8.552,
            62.717
          ],
          [
            8.57,
            62.673
          ],
          [
            8.548,
            62.654
          ],
          [
            8.489,
            62.717
          ],
          [
            8.162,
            62.81
          ],
          [
            8.086,
            62.939
          ],
          [
            8.002,
            62.97
          ],
          [
            7.677,
            62.908
          ],
          [
            7.787,
            62.967
          ],
          [
            7.682,
            62.974
          ],
          [
            7.461,
            62.911
          ],
          [
            7.258,
            63.012
          ],
          [
            6.882,
            62.916
          ],
          [
            6.952,
            62.899
          ],
          [
            7.003,
            62.839
          ],
          [
            7.144,
            62.847
          ],
          [
            7.212,
            62.811
          ],
          [
            7.022,
            62.819
          ],
          [
            6.975,
            62.799
          ],
          [
            6.956,
            62.764
          ],
          [
            6.986,
            62.744
          ],
          [
            6.95,
            62.726
          ],
          [
            7.626,
            62.795
          ],
          [
            7.681,
            62.791
          ],
          [
            7.454,
            62.755
          ],
          [
            7.368,
            62.726
          ],
          [
            7.409,
            62.709
          ],
          [
            7.359,
            62.686
          ],
          [
            7.495,
            62.68
          ],
          [
            8.063,
            62.775
          ],
          [
            8.047,
            62.748
          ],
          [
            8.145,
            62.69
          ],
          [
            8.001,
            62.736
          ],
          [
            7.825,
            62.73
          ],
          [
            7.507,
            62.66
          ],
          [
            7.525,
            62.583
          ],
          [
            7.489,
            62.633
          ],
          [
            7.409,
            62.623
          ],
          [
            7.474,
            62.566
          ],
          [
            7.78,
            62.572
          ],
          [
            7.575,
            62.547
          ],
          [
            7.539,
            62.499
          ],
          [
            7.507,
            62.543
          ],
          [
            7.439,
            62.539
          ],
          [
            7.344,
            62.598
          ],
          [
            7.161,
            62.627
          ],
          [
            7.129,
            62.528
          ],
          [
            7.1,
            62.609
          ],
          [
            7.037,
            62.611
          ],
          [
            7.09,
            62.648
          ],
          [
            6.902,
            62.646
          ],
          [
            6.926,
            62.612
          ],
          [
            6.902,
            62.568
          ],
          [
            6.757,
            62.653
          ],
          [
            6.622,
            62.617
          ],
          [
            6.612,
            62.561
          ],
          [
            6.544,
            62.612
          ],
          [
            6.326,
            62.607
          ],
          [
            6.247,
            62.575
          ],
          [
            6.264,
            62.521
          ],
          [
            6.543,
            62.531
          ],
          [
            6.563,
            62.526
          ],
          [
            6.476,
            62.514
          ],
          [
            6.676,
            62.496
          ],
          [
            6.437,
            62.493
          ],
          [
            6.231,
            62.451
          ],
          [
            6.394,
            62.419
          ],
          [
            6.781,
            62.478
          ],
          [
            6.757,
            62.46
          ],
          [
            6.85,
            62.452
          ],
          [
            6.974,
            62.374
          ],
          [
            6.915,
            62.362
          ],
          [
            6.975,
            62.31
          ],
          [
            7.317,
            62.289
          ],
          [
            7.416,
            62.232
          ],
          [
            7.306,
            62.277
          ],
          [
            7.219,
            62.251
          ],
          [
            7.023,
            62.265
          ],
          [
            7.036,
            62.18
          ],
          [
            6.97,
            62.114
          ],
          [
            7.039,
            62.098
          ],
          [
            7.139,
            62.126
          ],
          [
            7.189,
            62.096
          ],
          [
            6.956,
            62.099
          ],
          [
            6.943,
            62.141
          ],
          [
            7.009,
            62.186
          ],
          [
            6.99,
            62.276
          ],
          [
            6.879,
            62.347
          ],
          [
            6.883,
            62.411
          ],
          [
            6.697,
            62.445
          ],
          [
            6.547,
            62.406
          ],
          [
            6.568,
            62.354
          ],
          [
            6.485,
            62.398
          ],
          [
            6.386,
            62.364
          ],
          [
            6.55698666666666,
            62.15637333333334
          ],
          [
            6.398,
            62.272
          ],
          [
            6.324,
            62.366
          ],
          [
            6.284,
            62.369
          ],
          [
            5.947,
            62.252
          ],
          [
            6.061,
            62.2
          ],
          [
            5.918,
            62.209
          ],
          [
            6.09,
            62.104
          ],
          [
            6.365,
            62.059
          ],
          [
            6.15,
            62.086
          ],
          [
            6.052,
            62.067
          ],
          [
            5.965,
            62.138
          ],
          [
            5.844,
            62.018
          ],
          [
            5.92,
            62.114
          ],
          [
            5.924,
            62.167
          ],
          [
            5.882,
            62.195
          ],
          [
            5.673,
            62.17
          ],
          [
            5.680955456570157,
            62.12723942093541
          ],
          [
            5.628,
            62.16
          ],
          [
            5.415,
            62.176
          ],
          [
            5.389,
            62.117
          ],
          [
            5.594,
            62.074
          ],
          [
            5.535,
            62.078
          ],
          [
            5.464,
            62.006
          ],
          [
            5.447,
            62.057
          ],
          [
            5.281,
            62.125
          ],
          [
            5.277,
            62.164
          ],
          [
            5.161,
            62.214
          ],
          [
            5.082,
            62.183
          ],
          [
            5.074,
            62.153
          ],
          [
            5.125,
            62.129
          ],
          [
            5.093,
            62.112
          ],
          [
            5.404,
            62.016
          ],
          [
            -3.756,
            62.007
          ],
          [
            -4.21,
            63.001
          ],
          [
            -7.74,
            63.013
          ],
          [
            -7.952,
            70.019
          ],
          [
            8.014,
            73.531
          ],
          [
            8.327,
            77.004
          ],
          [
            10.306,
            77.005
          ],
          [
            17.046,
            74.005
          ],
          [
            17.033,
            70.014
          ],
          [
            12.01,
            68.73
          ],
          [
            11.99,
            67.755
          ],
          [
            14.514,
            67.15
          ],
          [
            14.416,
            67.106
          ],
          [
            14.448,
            67.164
          ],
          [
            14.351,
            67.151
          ]
        ],
        [
          [
            12.422,
            65.231
          ],
          [
            12.354,
            65.222
          ],
          [
            12.428624013854147,
            65.22764383298056
          ],
          [
            12.422,
            65.231
          ]
        ],
        [
          [
            13.991,
            67.079
          ],
          [
            14.09,
            67.066
          ],
          [
            14.153,
            67.001
          ],
          [
            14.192,
            66.999
          ],
          [
            14.216,
            67.034
          ],
          [
            14.195,
            67.081
          ],
          [
            14.27,
            67.168
          ],
          [
            14.159,
            67.106
          ],
          [
            14.065,
            67.132
          ],
          [
            13.991,
            67.079
          ]
        ],
        [
          [
            12.433,
            66.083
          ],
          [
            12.292,
            66.013
          ],
          [
            12.657,
            66.105
          ],
          [
            12.547,
            66.129
          ],
          [
            12.616,
            66.155
          ],
          [
            12.576,
            66.216
          ],
          [
            12.434,
            66.166
          ],
          [
            12.577,
            66.153
          ],
          [
            12.343,
            66.078
          ],
          [
            12.433,
            66.083
          ]
        ],
        [
          [
            12.534,
            66.0
          ],
          [
            12.372,
            65.888
          ],
          [
            12.481,
            65.893
          ],
          [
            12.429,
            65.867
          ],
          [
            12.487,
            65.87
          ],
          [
            12.675,
            65.955
          ],
          [
            12.904,
            66.009
          ],
          [
            12.839,
            66.02
          ],
          [
            12.621,
            65.97
          ],
          [
            12.646,
            66.016
          ],
          [
            12.534,
            66.0
          ]
        ],
        [
          [
            11.911,
            65.584
          ],
          [
            12.007,
            65.685
          ],
          [
            11.831,
            65.691
          ],
          [
            11.759,
            65.617
          ],
          [
            11.778,
            65.605
          ],
          [
            11.863,
            65.612
          ],
          [
            11.853,
            65.593
          ],
          [
            11.911,
            65.584
          ]
        ],
        [
          [
            12.325,
            65.466
          ],
          [
            12.174,
            65.403
          ],
          [
            12.165,
            65.381
          ],
          [
            12.21,
            65.381
          ],
          [
            12.187,
            65.347
          ],
          [
            12.122,
            65.357
          ],
          [
            12.078,
            65.302
          ],
          [
            12.123,
            65.297
          ],
          [
            12.063,
            65.21
          ],
          [
            12.241,
            65.273
          ],
          [
            12.212,
            65.326
          ],
          [
            12.335,
            65.327
          ],
          [
            12.503,
            65.392
          ],
          [
            12.291,
            65.571
          ],
          [
            12.25,
            65.572
          ],
          [
            12.205,
            65.487
          ],
          [
            12.23,
            65.463
          ],
          [
            12.316,
            65.488
          ],
          [
            12.325,
            65.466
          ]
        ],
        [
          [
            11.982,
            65.076
          ],
          [
            12.156,
            65.051
          ],
          [
            12.317,
            65.104
          ],
          [
            12.229,
            65.113
          ],
          [
            12.272,
            65.152
          ],
          [
            12.196,
            65.206
          ],
          [
            12.098,
            65.162
          ],
          [
            12.087,
            65.131
          ],
          [
            12.126,
            65.126
          ],
          [
            11.982,
            65.076
          ]
        ],
        [
          [
            11.984,
            65.124
          ],
          [
            11.993,
            65.154
          ],
          [
            11.865,
            65.118
          ],
          [
            11.732,
            65.017
          ],
          [
            11.859,
            65.051
          ],
          [
            11.978,
            65.094
          ],
          [
            11.896,
            65.092
          ],
          [
            11.984,
            65.124
          ]
        ],
        [
          [
            10.816,
            64.864
          ],
          [
            11.116,
            64.971
          ],
          [
            11.03,
            64.986
          ],
          [
            10.867,
            64.927
          ],
          [
            10.753,
            64.908
          ],
          [
            10.714,
            64.861
          ],
          [
            10.816,
            64.864
          ]
        ],
        [
          [
            11.129,
            64.829
          ],
          [
            11.266,
            64.888
          ],
          [
            11.106,
            64.95
          ],
          [
            10.825,
            64.85
          ],
          [
            11.086,
            64.898
          ],
          [
            11.049,
            64.848
          ],
          [
            11.129,
            64.829
          ]
        ],
        [
          [
            11.186,
            64.504
          ],
          [
            11.418,
            64.472
          ],
          [
            11.454,
            64.514
          ],
          [
            11.287,
            64.539
          ],
          [
            11.259,
            64.596
          ],
          [
            11.087,
            64.65
          ],
          [
            11.038,
            64.604
          ],
          [
            11.224,
            64.572
          ],
          [
            11.13,
            64.559
          ],
          [
            11.186,
            64.504
          ]
        ],
        [
          [
            8.727,
            63.766
          ],
          [
            8.27,
            63.679
          ],
          [
            8.525,
            63.685
          ],
          [
            8.474,
            63.662
          ],
          [
            8.775,
            63.693
          ],
          [
            8.828,
            63.729
          ],
          [
            8.808,
            63.81
          ],
          [
            8.77,
            63.805
          ],
          [
            8.673,
            63.771
          ],
          [
            8.747,
            63.771
          ],
          [
            8.727,
            63.766
          ]
        ],
        [
          [
            8.801,
            63.639
          ],
          [
            8.568,
            63.609
          ],
          [
            8.547,
            63.598
          ],
          [
            8.726,
            63.564
          ],
          [
            8.432,
            63.557
          ],
          [
            8.297,
            63.499
          ],
          [
            8.281,
            63.452
          ],
          [
            8.506,
            63.43
          ],
          [
            8.931,
            63.491
          ],
          [
            9.176,
            63.565
          ],
          [
            9.074,
            63.603
          ],
          [
            8.98,
            63.586
          ],
          [
            8.957,
            63.624
          ],
          [
            8.976,
            63.649
          ],
          [
            8.945,
            63.654
          ],
          [
            8.867,
            63.642
          ],
          [
            8.847,
            63.61
          ],
          [
            8.801,
            63.639
          ]
        ],
        [
          [
            7.778,
            63.406
          ],
          [
            7.803,
            63.363
          ],
          [
            7.991,
            63.344
          ],
          [
            7.914,
            63.337
          ],
          [
            7.985,
            63.309
          ],
          [
            8.162,
            63.361
          ],
          [
            8.179,
            63.397
          ],
          [
            8.118,
            63.432
          ],
          [
            8.092,
            63.467
          ],
          [
            7.988,
            63.467
          ],
          [
            7.778,
            63.406
          ]
        ],
        [
          [
            8.431,
            63.332
          ],
          [
            8.471,
            63.321
          ],
          [
            8.676,
            63.347
          ],
          [
            8.542,
            63.386
          ],
          [
            8.431,
            63.332
          ]
        ],
        [
          [
            8.27,
            63.266
          ],
          [
            8.266,
            63.232
          ],
          [
            8.364,
            63.16
          ],
          [
            8.575,
            63.182
          ],
          [
            8.451,
            63.277
          ],
          [
            8.401,
            63.275
          ],
          [
            8.392,
            63.219
          ],
          [
            8.361,
            63.263
          ],
          [
            8.27,
            63.266
          ]
        ],
        [
          [
            8.186,
            63.153
          ],
          [
            8.112,
            63.234
          ],
          [
            7.928,
            63.166
          ],
          [
            7.979,
            63.141
          ],
          [
            8.186,
            63.153
          ]
        ],
        [
          [
            7.481,
            63.065
          ],
          [
            7.399,
            63.057
          ],
          [
            7.432,
            63.014
          ],
          [
            7.365,
            62.991
          ],
          [
            7.51,
            62.939
          ],
          [
            7.712,
            63.002
          ],
          [
            7.64,
            63.058
          ],
          [
            7.647,
            63.111
          ],
          [
            7.589,
            63.111
          ],
          [
            7.606,
            63.067
          ],
          [
            7.568,
            63.057
          ],
          [
            7.569,
            63.019
          ],
          [
            7.481,
            63.065
          ]
        ],
        [
          [
            7.778,
            63.017
          ],
          [
            7.915,
            63.079
          ],
          [
            7.809,
            63.092
          ],
          [
            7.715,
            63.088
          ],
          [
            7.679,
            63.056
          ],
          [
            7.778,
            63.017
          ]
        ],
        [
          [
            6.678,
            62.654
          ],
          [
            6.92,
            62.703
          ],
          [
            6.889,
            62.743
          ],
          [
            6.822,
            62.735
          ],
          [
            6.694,
            62.732
          ],
          [
            6.65,
            62.675
          ],
          [
            6.678,
            62.654
          ]
        ],
        [
          [
            6.333,
            62.408
          ],
          [
            6.132,
            62.437
          ],
          [
            6.023,
            62.436
          ],
          [
            6.12,
            62.391
          ],
          [
            6.333,
            62.408
          ]
        ],
        [
          [
            5.8,
            62.344
          ],
          [
            5.834,
            62.333
          ],
          [
            5.851,
            62.274
          ],
          [
            5.808,
            62.245
          ],
          [
            6.076,
            62.341
          ],
          [
            5.989,
            62.376
          ],
          [
            5.937,
            62.427
          ],
          [
            5.843,
            62.406
          ],
          [
            5.8,
            62.344
          ]
        ],
        [
          [
            5.519,
            62.241
          ],
          [
            5.606,
            62.219
          ],
          [
            5.506,
            62.219
          ],
          [
            5.552,
            62.186
          ],
          [
            5.789,
            62.209
          ],
          [
            5.808,
            62.273
          ],
          [
            5.702,
            62.294
          ],
          [
            5.548,
            62.282
          ],
          [
            5.558,
            62.255
          ],
          [
            5.519,
            62.241
          ]
        ]
      ]
    ]
  }
}