{
  "type": "Feature",
  "properties": {
    "article_id": "SEUS-2001",
    "unit_id": "LME_006",
    "geometry_method": "target polygon used as intended model envelope"
  },
  "geometry": {
    "type": "Polygon",
    "coordinates": [
      [
        [
          -74.937,
          35.202
        ],
        [
          -75.079,
          34.998
        ],
        [
          -75.226,
          34.945
        ],
        [
          -75.282,
          34.869
        ],
        [
          -75.396,
          34.832
        ],
        [
          -75.51,
          34.682
        ],
        [
          -75.562,
          34.539
        ],
        [
          -75.732,
          34.377
        ],
        [
          -75.797,
          34.194
        ],
        [
          -75.782,
          34.066
        ],
        [
          -75.81,
          34.051
        ],
        [
          -75.81,
          33.991
        ],
        [
          -75.962,
          33.774
        ],
        [
          -76.025,
          33.569
        ],
        [
          -76.242,
          33.31
        ],
        [
          -76.321,
          33.104
        ],
        [
          -76.315,
          33.026
        ],
        [
          -76.387,
          32.996
        ],
        [
          -76.401,
          32.918
        ],
        [
          -76.517,
          32.855
        ],
        [
          -76.638,
          32.631
        ],
        [
          -76.644,
          32.554
        ],
        [
          -76.806,
          32.439
        ],
        [
          -76.803,
          32.343
        ],
        [
          -76.979,
          32.174
        ],
        [
          -77.046,
          32.0
        ],
        [
          -77.132,
          31.971
        ],
        [
          -77.21,
          31.775
        ],
        [
          -77.305,
          31.705
        ],
        [
          -77.366,
          31.515
        ],
        [
          -77.352,
          31.419
        ],
        [
          -77.514,
          31.136
        ],
        [
          -77.441,
          30.852
        ],
        [
          -77.539,
          30.758
        ],
        [
          -77.45,
          30.663
        ],
        [
          -77.426,
          30.569
        ],
        [
          -77.356,
          30.474
        ],
        [
          -77.364,
          30.379
        ],
        [
          -77.337,
          30.335
        ],
        [
          -77.124,
          30.135
        ],
        [
          -77.065,
          30.029
        ],
        [
          -76.985,
          30.001
        ],
        [
          -76.901,
          29.907
        ],
        [
          -76.903,
          29.718
        ],
        [
          -76.979,
          29.686
        ],
        [
          -77.135,
          29.481
        ],
        [
          -77.301,
          29.475
        ],
        [
          -77.341,
          29.311
        ],
        [
          -77.561,
          29.156
        ],
        [
          -77.703,
          29.173
        ],
        [
          -77.831,
          29.056
        ],
        [
          -77.814,
          28.936
        ],
        [
          -77.873,
          28.898
        ],
        [
          -77.892,
          28.833
        ],
        [
          -77.986,
          28.773
        ],
        [
          -77.928,
          28.678
        ],
        [
          -77.944,
          28.552
        ],
        [
          -78.275,
          28.471
        ],
        [
          -78.35,
          28.394
        ],
        [
          -78.331,
          28.353
        ],
        [
          -78.51,
          28.394
        ],
        [
          -78.436,
          28.345
        ],
        [
          -78.341,
          28.212
        ],
        [
          -78.4,
          28.111
        ],
        [
          -78.339,
          28.016
        ],
        [
          -78.353,
          27.97
        ],
        [
          -78.463,
          27.922
        ],
        [
          -78.511,
          27.827
        ],
        [
          -78.423,
          27.778
        ],
        [
          -78.325,
          27.638
        ],
        [
          -78.25,
          27.612
        ],
        [
          -78.219,
          27.529
        ],
        [
          -78.119,
          27.449
        ],
        [
          -78.099,
          27.355
        ],
        [
          -77.897,
          27.289
        ],
        [
          -77.774,
          27.187
        ],
        [
          -77.68,
          27.169
        ],
        [
          -77.317,
          26.882
        ],
        [
          -77.132,
          26.822
        ],
        [
          -77.003,
          26.693
        ],
        [
          -76.869,
          26.638
        ],
        [
          -76.845,
          26.598
        ],
        [
          -76.887,
          26.502
        ],
        [
          -76.947,
          26.465
        ],
        [
          -76.988,
          26.315
        ],
        [
          -77.129,
          26.126
        ],
        [
          -77.109,
          25.935
        ],
        [
          -77.211,
          25.877
        ],
        [
          -77.164,
          26.239
        ],
        [
          -77.079,
          26.307
        ],
        [
          -77.051,
          26.287
        ],
        [
          -77.007,
          26.308
        ],
        [
          -77.059,
          26.413
        ],
        [
          -77.048,
          26.517
        ],
        [
          -77.176,
          26.597
        ],
        [
          -77.275,
          26.621
        ],
        [
          -77.302,
          26.672
        ],
        [
          -77.249,
          26.677
        ],
        [
          -77.304,
          26.684
        ],
        [
          -77.547,
          26.897
        ],
        [
          -77.917,
          26.916
        ],
        [
          -77.96,
          26.892
        ],
        [
          -77.835,
          26.91
        ],
        [
          -77.654,
          26.86
        ],
        [
          -77.54,
          26.865
        ],
        [
          -77.435,
          26.744
        ],
        [
          -77.425,
          26.687
        ],
        [
          -77.365,
          26.69
        ],
        [
          -77.345,
          26.605
        ],
        [
          -77.149,
          26.549
        ],
        [
          -77.226,
          26.442
        ],
        [
          -77.216,
          26.348
        ],
        [
          -77.252,
          26.318
        ],
        [
          -77.226,
          26.248
        ],
        [
          -77.256,
          26.2
        ],
        [
          -77.219,
          26.147
        ],
        [
          -77.405,
          26.022
        ],
        [
          -77.302,
          25.981
        ],
        [
          -77.237,
          25.885
        ],
        [
          -77.632,
          26.082
        ],
        [
          -77.754,
          26.22
        ],
        [
          -77.878,
          26.282
        ],
        [
          -78.004,
          26.409
        ],
        [
          -78.232,
          26.504
        ],
        [
          -78.429,
          26.409
        ],
        [
          -78.46,
          26.22
        ],
        [
          -78.37,
          26.173
        ],
        [
          -78.148,
          26.164
        ],
        [
          -77.999,
          26.044
        ],
        [
          -77.995,
          25.937
        ],
        [
          -77.773,
          25.933
        ],
        [
          -77.71,
          25.874
        ],
        [
          -77.749,
          25.837
        ],
        [
          -78.582,
          25.899
        ],
        [
          -78.802,
          26.012
        ],
        [
          -78.987,
          26.162
        ],
        [
          -79.142,
          26.17
        ],
        [
          -79.186,
          26.126
        ],
        [
          -79.188,
          26.004
        ],
        [
          -79.242,
          25.962
        ],
        [
          -79.26,
          25.894
        ],
        [
          -79.337,
          25.842
        ],
        [
          -79.336,
          25.653
        ],
        [
          -79.247,
          25.444
        ],
        [
          -79.222,
          25.229
        ],
        [
          -80.319,
          25.364
        ],
        [
          -80.345,
          25.476
        ],
        [
          -80.31,
          25.611
        ],
        [
          -80.243,
          25.727
        ],
        [
          -80.19,
          25.745
        ],
        [
          -80.184,
          25.833
        ],
        [
          -80.136,
          25.906
        ],
        [
          -80.132,
          25.771
        ],
        [
          -80.117,
          25.805
        ],
        [
          -80.125,
          26.093
        ],
        [
          -80.032,
          26.564
        ],
        [
          -80.033,
          26.787
        ],
        [
          -80.069,
          26.918
        ],
        [
          -80.114,
          26.93
        ],
        [
          -80.073,
          26.945
        ],
        [
          -80.149,
          27.136
        ],
        [
          -80.316,
          27.235
        ],
        [
          -80.188,
          27.183
        ],
        [
          -80.309,
          27.423
        ],
        [
          -80.397,
          27.696
        ],
        [
          -80.759,
          28.426
        ],
        [
          -80.844,
          28.791
        ],
        [
          -80.746,
          28.726
        ],
        [
          -80.786,
          28.644
        ],
        [
          -80.761,
          28.606
        ],
        [
          -80.60576679517385,
          28.607952618928632
        ],
        [
          -80.921,
          29.063
        ],
        [
          -81.174,
          29.579
        ],
        [
          -81.29,
          29.892
        ],
        [
          -81.411,
          30.465
        ],
        [
          -81.503,
          30.551
        ],
        [
          -81.485,
          30.62
        ],
        [
          -81.436,
          30.525
        ],
        [
          -81.427,
          30.667
        ],
        [
          -81.442,
          30.7
        ],
        [
          -81.507,
          30.714
        ],
        [
          -81.487,
          30.764
        ],
        [
          -81.534,
          30.851
        ],
        [
          -81.49,
          30.849
        ],
        [
          -81.507,
          30.889
        ],
        [
          -81.453,
          30.961
        ],
        [
          -81.517,
          30.979
        ],
        [
          -81.448,
          31.014
        ],
        [
          -81.512,
          31.086
        ],
        [
          -81.421,
          31.024
        ],
        [
          -81.402,
          31.114
        ],
        [
          -81.435,
          31.073
        ],
        [
          -81.497,
          31.126
        ],
        [
          -81.441,
          31.127
        ],
        [
          -81.45,
          31.204
        ],
        [
          -81.409,
          31.206
        ],
        [
          -81.424,
          31.148
        ],
        [
          -81.385,
          31.139
        ],
        [
          -81.267,
          31.26
        ],
        [
          -81.489,
          31.363
        ],
        [
          -81.283,
          31.326
        ],
        [
          -81.335,
          31.433
        ],
        [
          -81.267,
          31.384
        ],
        [
          -81.169,
          31.534
        ],
        [
          -81.289,
          31.49
        ],
        [
          -81.266,
          31.532
        ],
        [
          -81.336,
          31.551
        ],
        [
          -81.221,
          31.567
        ],
        [
          -81.2,
          31.599
        ],
        [
          -81.236,
          31.641
        ],
        [
          -81.165,
          31.565
        ],
        [
          -81.126,
          31.695
        ],
        [
          -81.172,
          31.689
        ],
        [
          -81.158,
          31.664
        ],
        [
          -81.236,
          31.662
        ],
        [
          -81.189,
          31.704
        ],
        [
          -81.272,
          31.769
        ],
        [
          -81.134,
          31.728
        ],
        [
          -81.083,
          31.757
        ],
        [
          -81.042,
          31.823
        ],
        [
          -81.143,
          31.856
        ],
        [
          -81.088,
          31.867
        ],
        [
          -81.104,
          31.915
        ],
        [
          -80.977,
          31.862
        ],
        [
          -80.926,
          31.904
        ],
        [
          -80.966,
          31.925
        ],
        [
          -80.94,
          31.975
        ],
        [
          -80.894,
          31.952
        ],
        [
          -80.833,
          32.002
        ],
        [
          -80.895,
          32.056
        ],
        [
          -80.836,
          32.111
        ],
        [
          -80.779,
          32.242
        ],
        [
          -80.82,
          32.102
        ],
        [
          -80.67,
          32.214
        ],
        [
          -80.797,
          32.32
        ],
        [
          -80.787,
          32.376
        ],
        [
          -80.856,
          32.536
        ],
        [
          -80.779,
          32.496
        ],
        [
          -80.799,
          32.466
        ],
        [
          -80.762,
          32.367
        ],
        [
          -80.678,
          32.298
        ],
        [
          -80.685,
          32.455
        ],
        [
          -80.648,
          32.453
        ],
        [
          -80.668,
          32.363
        ],
        [
          -80.628,
          32.372
        ],
        [
          -80.641,
          32.257
        ],
        [
          -80.467,
          32.316
        ],
        [
          -80.43,
          32.408
        ],
        [
          -80.543,
          32.344
        ],
        [
          -80.456,
          32.423
        ],
        [
          -80.586,
          32.454
        ],
        [
          -80.479,
          32.474
        ],
        [
          -80.682,
          32.5
        ],
        [
          -80.672,
          32.522
        ],
        [
          -80.541,
          32.514
        ],
        [
          -80.544,
          32.557
        ],
        [
          -80.409,
          32.472
        ],
        [
          -80.361,
          32.527
        ],
        [
          -80.326,
          32.48
        ],
        [
          -80.193,
          32.564
        ],
        [
          -80.257,
          32.622
        ],
        [
          -80.167,
          32.558
        ],
        [
          -79.996,
          32.606
        ],
        [
          -80.012,
          32.654
        ],
        [
          -79.951,
          32.643
        ],
        [
          -79.866,
          32.715
        ],
        [
          -79.968,
          32.784
        ],
        [
          -79.926,
          32.779
        ],
        [
          -79.944,
          32.853
        ],
        [
          -79.881,
          32.844
        ],
        [
          -79.902,
          32.794
        ],
        [
          -79.863,
          32.762
        ],
        [
          -79.795,
          32.775
        ],
        [
          -79.583,
          32.911
        ],
        [
          -79.577,
          32.936
        ],
        [
          -79.611,
          32.917
        ],
        [
          -79.629,
          32.943
        ],
        [
          -79.571,
          33.016
        ],
        [
          -79.517,
          33.034
        ],
        [
          -79.494,
          32.99
        ],
        [
          -79.388,
          33.007
        ],
        [
          -79.379,
          33.053
        ],
        [
          -79.288,
          33.113
        ],
        [
          -79.342,
          33.151
        ],
        [
          -79.265,
          33.119
        ],
        [
          -79.265,
          33.167
        ],
        [
          -79.233,
          33.141
        ],
        [
          -79.187,
          33.175
        ],
        [
          -79.214,
          33.239
        ],
        [
          -79.294,
          33.28
        ],
        [
          -79.271,
          33.373
        ],
        [
          -79.189,
          33.436
        ],
        [
          -79.27,
          33.316
        ],
        [
          -79.205,
          33.296
        ],
        [
          -79.184,
          33.213
        ],
        [
          -79.142,
          33.409
        ],
        [
          -78.827,
          33.73
        ],
        [
          -78.574,
          33.848
        ],
        [
          -78.588,
          33.877
        ],
        [
          -78.545,
          33.886
        ],
        [
          -78.55,
          33.862
        ],
        [
          -78.399,
          33.905
        ],
        [
          -78.372,
          33.947
        ],
        [
          -78.356,
          33.907
        ],
        [
          -78.014,
          33.892
        ],
        [
          -77.949,
          34.009
        ],
        [
          -77.957,
          34.189
        ],
        [
          -77.924,
          34.107
        ],
        [
          -77.931,
          33.928
        ],
        [
          -77.866,
          34.144
        ],
        [
          -77.717,
          34.33
        ],
        [
          -77.463,
          34.5
        ],
        [
          -77.371,
          34.524
        ],
        [
          -77.446,
          34.606
        ],
        [
          -77.374,
          34.632
        ],
        [
          -77.427,
          34.689
        ],
        [
          -77.434,
          34.752
        ],
        [
          -77.372,
          34.727
        ],
        [
          -77.391,
          34.709
        ],
        [
          -77.33,
          34.642
        ],
        [
          -77.398,
          34.589
        ],
        [
          -77.327,
          34.556
        ],
        [
          -77.176,
          34.655
        ],
        [
          -77.173,
          34.689
        ],
        [
          -77.131,
          34.685
        ],
        [
          -77.132,
          34.757
        ],
        [
          -77.086,
          34.711
        ],
        [
          -77.092,
          34.675
        ],
        [
          -76.876,
          34.736
        ],
        [
          -76.705,
          34.72
        ],
        [
          -76.726,
          34.759
        ],
        [
          -76.768,
          34.757
        ],
        [
          -76.691,
          34.8
        ],
        [
          -76.657,
          34.719
        ],
        [
          -76.623,
          34.711
        ],
        [
          -76.616,
          34.816
        ],
        [
          -76.572,
          34.779
        ],
        [
          -76.577,
          34.734
        ],
        [
          -76.503,
          34.733
        ],
        [
          -76.406,
          34.88
        ],
        [
          -76.349,
          34.878
        ],
        [
          -76.339,
          34.936
        ],
        [
          -76.273,
          34.961
        ],
        [
          -76.312,
          35.015
        ],
        [
          -76.353,
          35.023
        ],
        [
          -76.323,
          34.971
        ],
        [
          -76.458,
          34.934
        ],
        [
          -76.461,
          34.966
        ],
        [
          -76.421,
          34.987
        ],
        [
          -76.461,
          35.071
        ],
        [
          -76.486,
          34.971
        ],
        [
          -76.529,
          35.004
        ],
        [
          -76.57,
          34.981
        ],
        [
          -76.542,
          34.927
        ],
        [
          -76.626,
          34.985
        ],
        [
          -76.753,
          34.905
        ],
        [
          -76.944,
          34.977
        ],
        [
          -77.078,
          35.151
        ],
        [
          -76.984,
          35.069
        ],
        [
          -76.79,
          34.979
        ],
        [
          -76.608,
          35.071
        ],
        [
          -76.554,
          35.132
        ],
        [
          -76.574,
          35.172
        ],
        [
          -76.582,
          35.147
        ],
        [
          -76.669,
          35.174
        ],
        [
          -76.594,
          35.21
        ],
        [
          -76.525,
          35.202
        ],
        [
          -74.937,
          35.202
        ]
      ],
      [
        [
          -80.60054397444287,
          28.600413340518067
        ],
        [
          -80.602,
          28.608
        ],
        [
          -80.60576679517385,
          28.607952618928632
        ],
        [
          -80.60054397444287,
          28.600413340518067
        ]
      ],
      [
        [
          -80.583,
          28.509
        ],
        [
          -80.618,
          28.4
        ],
        [
          -80.619,
          28.211
        ],
        [
          -80.565,
          28.051
        ],
        [
          -80.447,
          27.864
        ],
        [
          -80.561,
          28.079
        ],
        [
          -80.596,
          28.226
        ],
        [
          -80.597,
          28.402
        ],
        [
          -80.53,
          28.451
        ],
        [
          -80.558,
          28.539
        ],
        [
          -80.60054397444287,
          28.600413340518067
        ],
        [
          -80.583,
          28.509
        ]
      ],
      [
        [
          -75.992,
          35.12
        ],
        [
          -76.015,
          35.074
        ],
        [
          -75.767,
          35.194
        ],
        [
          -75.803,
          35.182
        ],
        [
          -75.992,
          35.12
        ]
      ],
      [
        [
          -80.67,
          28.281
        ],
        [
          -80.654,
          28.447
        ],
        [
          -80.611,
          28.548
        ],
        [
          -80.642,
          28.598
        ],
        [
          -80.73,
          28.543
        ],
        [
          -80.74,
          28.478
        ],
        [
          -80.634,
          28.177
        ],
        [
          -80.67,
          28.281
        ]
      ],
      [
        [
          -80.361,
          27.697
        ],
        [
          -80.449,
          27.851
        ],
        [
          -80.289,
          27.413
        ],
        [
          -80.168,
          27.193
        ],
        [
          -80.361,
          27.697
        ]
      ],
      [
        [
          -78.672,
          26.596
        ],
        [
          -78.803,
          26.576
        ],
        [
          -78.886,
          26.652
        ],
        [
          -78.995,
          26.695
        ],
        [
          -78.772,
          26.509
        ],
        [
          -78.709,
          26.49
        ],
        [
          -78.366,
          26.611
        ],
        [
          -77.9,
          26.657
        ],
        [
          -77.924,
          26.774
        ],
        [
          -77.984,
          26.725
        ],
        [
          -78.12,
          26.701
        ],
        [
          -78.277,
          26.718
        ],
        [
          -78.349,
          26.689
        ],
        [
          -78.539,
          26.732
        ],
        [
          -78.592,
          26.805
        ],
        [
          -78.639,
          26.715
        ],
        [
          -78.6,
          26.702
        ],
        [
          -78.672,
          26.596
        ]
      ]
    ]
  }
}