{"type": "Feature", "properties": {"geometry_method": "target polygon used as intended model envelope", "geometry_confidence": "medium"}, "geometry": {"type": "MultiPolygon", "coordinates": [[[[179.344, 62.502], [179.428, 62.384], [179.645, 61.68], [179.839, 61.518], [172.702, 53.526], [171.395, 52.161], [163.986, 54.925], [159.021, 50.259], [157.065, 51.142], [157.257, 51.23], [157.357, 51.335], [157.511, 51.393], [157.484, 51.435], [157.537, 51.487], [157.913, 51.63], [158.024, 51.773], [158.276, 51.937], [158.286, 52.036], [158.326, 52.063], [158.315, 52.125], [158.37, 52.125], [158.426, 52.176], [158.377, 52.214], [158.436, 52.234], [158.425, 52.265], [158.543, 52.289], [158.555, 52.328], [158.5, 52.345], [158.567, 52.397], [158.525, 52.428], [158.422, 52.41], [158.462, 52.464], [158.528, 52.482], [158.504, 52.498], [158.522, 52.562], [158.436, 52.599], [158.419, 52.652], [158.553, 52.625], [158.601, 52.702], [158.488, 52.758], [158.561, 52.789], [158.542, 52.833], [158.579, 52.816], [158.633, 52.847], [158.605, 52.871], [158.645, 52.895], [158.627, 52.931], [158.511, 52.943], [158.48, 52.938], [158.525, 52.903], [158.446, 52.902], [158.425, 52.946], [158.456, 52.967], [158.413, 52.998], [158.43, 53.022], [158.532, 53.069], [158.603, 53.054], [158.676, 52.989], [158.658, 52.959], [158.721, 52.889], [158.884, 53.009], [159.104, 53.114], [159.291, 53.171], [159.384, 53.154], [159.498, 53.235], [159.615, 53.259], [159.714, 53.231], [159.823, 53.279], [159.759, 53.212], [159.971, 53.105], [160.055, 53.094], [160.017, 53.269], [159.972, 53.266], [159.965, 53.208], [159.911, 53.257], [159.969, 53.336], [159.927, 53.334], [159.931, 53.386], [159.876, 53.394], [159.852, 53.479], [159.796, 53.48], [159.818, 53.497], [159.792, 53.515], [159.822, 53.531], [159.94, 53.469], [159.961, 53.51], [159.965, 53.57], [159.904, 53.668], [159.873, 53.666], [159.914, 53.588], [159.818, 53.659], [159.862, 53.689], [159.841, 53.767], [159.897, 53.974], [160.006, 54.139], [160.732, 54.531], [161.114, 54.591], [161.2, 54.575], [161.236, 54.513], [161.306, 54.491], [161.733, 54.506], [161.811, 54.586], [161.977, 54.658], [162.001, 54.702], [162.112, 54.762], [162.105, 54.818], [162.149, 54.865], [162.072, 54.896], [161.974, 55.022], [161.809, 55.132], [161.719, 55.359], [161.71, 55.484], [161.749, 55.627], [161.913, 55.797], [161.932, 55.875], [162.049, 56.019], [162.037, 56.062], [162.231, 56.163], [162.438, 56.205], [162.572, 56.267], [162.394, 56.4], [162.45, 56.395], [162.515, 56.439], [162.571, 56.424], [162.693, 56.492], [162.893, 56.43], [162.971, 56.545], [163.089, 56.534], [163.062, 56.468], [162.857, 56.373], [162.722, 56.354], [162.671, 56.267], [162.536, 56.226], [162.636, 56.197], [162.869, 56.04], [163.027, 56.018], [163.127, 56.111], [163.355, 56.199], [163.317, 56.391], [163.241, 56.454], [163.254, 56.574], [163.214, 56.627], [163.252, 56.696], [163.214, 56.741], [163.067, 56.746], [162.908, 56.706], [162.791, 56.791], [162.782, 56.889], [162.828, 57.045], [162.752, 57.216], [162.766, 57.351], [162.737, 57.358], [163.058, 57.491], [163.125, 57.582], [163.194, 57.595], [163.21, 57.675], [163.284, 57.742], [163.214, 57.836], [162.996, 57.85], [162.705, 57.964], [162.571, 57.951], [162.465, 57.875], [162.482, 57.763], [162.346, 57.685], [162.342, 57.716], [162.427, 57.79], [162.106, 57.854], [162.009, 57.94], [161.939, 58.074], [162.14, 58.45], [162.399, 58.674], [162.789, 58.856], [162.701, 58.842], [162.675, 58.868], [162.805, 58.902], [162.891, 58.976], [162.913, 58.951], [162.852, 58.927], [162.98, 58.957], [163.045, 59.01], [162.876, 59.128], [163.012, 59.168], [163.174, 59.083], [163.146, 59.032], [163.194, 59.054], [163.189, 59.137], [163.06, 59.198], [163.061, 59.241], [163.175, 59.296], [163.273, 59.299], [163.225, 59.243], [163.288, 59.251], [163.33, 59.381], [163.297, 59.433], [163.164, 59.5], [163.208, 59.554], [163.173, 59.559], [163.328, 59.585], [163.385, 59.623], [163.36, 59.824], [163.505, 59.899], [163.69, 59.89], [163.793, 59.989], [163.677, 59.971], [163.62, 60.02], [163.635, 60.046], [163.834, 60.058], [163.874, 60.041], [163.851, 60.02], [164.038, 60.031], [164.116, 59.986], [164.192, 59.996], [164.039, 59.898], [164.057, 59.869], [164.18, 59.849], [164.096, 59.91], [164.111, 59.935], [164.175, 59.972], [164.34, 59.991], [164.366, 60.021], [164.315, 60.085], [164.369, 60.072], [164.469, 60.111], [164.702, 59.976], [164.782, 59.856], [164.774, 59.823], [164.832, 59.781], [165.004, 59.841], [165.209, 59.99], [165.138, 60.037], [165.123, 60.086], [165.043, 60.063], [165.001, 60.082], [164.997, 60.129], [165.085, 60.109], [165.176, 60.166], [165.155, 60.121], [165.184, 60.093], [165.243, 60.098], [165.439, 60.187], [165.435, 60.251], [165.528, 60.214], [165.968, 60.368], [165.924, 60.369], [166.001, 60.434], [166.388, 60.49], [166.328, 60.394], [166.234, 60.393], [166.289, 60.205], [166.173, 60.123], [166.145, 59.975], [166.102, 59.914], [166.098, 59.831], [166.138, 59.815], [166.343, 59.867], [166.839, 60.224], [166.928, 60.256], [166.897, 60.294], [167.043, 60.318], [167.025, 60.426], [167.205, 60.352], [167.292, 60.372], [167.284, 60.415], [167.371, 60.4], [167.335, 60.47], [167.429, 60.422], [167.483, 60.465], [167.606, 60.446], [167.769, 60.491], [167.764, 60.547], [167.839, 60.511], [168.329, 60.595], [168.511, 60.59], [168.673, 60.545], [169.147, 60.56], [169.127, 60.587], [169.206, 60.588], [169.21, 60.623], [169.37, 60.566], [169.256, 60.549], [169.699, 60.411], [169.744, 60.281], [169.825, 60.233], [169.901, 60.252], [169.968, 60.23], [169.85, 60.216], [169.838, 60.191], [169.935, 60.066], [170.076, 60.032], [170.115, 60.013], [170.105, 59.974], [170.249, 59.909], [170.398, 59.961], [170.502, 60.266], [170.663, 60.327], [170.653, 60.358], [170.594, 60.371], [170.62, 60.387], [170.583, 60.428], [170.511, 60.444], [170.687, 60.419], [170.788, 60.447], [170.807, 60.493], [170.754, 60.489], [170.747, 60.528], [170.872, 60.507], [171.076, 60.56], [171.175, 60.556], [171.371, 60.636], [171.37, 60.687], [171.408, 60.714], [171.4, 60.78], [171.466, 60.716], [171.612, 60.734], [171.623, 60.767], [171.54, 60.807], [171.61, 60.802], [171.734, 60.851], [171.857, 60.826], [171.947, 60.845], [171.953, 60.95], [172.007, 60.917], [171.989, 60.878], [172.019, 60.842], [172.071, 60.866], [172.111, 60.936], [172.202, 60.959], [172.167, 61.025], [172.01, 61.097], [172.282, 61.009], [172.371, 61.01], [172.478, 61.057], [172.481, 61.081], [172.429, 61.067], [172.242, 61.134], [172.434, 61.141], [172.367, 61.172], [172.349, 61.228], [172.628, 61.186], [172.774, 61.266], [172.667, 61.332], [172.85, 61.276], [172.956, 61.303], [172.899, 61.367], [172.711, 61.43], [172.875, 61.472], [173.063, 61.391], [173.137, 61.395], [173.281, 61.455], [173.291, 61.518], [173.342, 61.549], [173.489, 61.556], [173.468, 61.642], [173.559, 61.751], [173.81, 61.685], [173.805, 61.649], [174.107, 61.778], [174.058, 61.769], [174.007, 61.812], [174.07, 61.839], [174.278, 61.807], [174.367, 61.848], [174.373, 61.823], [174.462, 61.806], [174.714, 61.872], [174.727, 61.896], [174.596, 61.984], [174.796, 61.946], [174.761, 61.912], [175.215, 62.03], [175.248, 62.051], [175.259, 62.164], [175.304, 62.103], [175.392, 62.116], [175.372, 62.099], [175.797, 62.226], [176.28, 62.313], [176.417, 62.403], [176.641, 62.471], [176.592, 62.479], [176.676, 62.537], [176.719, 62.535], [176.683, 62.509], [176.706, 62.496], [177.266, 62.575], [177.05, 62.578], [176.933, 62.661], [176.929, 62.705], [177.045, 62.764], [176.999, 62.789], [176.975, 62.866], [177.148, 62.789], [177.138, 62.719], [177.199, 62.702], [177.265, 62.709], [177.254, 62.739], [177.329, 62.801], [177.451, 62.818], [177.428, 62.764], [177.359, 62.77], [177.314, 62.737], [177.331, 62.684], [177.266, 62.612], [177.337, 62.583], [177.306, 62.576], [178.028, 62.544], [178.961, 62.357], [179.061, 62.285], [179.15, 62.332], [179.148, 62.413], [179.106, 62.463], [179.186, 62.501], [179.344, 62.502]], [[164.539, 59.236], [164.309, 59.126], [164.031, 59.051], [163.677, 59.005], [163.905, 59.003], [163.771, 58.917], [163.692, 58.745], [163.573, 58.636], [163.385, 58.559], [163.407, 58.514], [163.457, 58.465], [163.579, 58.58], [164.142, 58.816], [164.241, 58.809], [164.417, 58.868], [164.669, 58.893], [164.661, 58.977], [164.71, 59.037], [164.63, 59.105], [164.576, 59.232], [164.539, 59.236]], [[166.049, 55.151], [166.084, 55.101], [166.07, 55.062], [166.199, 54.937], [166.376, 54.82], [166.495, 54.824], [166.487, 54.787], [166.663, 54.674], [166.646, 54.843], [166.388, 55.002], [166.251, 55.143], [166.223, 55.247], [166.282, 55.297], [166.246, 55.33], [165.945, 55.363], [165.897, 55.32], [165.743, 55.291], [165.989, 55.215], [165.968, 55.192], [166.049, 55.151]], [[167.701, 54.681], [167.907, 54.609], [168.064, 54.505], [168.117, 54.508], [167.918, 54.649], [167.78, 54.695], [167.734, 54.757], [167.558, 54.802], [167.565, 54.833], [167.51, 54.858], [167.433, 54.863], [167.458, 54.807], [167.701, 54.681]]]]}}