{"type": "Feature", "properties": {"geometry_method": "target polygon used as intended model envelope", "geometry_confidence": "medium"}, "geometry": {"type": "MultiPolygon", "coordinates": [[[[-75.50196089385474, 10.481584197924976], [-75.489, 10.429], [-75.521, 10.429], [-75.50196089385474, 10.481584197924976]]], [[[-75.50196089385474, 10.481584197924976], [-75.50254994551399, 10.483974064656735], [-75.5, 10.487], [-75.50196089385474, 10.481584197924976]]], [[[-75.972, 25.324], [-75.477, 25.056], [-75.361, 24.69], [-75.019, 24.355], [-74.793, 23.934], [-74.616, 23.705], [-74.2, 23.349], [-73.737, 22.8], [-72.545, 22.289], [-72.005, 22.262], [-71.561, 22.167], [-71.085, 21.966], [-70.679, 21.871], [-70.212, 21.477], [-69.95, 21.068], [-69.453, 20.53], [-69.093, 20.242], [-68.755, 19.883], [-68.252, 19.485], [-67.89, 19.266], [-67.524, 19.135], [-67.325, 19.008], [-65.53, 18.371], [-64.916, 18.329], [-64.224, 18.19], [-63.578, 18.107], [-63.052, 17.867], [-62.425, 17.393], [-62.009, 17.154], [-61.386, 16.608], [-60.966, 16.082], [-60.694, 15.558], [-60.367, 14.566], [-59.875, 13.982], [-59.439, 13.362], [-59.484, 13.189], [-59.591, 13.33], [-59.641, 13.331], [-59.658, 13.299], [-59.629, 13.103], [-59.519, 13.053], [-59.592, 12.77], [-59.794, 12.34], [-59.674, 12.049], [-60.003, 11.71], [-60.337, 11.136], [-60.597, 10.578], [-60.742, 10.126], [-61.251, 9.587], [-61.407, 9.705], [-61.481, 9.824], [-61.623, 9.906], [-61.65, 9.891], [-61.575, 9.808], [-61.593, 9.782], [-61.817, 9.828], [-61.735, 9.706], [-61.739, 9.596], [-61.773, 9.754], [-61.798, 9.753], [-61.842, 9.648], [-61.809, 9.737], [-61.839, 9.801], [-62.051, 9.976], [-62.189, 10.016], [-62.231, 9.958], [-62.112, 9.929], [-62.024, 9.866], [-62.191, 9.929], [-62.153, 9.728], [-62.176, 9.646], [-62.211, 9.634], [-62.164, 9.723], [-62.211, 9.922], [-62.255, 9.969], [-62.238, 9.849], [-62.318, 9.705], [-62.368, 9.874], [-62.444, 9.93], [-62.421, 9.971], [-62.489, 10.153], [-62.581, 10.227], [-62.626, 10.2], [-62.618, 10.09], [-62.682, 10.052], [-62.769, 10.07], [-62.798, 9.991], [-62.799, 10.026], [-62.91, 10.048], [-62.913, 10.081], [-62.936, 10.002], [-62.954, 10.086], [-62.987, 10.066], [-63.017, 10.098], [-62.904, 10.102], [-62.885, 10.061], [-62.844, 10.08], [-62.821, 10.041], [-62.772, 10.088], [-62.675, 10.072], [-62.624, 10.118], [-62.67, 10.207], [-62.666, 10.281], [-62.791, 10.403], [-62.879, 10.371], [-62.952, 10.399], [-62.926, 10.294], [-63.0, 10.272], [-62.958, 10.353], [-63.0, 10.399], [-62.831, 10.402], [-62.85, 10.524], [-63.008, 10.452], [-62.925, 10.523], [-62.659, 10.57], [-62.337, 10.529], [-62.245, 10.631], [-61.953, 10.649], [-61.883, 10.679], [-61.854, 10.746], [-62.161, 10.683], [-62.709, 10.765], [-62.907, 10.696], [-62.999, 10.718], [-63.14, 10.701], [-63.167, 10.735], [-63.248, 10.679], [-63.386, 10.697], [-63.4, 10.666], [-63.532, 10.627], [-63.761, 10.661], [-63.816, 10.709], [-63.843, 10.646], [-63.917, 10.632], [-64.053, 10.651], [-64.141, 10.617], [-64.265, 10.669], [-64.299, 10.621], [-64.239, 10.513], [-64.173, 10.564], [-64.038, 10.589], [-64.038, 10.566], [-63.964, 10.578], [-63.703, 10.486], [-63.655, 10.494], [-63.816, 10.441], [-64.044, 10.441], [-64.192, 10.475], [-64.231, 10.416], [-64.336, 10.391], [-64.353, 10.337], [-64.368, 10.384], [-64.398, 10.374], [-64.383, 10.339], [-64.466, 10.331], [-64.374, 10.3], [-64.48, 10.239], [-64.62, 10.249], [-64.676, 10.181], [-64.676, 10.208], [-64.721, 10.219], [-64.741, 10.108], [-64.829, 10.08], [-64.942, 10.097], [-65.084, 10.041], [-65.205, 10.106], [-65.584, 10.185], [-65.864, 10.307], [-65.719, 10.218], [-65.93, 10.286], [-65.936, 10.315], [-65.885, 10.312], [-66.119, 10.497], [-66.121, 10.541], [-66.049, 10.58], [-66.235, 10.642], [-66.298, 10.642], [-66.348, 10.603], [-66.471, 10.629], [-67.016, 10.611], [-67.183, 10.551], [-67.796, 10.492], [-67.859, 10.447], [-67.873, 10.474], [-68.128, 10.487], [-68.191, 10.52], [-68.289, 10.656], [-68.332, 10.823], [-68.241, 10.881], [-68.372, 10.909], [-68.328, 10.939], [-68.274, 10.919], [-68.404, 11.195], [-68.483, 11.207], [-68.664, 11.353], [-68.741, 11.362], [-68.843, 11.448], [-69.056, 11.448], [-69.275, 11.534], [-69.364, 11.492], [-69.526, 11.506], [-69.584, 11.459], [-69.63, 11.466], [-69.714, 11.562], [-69.771, 11.696], [-69.859, 12.072], [-69.935, 12.17], [-70.01, 12.199], [-70.149, 12.109], [-70.206, 12.11], [-70.301, 11.853], [-70.241, 11.765], [-70.206, 11.767], [-70.239, 11.638], [-70.214, 11.608], [-69.814, 11.691], [-69.74, 11.495], [-69.799, 11.428], [-69.888, 11.43], [-69.99, 11.516], [-70.135, 11.574], [-70.093, 11.537], [-70.123, 11.52], [-70.015, 11.486], [-70.05, 11.478], [-70.032, 11.444], [-70.096, 11.43], [-70.152, 11.476], [-70.143, 11.418], [-70.222, 11.355], [-70.495, 11.294], [-70.513, 11.246], [-70.826, 11.211], [-71.255, 10.998], [-71.498, 10.96], [-71.414, 10.914], [-71.451, 10.881], [-71.438, 10.801], [-71.58, 10.807], [-71.527, 10.733], [-71.531, 10.65], [-71.495, 10.63], [-71.546, 10.571], [-71.463, 10.501], [-71.478, 10.41], [-71.367, 10.226], [-71.264, 10.142], [-71.206, 9.982], [-71.091, 9.884], [-71.071, 9.842], [-71.092, 9.824], [-71.031, 9.722], [-71.09, 9.539], [-71.056, 9.354], [-71.073, 9.311], [-71.158, 9.281], [-71.235, 9.162], [-71.314, 9.111], [-71.506, 9.049], [-71.63, 9.044], [-71.764, 9.12], [-71.735, 9.16], [-71.743, 9.24], [-71.816, 9.224], [-71.759, 9.288], [-71.737, 9.279], [-71.734, 9.378], [-71.774, 9.364], [-71.824, 9.423], [-71.888, 9.424], [-71.907, 9.384], [-71.9, 9.432], [-71.847, 9.446], [-71.936, 9.5], [-71.983, 9.459], [-72.011, 9.476], [-72.018, 9.514], [-71.96, 9.503], [-72.01, 9.574], [-71.989, 9.605], [-71.944, 9.543], [-72.128, 9.813], [-71.986, 10.083], [-71.904, 10.13], [-71.752, 10.373], [-71.624, 10.446], [-71.577, 10.714], [-71.667, 10.783], [-71.719, 10.96], [-71.766, 11.011], [-71.701, 11.026], [-71.667, 10.984], [-71.623, 11.008], [-71.754, 11.086], [-71.857, 11.205], [-71.948, 11.403], [-71.968, 11.556], [-71.945, 11.603], [-71.816, 11.648], [-71.379, 11.753], [-71.338, 11.789], [-71.298, 11.914], [-71.161, 11.991], [-71.11, 12.066], [-71.219, 12.3], [-71.271, 12.344], [-71.44, 12.388], [-71.529, 12.446], [-71.664, 12.464], [-71.739, 12.415], [-71.686, 12.449], [-71.695, 12.427], [-71.655, 12.439], [-71.678, 12.412], [-71.631, 12.425], [-71.692, 12.396], [-71.695, 12.365], [-71.723, 12.412], [-71.756, 12.39], [-71.749, 12.35], [-71.81, 12.313], [-71.841, 12.338], [-71.827, 12.374], [-71.957, 12.281], [-71.89, 12.28], [-71.862, 12.217], [-71.938, 12.163], [-71.988, 12.156], [-72.012, 12.19], [-71.969, 12.26], [-72.166, 12.236], [-72.138, 12.109], [-72.259, 11.889], [-72.421, 11.796], [-72.524, 11.787], [-72.76, 11.693], [-73.284, 11.296], [-73.794, 11.266], [-74.013, 11.355], [-74.084, 11.326], [-74.102, 11.353], [-74.136, 11.321], [-74.146, 11.342], [-74.237, 11.235], [-74.215, 11.08], [-74.401, 10.739], [-74.455, 10.738], [-74.501, 10.842], [-74.507, 10.755], [-74.541, 10.758], [-74.566, 10.826], [-74.603, 10.78], [-74.592, 10.878], [-74.517, 10.885], [-74.487, 10.847], [-74.518, 10.905], [-74.498, 10.972], [-74.336, 10.973], [-74.289, 11.003], [-74.5, 10.992], [-74.854, 11.127], [-75.022, 10.969], [-75.039, 10.905], [-75.27, 10.798], [-75.27, 10.754], [-75.23, 10.762], [-75.23, 10.719], [-75.257, 10.706], [-75.277, 10.742], [-75.402, 10.679], [-75.458, 10.602], [-75.524, 10.571], [-75.50254994551399, 10.483974064656735], [-75.575, 10.398], [-75.556, 10.417], [-75.524, 10.39], [-75.513, 10.306], [-75.576, 10.277], [-75.594, 10.298], [-75.626, 10.212], [-75.713, 10.153], [-75.676, 10.143], [-75.532, 10.237], [-75.534, 10.18], [-75.589, 10.132], [-75.581, 10.039], [-75.638, 9.814], [-75.719, 9.701], [-75.629, 9.7], [-75.601, 9.666], [-75.586, 9.583], [-75.629, 9.454], [-75.685, 9.411], [-75.746, 9.425], [-75.806, 9.388], [-75.85, 9.407], [-75.799, 9.419], [-75.809, 9.438], [-75.932, 9.43], [-76.09, 9.336], [-76.109, 9.272], [-76.172, 9.239], [-76.194, 9.116], [-76.253, 9.07], [-76.259, 9.001], [-76.316, 8.94], [-76.432, 8.906], [-76.436, 8.869], [-76.532, 8.786], [-76.643, 8.743], [-76.673, 8.676], [-76.884, 8.624], [-76.942, 8.558], [-76.94, 8.529], [-76.824, 8.485], [-76.769, 8.399], [-76.778, 8.282], [-76.753, 8.081], [-76.731, 8.076], [-76.762, 7.915], [-76.865, 7.907], [-76.924, 7.935], [-76.912, 8.042], [-76.834, 8.027], [-76.864, 8.055], [-76.835, 8.057], [-76.859, 8.078], [-76.828, 8.092], [-76.834, 8.131], [-76.945, 8.126], [-76.916, 8.187], [-76.96, 8.196], [-76.959, 8.264], [-77.037, 8.258], [-77.136, 8.414], [-77.249, 8.471], [-77.349, 8.667], [-77.438, 8.659], [-77.524, 8.697], [-77.532, 8.76], [-77.703, 8.877], [-77.748, 8.977], [-77.859, 9.101], [-77.856, 9.049], [-78.036, 9.23], [-78.281, 9.296], [-78.555, 9.429], [-78.607, 9.407], [-78.772, 9.44], [-78.859, 9.404], [-78.956, 9.446], [-79.057, 9.43], [-79.066, 9.494], [-78.959, 9.543], [-79.224, 9.526], [-79.434, 9.588], [-79.512, 9.565], [-79.533, 9.62], [-79.626, 9.594], [-79.671, 9.559], [-79.647, 9.551], [-79.688, 9.489], [-79.806, 9.4], [-79.792, 9.349], [-79.862, 9.39], [-79.933, 9.3], [-79.943, 9.357], [-79.965, 9.354], [-80.118, 9.207], [-80.523, 9.096], [-80.747, 8.977], [-80.83, 8.881], [-81.144, 8.789], [-81.505, 8.791], [-81.713, 9.019], [-81.82, 9.054], [-81.844, 9.103], [-81.814, 9.116], [-81.884, 9.174], [-81.91, 9.159], [-81.863, 9.132], [-81.937, 9.127], [-81.773, 8.994], [-81.781, 8.929], [-81.902, 8.971], [-81.949, 8.93], [-81.999, 8.953], [-82.076, 8.922], [-82.129, 8.983], [-82.258, 9.011], [-82.24, 9.083], [-82.275, 9.103], [-82.252, 9.108], [-82.266, 9.144], [-82.245, 9.17], [-82.174, 9.146], [-82.171, 9.193], [-82.207, 9.22], [-82.249, 9.179], [-82.288, 9.218], [-82.305, 9.185], [-82.346, 9.202], [-82.393, 9.266], [-82.342, 9.295], [-82.382, 9.339], [-82.34, 9.424], [-82.375, 9.41], [-82.624, 9.629], [-82.774, 9.659], [-82.803, 9.739], [-82.853, 9.744], [-83.018, 9.996], [-83.099, 10.003], [-83.214, 10.137], [-83.462, 10.479], [-83.574, 10.761], [-83.586, 10.721], [-83.594, 10.748], [-83.633, 10.719], [-83.603, 10.758], [-83.624, 10.852], [-83.578, 10.779], [-83.602, 10.867], [-83.651, 10.929], [-83.712, 10.924], [-83.809, 11.073], [-83.871, 11.314], [-83.858, 11.392], [-83.791, 11.443], [-83.762, 11.551], [-83.648, 11.614], [-83.699, 11.846], [-83.731, 11.862], [-83.738, 11.801], [-83.771, 11.8], [-83.832, 11.872], [-83.759, 11.938], [-83.75, 12.014], [-83.802, 12.056], [-83.739, 12.045], [-83.709, 12.121], [-83.776, 12.178], [-83.729, 12.175], [-83.697, 12.13], [-83.691, 12.089], [-83.723, 12.068], [-83.675, 11.981], [-83.668, 12.234], [-83.614, 12.34], [-83.653, 12.341], [-83.674, 12.281], [-83.672, 12.341], [-83.719, 12.334], [-83.726, 12.463], [-83.776, 12.474], [-83.775, 12.523], [-83.592, 12.623], [-83.648, 12.793], [-83.604, 12.819], [-83.554, 12.804], [-83.561, 12.589], [-83.582, 12.562], [-83.631, 12.569], [-83.634, 12.481], [-83.598, 12.422], [-83.633, 12.381], [-83.485, 12.399], [-83.482, 12.466], [-83.539, 12.592], [-83.501, 12.896], [-83.563, 13.219], [-83.551, 13.451], [-83.424, 13.971], [-83.261, 14.171], [-83.187, 14.324], [-83.297, 14.775], [-83.314, 14.749], [-83.353, 14.769], [-83.324, 14.746], [-83.349, 14.73], [-83.391, 14.806], [-83.421, 14.806], [-83.32, 14.914], [-83.287, 14.827], [-83.326, 14.831], [-83.304, 14.813], [-83.325, 14.79], [-83.293, 14.794], [-83.193, 14.977], [-83.13, 14.995], [-83.287, 15.07], [-83.387, 15.252], [-83.698, 15.397], [-83.724, 15.367], [-83.524, 15.293], [-83.477, 15.212], [-83.525, 15.208], [-83.568, 15.158], [-83.596, 15.205], [-83.614, 15.169], [-83.597, 15.231], [-83.543, 15.197], [-83.519, 15.245], [-83.531, 15.282], [-83.618, 15.293], [-83.63, 15.259], [-83.758, 15.197], [-83.774, 15.285], [-83.815, 15.273], [-83.814, 15.318], [-83.972, 15.411], [-84.031, 15.397], [-83.829, 15.259], [-83.916, 15.239], [-83.958, 15.291], [-83.932, 15.308], [-84.0, 15.306], [-84.027, 15.373], [-84.023, 15.336], [-84.078, 15.351], [-84.118, 15.403], [-84.086, 15.453], [-84.126, 15.528], [-84.179, 15.479], [-84.209, 15.55], [-84.134, 15.546], [-84.082, 15.482], [-84.102, 15.548], [-84.052, 15.511], [-84.007, 15.535], [-83.942, 15.51], [-83.907, 15.45], [-83.753, 15.382], [-83.724, 15.402], [-83.852, 15.457], [-84.265, 15.829], [-84.585, 15.868], [-84.401, 15.823], [-84.511, 15.783], [-84.567, 15.818], [-84.597, 15.774], [-84.629, 15.822], [-84.61, 15.871], [-84.97, 15.991], [-85.187, 15.904], [-85.494, 15.889], [-85.659, 15.957], [-85.684, 15.933], [-85.684, 15.964], [-85.761, 15.996], [-86.009, 16.026], [-85.905, 15.997], [-85.944, 15.922], [-86.179, 15.884], [-86.267, 15.814], [-86.399, 15.766], [-86.478, 15.808], [-86.772, 15.801], [-86.939, 15.756], [-87.352, 15.851], [-87.471, 15.783], [-87.598, 15.866], [-87.614, 15.904], [-87.587, 15.93], [-87.635, 15.908], [-87.629, 15.883], [-87.714, 15.923], [-87.952, 15.864], [-87.929, 15.816], [-88.038, 15.787], [-88.153, 15.682], [-88.61, 15.963], [-88.491, 15.845], [-88.557, 15.851], [-88.593, 15.713], [-88.631, 15.7], [-88.623, 15.749], [-88.743, 15.834], [-88.883, 15.867], [-88.929, 15.974], [-88.751, 16.139], [-88.725, 16.233], [-88.651, 16.252], [-88.646, 16.285], [-88.593, 16.255], [-88.576, 16.284], [-88.579, 16.243], [-88.536, 16.27], [-88.473, 16.387], [-88.442, 16.392], [-88.373, 16.531], [-88.394, 16.544], [-88.312, 16.661], [-88.354, 16.502], [-88.3, 16.652], [-88.299, 16.775], [-88.249, 16.816], [-88.275, 16.904], [-88.209, 16.969], [-88.233, 17.064], [-88.289, 17.122], [-88.294, 17.284], [-88.243, 17.483], [-88.169, 17.499], [-88.271, 17.566], [-88.281, 17.636], [-88.226, 17.716], [-88.202, 17.89], [-88.084, 18.142], [-88.088, 18.326], [-88.143, 18.311], [-88.091, 18.373], [-88.183, 18.336], [-88.277, 18.352], [-88.353, 18.294], [-88.315, 18.367], [-88.376, 18.351], [-88.388, 18.376], [-88.293, 18.441], [-88.299, 18.483], [-88.151, 18.692], [-88.194, 18.671], [-88.189, 18.733], [-88.253, 18.685], [-88.13, 18.782], [-88.123, 18.721], [-88.038, 18.869], [-88.001, 18.681], [-88.081, 18.517], [-87.925, 18.438], [-87.886, 18.286], [-87.858, 18.32], [-87.891, 18.241], [-87.854, 18.236], [-87.848, 18.191], [-87.828, 18.311], [-87.759, 18.413], [-87.73, 18.668], [-87.652, 18.765], [-87.54, 19.215], [-87.461, 19.314], [-87.511, 19.282], [-87.5, 19.326], [-87.552, 19.317], [-87.64, 19.211], [-87.687, 19.248], [-87.676, 19.318], [-87.626, 19.4], [-87.543, 19.434], [-87.571, 19.396], [-87.532, 19.4], [-87.466, 19.447], [-87.412, 19.579], [-87.437, 19.634], [-87.444, 19.579], [-87.527, 19.581], [-87.43922596964588, 19.572222596964586], [-87.446, 19.542], [-87.567, 19.56], [-87.67, 19.505], [-87.661, 19.562], [-87.73, 19.593], [-87.739, 19.675], [-87.657, 19.678], [-87.664, 19.627], [-87.585, 19.797], [-87.521, 19.802], [-87.46, 19.876], [-87.477, 19.961], [-87.441, 19.909], [-87.447, 19.854], [-87.48, 19.832], [-87.472, 19.776], [-87.433, 19.896], [-87.472, 20.093], [-87.421, 20.231], [-87.226, 20.504], [-87.067, 20.615], [-86.878, 20.838], [-86.825, 21.012], [-86.783, 21.032], [-86.738, 21.156], [-86.813, 21.183], [-86.823, 21.421], [-85.65, 22.33], [-84.89, 22.861], [-84.055, 23.338], [-83.263, 23.587], [-82.636, 23.925], [-80.927, 24.68], [-80.214, 25.115], [-80.03, 25.331], [-79.222, 25.229], [-79.247, 25.444], [-79.336, 25.653], [-79.337, 25.842], [-79.26, 25.894], [-79.242, 25.962], [-79.188, 26.004], [-79.186, 26.126], [-79.142, 26.17], [-78.987, 26.162], [-78.802, 26.012], [-78.582, 25.899], [-77.749, 25.837], [-77.71, 25.874], [-77.773, 25.933], [-77.995, 25.937], [-77.999, 26.044], [-78.148, 26.164], [-78.37, 26.173], [-78.46, 26.22], [-78.429, 26.409], [-78.212, 26.506], [-78.004, 26.409], [-77.878, 26.282], [-77.754, 26.22], [-77.632, 26.082], [-77.237, 25.885], [-77.111, 25.931], [-77.121, 26.048], [-75.972, 25.324]], [[-76.356, 25.318], [-76.254, 25.178], [-76.175, 25.144], [-76.145, 25.009], [-76.198, 24.961], [-76.211, 24.866], [-76.181, 24.892], [-76.175, 24.854], [-76.211, 24.807], [-76.338, 24.825], [-76.228, 24.751], [-76.202, 24.668], [-76.162, 24.643], [-76.181, 24.757], [-76.139, 24.846], [-76.156, 24.967], [-76.112, 25.054], [-76.119, 25.131], [-76.347, 25.343], [-76.479, 25.357], [-76.664, 25.502], [-76.689, 25.488], [-76.683, 25.558], [-76.735, 25.559], [-76.782, 25.422], [-76.619, 25.43], [-76.513, 25.352], [-76.356, 25.318]], [[-75.587, 24.512], [-75.471, 24.294], [-75.412, 24.275], [-75.416, 24.201], [-75.515, 24.14], [-75.29, 24.144], [-75.319, 24.223], [-75.473, 24.366], [-75.607, 24.551], [-75.633, 24.652], [-75.729, 24.699], [-75.744, 24.646], [-75.648, 24.585], [-75.643, 24.524], [-75.587, 24.512]], [[-77.742, 24.03], [-77.703, 24.118], [-77.756, 24.129], [-77.728, 24.152], [-77.758, 24.164], [-77.637, 24.23], [-77.676, 24.296], [-77.84, 24.198], [-77.877, 24.141], [-77.916, 24.14], [-77.902, 24.103], [-77.938, 24.096], [-77.831, 24.015], [-77.808, 23.857], [-77.658, 23.879], [-77.763, 23.819], [-77.73, 23.787], [-77.697, 23.777], [-77.573, 23.843], [-77.676, 23.761], [-77.745, 23.782], [-77.773, 23.743], [-77.661, 23.72], [-77.665, 23.757], [-77.605, 23.727], [-77.553, 23.754], [-77.543, 23.801], [-77.572, 23.821], [-77.526, 23.824], [-77.517, 23.928], [-77.601, 23.908], [-77.526, 23.947], [-77.548, 24.119], [-77.63, 24.213], [-77.644, 24.142], [-77.742, 24.03]], [[-77.858, 24.423], [-77.725, 24.473], [-77.753, 24.602], [-77.739, 24.709], [-77.843, 24.794], [-77.931, 24.971], [-77.982, 25.001], [-77.983, 25.146], [-78.212, 25.203], [-78.156, 25.036], [-78.193, 24.949], [-78.177, 24.917], [-78.306, 24.721], [-78.265, 24.671], [-78.259, 24.734], [-78.193, 24.597], [-78.225, 24.611], [-78.22, 24.566], [-78.254, 24.564], [-78.268, 24.626], [-78.271, 24.596], [-78.331, 24.586], [-78.288, 24.656], [-78.315, 24.711], [-78.341, 24.661], [-78.38, 24.665], [-78.441, 24.614], [-78.344, 24.522], [-78.209, 24.457], [-78.133, 24.498], [-78.14, 24.407], [-78.079, 24.372], [-78.045, 24.276], [-78.008, 24.285], [-77.968, 24.344], [-77.871, 24.369], [-77.858, 24.423]], [[-77.541, 24.992], [-77.459, 24.987], [-77.258, 25.043], [-77.359, 25.08], [-77.506, 25.063], [-77.561, 25.021], [-77.541, 24.992]], [[-75.311, 23.574], [-75.277, 23.581], [-75.228, 23.44], [-75.131, 23.355], [-75.108, 23.27], [-75.14, 23.196], [-75.068, 23.112], [-75.154, 23.137], [-75.199, 23.201], [-75.229, 23.172], [-75.101, 23.095], [-74.972, 23.071], [-74.877, 22.891], [-74.831, 22.861], [-74.85, 23.004], [-74.925, 23.087], [-75.069, 23.145], [-75.1, 23.33], [-75.182, 23.452], [-75.197, 23.531], [-75.327, 23.685], [-75.349, 23.619], [-75.314, 23.645], [-75.311, 23.574]], [[-79.8606943661972, 22.865205633802816], [-79.79, 22.893], [-79.861, 22.868], [-79.8606943661972, 22.865205633802816]], [[-79.907, 22.847], [-79.982, 22.876], [-80.04, 22.958], [-80.078, 22.929], [-80.154, 22.962], [-80.155, 22.937], [-80.279, 22.905], [-80.539, 22.989], [-80.621, 23.092], [-80.603, 23.154], [-80.635, 23.151], [-80.616, 23.118], [-80.67, 23.085], [-80.953, 23.055], [-80.979, 23.101], [-81.024, 23.107], [-81.08, 23.097], [-81.128, 23.024], [-81.171, 23.03], [-81.286, 23.12], [-81.131, 23.19], [-81.136, 23.211], [-81.483, 23.1], [-81.525, 23.044], [-81.554, 23.052], [-81.529, 23.109], [-81.581, 23.156], [-81.868, 23.152], [-82.045, 23.193], [-82.331, 23.167], [-82.59, 23.049], [-82.9, 23.029], [-82.974, 22.966], [-83.008, 22.976], [-82.988, 23.008], [-83.054, 23.018], [-83.164, 22.979], [-83.163, 22.926], [-83.176, 22.984], [-83.217, 23.001], [-83.311, 22.958], [-83.388, 22.869], [-83.437, 22.902], [-83.481, 22.858], [-83.538, 22.872], [-83.557, 22.833], [-83.618, 22.836], [-83.661, 22.787], [-83.692, 22.802], [-83.871, 22.75], [-83.988, 22.682], [-84.045, 22.714], [-84.071, 22.694], [-84.025, 22.673], [-84.126, 22.617], [-84.142, 22.569], [-84.211, 22.578], [-84.215, 22.512], [-84.303, 22.476], [-84.391, 22.351], [-84.444, 22.201], [-84.337, 22.125], [-84.321, 22.036], [-84.272, 22.072], [-84.286, 22.019], [-84.324, 21.998], [-84.386, 22.044], [-84.455, 22.012], [-84.514, 22.045], [-84.812, 21.909], [-84.859, 21.936], [-84.845, 21.911], [-84.891, 21.884], [-84.925, 21.917], [-84.953, 21.86], [-84.816, 21.816], [-84.649, 21.916], [-84.495, 21.934], [-84.471, 21.87], [-84.53, 21.773], [-84.501, 21.766], [-84.229, 21.909], [-84.122, 21.94], [-84.026, 21.915], [-83.958, 22.023], [-84.007, 22.056], [-83.971, 22.061], [-83.969, 22.126], [-83.927, 22.164], [-83.793, 22.189], [-83.78, 22.166], [-83.666, 22.167], [-83.569, 22.243], [-83.556, 22.198], [-83.482, 22.175], [-83.407, 22.191], [-83.394, 22.221], [-83.37, 22.2], [-83.258, 22.347], [-83.171, 22.33], [-83.073, 22.48], [-82.801, 22.617], [-82.775, 22.697], [-82.563, 22.671], [-82.261, 22.691], [-82.09, 22.66], [-81.885, 22.681], [-81.645, 22.576], [-81.649, 22.491], [-81.795, 22.436], [-82.119, 22.433], [-82.163, 22.398], [-82.099, 22.343], [-81.874, 22.254], [-81.823, 22.184], [-81.759, 22.172], [-81.753, 22.195], [-81.648, 22.21], [-81.571, 22.173], [-81.526, 22.2], [-81.406, 22.178], [-81.346, 22.084], [-81.272, 22.099], [-81.243, 22.155], [-81.211, 22.054], [-81.192, 22.198], [-81.214, 22.265], [-81.186, 22.28], [-81.134, 22.225], [-81.112, 22.101], [-81.031, 22.064], [-80.47, 22.041], [-80.467, 22.085], [-80.54, 22.161], [-80.482, 22.189], [-80.445, 22.153], [-80.454, 22.122], [-80.397, 22.104], [-80.393, 22.072], [-80.451, 22.064], [-80.444, 22.043], [-80.245, 21.876], [-80.057, 21.806], [-80.01, 21.72], [-79.988, 21.724], [-80.007, 21.751], [-79.897, 21.754], [-79.895, 21.699], [-79.847, 21.668], [-79.821, 21.706], [-79.668, 21.694], [-79.602, 21.638], [-79.534, 21.618], [-79.512, 21.646], [-79.463, 21.594], [-79.372, 21.6], [-79.246, 21.542], [-78.756, 21.641], [-78.688, 21.58], [-78.749, 21.568], [-78.623, 21.514], [-78.541, 21.292], [-78.499, 21.268], [-78.537, 21.252], [-78.495, 21.03], [-78.269, 20.901], [-78.24, 20.833], [-78.165, 20.809], [-78.148, 20.762], [-78.046, 20.698], [-77.936, 20.691], [-77.861, 20.73], [-77.606, 20.666], [-77.572, 20.692], [-77.487, 20.668], [-77.357, 20.718], [-77.259, 20.643], [-77.236, 20.663], [-77.195, 20.632], [-77.241, 20.583], [-77.233, 20.548], [-77.174, 20.547], [-77.078, 20.47], [-77.116, 20.365], [-77.176, 20.296], [-77.243, 20.294], [-77.261, 20.255], [-77.379, 20.211], [-77.537, 20.084], [-77.586, 20.083], [-77.574, 20.056], [-77.742, 19.874], [-77.723, 19.833], [-77.356, 19.856], [-77.306, 19.903], [-77.188, 19.912], [-77.005, 19.876], [-76.87, 19.932], [-76.345, 19.958], [-76.249, 19.991], [-76.012, 19.953], [-75.725, 19.955], [-75.586, 19.888], [-75.356, 19.876], [-75.164, 19.932], [-75.148, 19.978], [-75.176, 20.005], [-75.128, 19.999], [-75.093, 20.056], [-75.078, 20.011], [-75.14, 19.968], [-75.103, 19.937], [-75.164, 19.902], [-75.121, 19.888], [-75.015, 19.904], [-74.962, 19.974], [-74.885, 19.981], [-74.762, 20.048], [-74.366, 20.079], [-74.281, 20.057], [-74.134, 20.188], [-74.141, 20.252], [-74.223, 20.314], [-74.391, 20.282], [-74.501, 20.352], [-74.602, 20.484], [-74.729, 20.555], [-74.746, 20.616], [-74.864, 20.63], [-74.956, 20.685], [-75.027, 20.698], [-75.102, 20.662], [-75.243, 20.723], [-75.33, 20.711], [-75.257, 20.668], [-75.328, 20.661], [-75.373, 20.699], [-75.352, 20.719], [-75.435, 20.734], [-75.474, 20.725], [-75.449, 20.689], [-75.552, 20.708], [-75.554, 20.684], [-75.614, 20.717], [-75.629, 20.774], [-75.706, 20.694], [-75.737, 20.697], [-75.78, 20.743], [-75.768, 20.833], [-75.634, 20.846], [-75.574, 20.792], [-75.547, 20.814], [-75.626, 20.876], [-75.716, 20.85], [-75.749, 20.878], [-75.719, 20.92], [-75.658, 20.886], [-75.58, 21.007], [-75.615, 21.069], [-75.674, 21.067], [-75.707, 21.122], [-75.817, 21.133], [-75.868, 21.087], [-75.924, 21.111], [-76.012, 21.066], [-76.062, 21.105], [-76.119, 21.09], [-76.156, 21.178], [-76.364, 21.274], [-76.517, 21.281], [-76.533, 21.244], [-76.456, 21.223], [-76.536, 21.183], [-76.613, 21.223], [-76.552, 21.227], [-76.549, 21.287], [-76.558, 21.264], [-76.652, 21.296], [-76.615, 21.245], [-76.735, 21.279], [-76.735, 21.308], [-76.712, 21.287], [-76.642, 21.313], [-76.658, 21.353], [-76.801, 21.385], [-76.834, 21.302], [-76.834, 21.334], [-76.896, 21.306], [-76.902, 21.341], [-76.829, 21.353], [-76.811, 21.393], [-76.946, 21.452], [-77.086, 21.604], [-77.156, 21.48], [-77.21, 21.454], [-77.214, 21.478], [-77.259, 21.474], [-77.277, 21.517], [-77.252, 21.568], [-77.364, 21.617], [-77.264, 21.612], [-77.158, 21.551], [-77.122, 21.593], [-77.134, 21.661], [-77.172, 21.656], [-77.465, 21.826], [-77.543, 21.919], [-77.61, 21.883], [-77.505, 21.797], [-77.448, 21.802], [-77.337, 21.639], [-77.433, 21.657], [-77.457, 21.741], [-77.424, 21.74], [-77.463, 21.779], [-77.533, 21.753], [-77.756, 21.804], [-77.78, 21.874], [-77.852, 21.911], [-77.85, 21.944], [-77.806, 21.962], [-77.853, 21.972], [-77.888, 21.866], [-78.056, 22.079], [-78.155, 22.109], [-78.166, 22.139], [-78.312, 22.167], [-78.382, 22.243], [-78.504, 22.266], [-78.702, 22.385], [-78.736, 22.386], [-78.712, 22.355], [-78.734, 22.312], [-78.791, 22.395], [-79.086, 22.38], [-79.135, 22.401], [-79.156, 22.372], [-79.256, 22.372], [-79.336, 22.407], [-79.623, 22.647], [-79.654, 22.759], [-79.703, 22.743], [-79.78, 22.796], [-79.854, 22.804], [-79.8606943661972, 22.865205633802816], [-79.907, 22.847]], [[-74.241, 22.715], [-74.158, 22.672], [-74.103, 22.688], [-74.089, 22.657], [-74.018, 22.716], [-74.138, 22.73], [-74.219, 22.808], [-74.316, 22.839], [-74.348, 22.819], [-74.281, 22.689], [-74.241, 22.715]], [[-73.979, 22.669], [-74.017, 22.679], [-73.997, 22.658], [-74.038, 22.622], [-73.982, 22.59], [-73.921, 22.599], [-73.868, 22.512], [-73.911, 22.469], [-73.984, 22.458], [-74.01, 22.405], [-74.081, 22.391], [-74.078, 22.357], [-74.178, 22.295], [-74.219, 22.217], [-74.277, 22.217], [-74.281, 22.173], [-74.181, 22.223], [-74.118, 22.298], [-73.977, 22.346], [-73.868, 22.469], [-73.829, 22.539], [-73.859, 22.663], [-73.9, 22.698], [-73.868, 22.675], [-73.858, 22.73], [-73.948, 22.719], [-73.936, 22.696], [-73.979, 22.669]], [[-72.788, 22.283], [-72.738, 22.326], [-72.823, 22.381], [-73.134, 22.454], [-73.162, 22.362], [-73.061, 22.339], [-72.886, 22.36], [-72.788, 22.283]], [[-77.915, 22.2], [-77.955, 22.239], [-77.985, 22.229], [-77.971, 22.285], [-78.015, 22.309], [-78.005, 22.226], [-78.041, 22.183], [-77.953, 22.114], [-77.924, 22.148], [-77.865, 22.096], [-77.83, 22.159], [-77.897, 22.196], [-77.859, 22.218], [-77.898, 22.229], [-77.915, 22.2]], [[-77.942, 22.055], [-77.886, 22.003], [-77.818, 22.029], [-77.824, 21.98], [-77.742, 21.958], [-77.706, 21.909], [-77.694, 21.948], [-77.679, 21.924], [-77.635, 21.941], [-77.654, 21.964], [-77.621, 22.031], [-77.649, 22.067], [-77.769, 22.069], [-77.799, 22.102], [-77.874, 22.071], [-77.937, 22.103], [-77.942, 22.055]], [[-71.978, 21.889], [-71.953, 21.851], [-71.899, 21.822], [-71.861, 21.837], [-71.915, 21.883], [-71.925, 21.948], [-72.045, 21.943], [-71.991, 21.891], [-71.946, 21.941], [-71.978, 21.889]], [[-71.644, 21.744], [-71.665, 21.83], [-71.851, 21.846], [-71.828, 21.776], [-71.719, 21.79], [-71.644, 21.744]], [[-78.202, 22.437], [-78.311, 22.41], [-78.231, 22.383], [-78.235, 22.333], [-78.201, 22.37], [-78.157, 22.302], [-78.011, 22.275], [-78.069, 22.308], [-78.119, 22.414], [-78.202, 22.437]], [[-78.537, 22.523], [-78.673, 22.558], [-78.694, 22.531], [-78.691, 22.5], [-78.658, 22.532], [-78.653, 22.487], [-78.537, 22.448], [-78.4, 22.461], [-78.43, 22.414], [-78.41, 22.426], [-78.276, 22.445], [-78.391, 22.558], [-78.537, 22.523]], [[-73.342, 21.166], [-73.389, 21.231], [-73.427, 21.192], [-73.536, 21.183], [-73.57, 21.13], [-73.679, 21.108], [-73.654, 21.048], [-73.723, 21.021], [-73.684, 20.931], [-73.453, 20.925], [-73.152, 20.972], [-73.021, 21.175], [-73.003, 21.312], [-73.07, 21.317], [-73.138, 21.187], [-73.256, 21.136], [-73.342, 21.166]], [[-72.829, 20.088], [-72.956, 20.05], [-72.622, 19.995], [-72.829, 20.088]], [[-73.288, 19.852], [-73.407, 19.831], [-73.364, 19.819], [-73.437, 19.775], [-73.465, 19.688], [-73.376, 19.624], [-73.218, 19.643], [-72.997, 19.602], [-72.8, 19.496], [-72.761, 19.445], [-72.697, 19.452], [-72.678, 19.407], [-72.731, 19.425], [-72.723, 19.378], [-72.773, 19.37], [-72.714, 19.292], [-72.771, 19.286], [-72.802, 19.225], [-72.711, 19.11], [-72.81, 19.086], [-72.818, 19.044], [-72.64, 18.906], [-72.547, 18.782], [-72.328, 18.683], [-72.35, 18.53], [-72.595, 18.563], [-72.734, 18.425], [-72.89, 18.428], [-72.973, 18.464], [-73.094, 18.444], [-73.144, 18.48], [-73.507, 18.526], [-73.658, 18.498], [-73.707, 18.546], [-73.607, 18.545], [-73.578, 18.58], [-73.792, 18.53], [-74.178, 18.667], [-74.268, 18.666], [-74.421, 18.612], [-74.413, 18.562], [-74.486, 18.426], [-74.447, 18.342], [-74.362, 18.289], [-74.234, 18.306], [-74.098, 18.245], [-73.953, 18.13], [-73.882, 18.023], [-73.79, 18.031], [-73.833, 18.134], [-73.651, 18.255], [-73.656, 18.209], [-73.632, 18.249], [-73.621, 18.217], [-73.577, 18.212], [-73.551, 18.256], [-73.528, 18.23], [-73.386, 18.262], [-73.309, 18.243], [-73.357, 18.219], [-73.191, 18.216], [-72.819, 18.138], [-72.753, 18.15], [-72.751, 18.175], [-72.554, 18.17], [-72.553, 18.222], [-72.069, 18.24], [-71.908, 18.174], [-71.805, 18.053], [-71.679, 17.983], [-71.669, 17.897], [-71.626, 17.836], [-71.677, 17.759], [-71.524, 17.749], [-71.423, 17.602], [-71.307, 17.815], [-71.194, 17.922], [-71.056, 18.144], [-71.103, 18.246], [-71.08, 18.301], [-70.991, 18.295], [-70.936, 18.254], [-70.85, 18.344], [-70.73, 18.358], [-70.69, 18.434], [-70.586, 18.402], [-70.592, 18.282], [-70.547, 18.236], [-70.569, 18.21], [-70.511, 18.195], [-70.388, 18.237], [-70.154, 18.233], [-70.018, 18.413], [-69.882, 18.469], [-69.691, 18.456], [-69.626, 18.406], [-69.616, 18.451], [-69.517, 18.403], [-69.228, 18.448], [-69.06, 18.391], [-68.96, 18.42], [-68.832, 18.357], [-68.754, 18.2], [-68.65, 18.204], [-68.594, 18.329], [-68.606, 18.368], [-68.453, 18.352], [-68.445, 18.418], [-68.324, 18.594], [-68.358, 18.655], [-68.79, 18.981], [-68.976, 19.034], [-69.051, 18.978], [-69.139, 19.046], [-69.139, 19.012], [-69.254, 19.021], [-69.366, 19.057], [-69.415, 19.106], [-69.474, 19.104], [-69.447, 19.076], [-69.623, 19.089], [-69.615, 19.225], [-69.23, 19.18], [-69.157, 19.293], [-69.241, 19.29], [-69.216, 19.354], [-69.239, 19.365], [-69.338, 19.293], [-69.526, 19.336], [-69.754, 19.289], [-69.876, 19.44], [-69.874, 19.514], [-69.901, 19.531], [-69.882, 19.612], [-69.946, 19.676], [-70.036, 19.683], [-70.125, 19.621], [-70.288, 19.648], [-70.455, 19.784], [-70.63, 19.759], [-70.747, 19.837], [-70.785, 19.83], [-70.842, 19.904], [-70.956, 19.891], [-70.998, 19.931], [-71.161, 19.865], [-71.167, 19.835], [-71.192, 19.868], [-71.261, 19.823], [-71.486, 19.905], [-71.664, 19.895], [-71.679, 19.836], [-71.776, 19.779], [-71.74, 19.767], [-71.72, 19.698], [-71.838, 19.711], [-71.806, 19.671], [-71.824, 19.655], [-71.908, 19.679], [-71.864, 19.714], [-71.959, 19.729], [-72.025, 19.696], [-72.131, 19.747], [-72.202, 19.742], [-72.204, 19.784], [-72.317, 19.763], [-72.326, 19.709], [-72.391, 19.813], [-72.493, 19.821], [-72.685, 19.92], [-72.833, 19.936], [-72.969, 19.902], [-73.164, 19.933], [-73.288, 19.852]], [[-67.163, 18.015], [-67.201, 17.991], [-67.187, 17.933], [-67.056, 17.978], [-66.927, 17.929], [-66.808, 17.96], [-66.78, 17.999], [-66.587, 17.961], [-66.465, 17.987], [-66.396, 17.94], [-66.336, 17.976], [-66.238, 17.928], [-66.207, 17.952], [-66.204, 17.922], [-66.019, 17.978], [-65.943, 17.966], [-65.841, 18.023], [-65.732, 18.186], [-65.603, 18.237], [-65.637, 18.282], [-65.626, 18.386], [-65.676, 18.37], [-65.891, 18.452], [-66.031, 18.445], [-66.117, 18.474], [-66.056, 18.43], [-66.103, 18.416], [-66.141, 18.479], [-66.169, 18.458], [-66.382, 18.491], [-66.726, 18.479], [-67.102, 18.518], [-67.178, 18.476], [-67.177, 18.4], [-67.263, 18.353], [-67.146, 18.205], [-67.197, 18.039], [-67.163, 18.015]], [[-65.275, 18.133], [-65.434, 18.164], [-65.526, 18.126], [-65.58, 18.115], [-65.525, 18.083], [-65.275, 18.133]], [[-68.694, 18.111], [-68.569, 18.104], [-68.598, 18.161], [-68.784, 18.195], [-68.758, 18.131], [-68.694, 18.111]], [[-64.56, 17.748], [-64.658, 17.769], [-64.697, 17.746], [-64.797, 17.789], [-64.89, 17.758], [-64.896, 17.677], [-64.56, 17.748]], [[-77.132, 17.879], [-77.076, 17.902], [-77.034, 17.887], [-77.032, 17.843], [-76.948, 17.829], [-76.836, 17.987], [-76.725, 17.949], [-76.832, 17.933], [-76.658, 17.929], [-76.598, 17.862], [-76.351, 17.856], [-76.315, 17.891], [-76.313, 17.864], [-76.189, 17.915], [-76.237, 17.946], [-76.342, 18.15], [-76.783, 18.268], [-76.911, 18.401], [-77.111, 18.396], [-77.244, 18.452], [-77.864, 18.522], [-77.936, 18.496], [-77.957, 18.438], [-78.214, 18.451], [-78.27, 18.386], [-78.34, 18.362], [-78.362, 18.235], [-78.233, 18.189], [-78.057, 18.196], [-77.953, 18.032], [-77.847, 18.011], [-77.835, 17.944], [-77.733, 17.849], [-77.493, 17.837], [-77.412, 17.86], [-77.183, 17.698], [-77.13, 17.714], [-77.138, 17.743], [-77.213, 17.771], [-77.174, 17.779], [-77.132, 17.879]], [[-87.904, 18.147], [-87.956, 18.011], [-87.941, 17.956], [-88.006, 17.902], [-87.961, 17.904], [-87.902, 18.018], [-87.925, 17.999], [-87.853, 18.165], [-87.904, 18.147]], [[-72.816, 18.699], [-72.814, 18.786], [-72.857, 18.835], [-73.199, 18.969], [-73.3, 18.927], [-73.218, 18.834], [-72.816, 18.699]], [[-81.281, 19.367], [-81.273, 19.326], [-81.356, 19.304], [-81.404, 19.401], [-81.432, 19.379], [-81.398, 19.356], [-81.384, 19.265], [-81.116, 19.299], [-81.093, 19.333], [-81.281, 19.367]], [[-86.917, 20.56], [-86.971, 20.493], [-87.02, 20.392], [-87.018, 20.298], [-86.993, 20.256], [-86.937, 20.298], [-86.735, 20.591], [-86.829, 20.542], [-86.917, 20.56]], [[-82.598, 21.749], [-82.69, 21.804], [-82.698, 21.888], [-82.827, 21.928], [-82.993, 21.945], [-82.961, 21.924], [-83.087, 21.811], [-82.985, 21.609], [-82.934, 21.591], [-82.955, 21.562], [-82.963, 21.596], [-83.021, 21.542], [-83.074, 21.544], [-83.192, 21.628], [-83.149, 21.527], [-83.077, 21.464], [-82.904, 21.433], [-82.599, 21.538], [-82.543, 21.59], [-82.616, 21.665], [-82.598, 21.749]], [[-76.029, 23.672], [-76.002, 23.615], [-76.035, 23.592], [-75.944, 23.585], [-75.805, 23.5], [-75.806, 23.471], [-75.661, 23.44], [-75.828, 23.544], [-75.908, 23.64], [-75.989, 23.685], [-76.029, 23.672]], [[-62.693, 17.278], [-62.659, 17.211], [-62.622, 17.224], [-62.73, 17.365], [-62.818, 17.411], [-62.864, 17.371], [-62.839, 17.328], [-62.693, 17.278]], [[-62.202, 16.814], [-62.237, 16.718], [-62.19, 16.672], [-62.138, 16.693], [-62.176, 16.809], [-62.202, 16.814]], [[-61.544, 16.285], [-61.607, 16.275], [-61.604, 16.302], [-61.731, 16.362], [-61.784, 16.333], [-61.761, 16.057], [-61.691, 15.946], [-61.559, 16.034], [-61.574, 16.233], [-61.455, 16.201], [-61.166, 16.249], [-61.366, 16.344], [-61.405, 16.473], [-61.46, 16.514], [-61.532, 16.452], [-61.493, 16.357], [-61.544, 16.285]], [[-61.246, 15.872], [-61.187, 15.91], [-61.261, 16.013], [-61.309, 15.973], [-61.33, 15.934], [-61.31, 15.883], [-61.246, 15.872]], [[-86.596, 16.338], [-86.635, 16.276], [-86.477, 16.351], [-86.214, 16.423], [-86.41, 16.422], [-86.596, 16.338]], [[-61.364, 15.198], [-61.265, 15.258], [-61.253, 15.461], [-61.304, 15.574], [-61.452, 15.632], [-61.491, 15.541], [-61.393, 15.355], [-61.364, 15.198]], [[-60.993, 14.55], [-61.081, 14.541], [-61.103, 14.513], [-61.078, 14.473], [-60.902, 14.452], [-60.863, 14.473], [-60.88, 14.407], [-60.839, 14.415], [-60.81, 14.463], [-60.83, 14.57], [-60.9, 14.627], [-60.891, 14.664], [-60.94, 14.672], [-60.909, 14.696], [-60.941, 14.741], [-60.878, 14.773], [-60.958, 14.746], [-61.034, 14.829], [-61.165, 14.88], [-61.227, 14.832], [-61.224, 14.796], [-61.096, 14.604], [-61.014, 14.605], [-60.993, 14.55]], [[-60.879, 13.976], [-60.93, 14.109], [-61.075, 13.897], [-61.073, 13.797], [-61.026, 13.752], [-60.951, 13.71], [-60.9, 13.778], [-60.879, 13.976]], [[-61.144, 13.378], [-61.177, 13.384], [-61.266, 13.286], [-61.281, 13.208], [-61.191, 13.131], [-61.148, 13.162], [-61.12, 13.307], [-61.144, 13.378]], [[-69.873, 12.416], [-69.932, 12.528], [-70.059, 12.631], [-70.059, 12.538], [-69.98, 12.472], [-69.925, 12.442], [-69.942, 12.429], [-69.873, 12.416]], [[-69.037, 12.196], [-68.97, 12.118], [-68.828, 12.047], [-68.742, 12.042], [-68.824, 12.16], [-68.997, 12.216], [-69.078, 12.349], [-69.153, 12.391], [-69.159, 12.29], [-69.067, 12.188], [-69.037, 12.196]], [[-68.239, 12.022], [-68.195, 12.221], [-68.384, 12.307], [-68.417, 12.251], [-68.394, 12.219], [-68.299, 12.195], [-68.275, 12.051], [-68.239, 12.022]], [[-61.699, 11.998], [-61.642, 12.034], [-61.596, 12.126], [-61.612, 12.231], [-61.687, 12.218], [-61.747, 12.105], [-61.746, 12.04], [-61.784, 12.001], [-61.699, 11.998]], [[-60.786, 11.143], [-60.531, 11.259], [-60.521, 11.334], [-60.551, 11.336], [-60.691, 11.293], [-60.847, 11.158], [-60.786, 11.143]], [[-64.045, 10.987], [-64.176, 11.032], [-64.218, 11.088], [-64.375, 11.06], [-64.406, 10.967], [-64.224, 10.931], [-64.172, 10.96], [-64.051, 10.886], [-64.056, 10.857], [-63.959, 10.896], [-63.895, 10.883], [-63.844, 10.963], [-63.781, 10.977], [-63.874, 11.151], [-63.881, 11.177], [-63.989, 11.106], [-64.045, 10.987]], [[-65.364, 10.969], [-65.417, 10.925], [-65.269, 10.881], [-65.201, 10.896], [-65.212, 10.956], [-65.364, 10.969]], [[-61.399, 10.763], [-61.464, 10.775], [-61.662, 10.709], [-61.654, 10.678], [-61.544, 10.668], [-61.474, 10.598], [-61.459, 10.533], [-61.49, 10.414], [-61.458, 10.278], [-61.511, 10.234], [-61.63, 10.242], [-61.693, 10.167], [-61.915, 10.074], [-61.915, 10.039], [-61.803, 10.082], [-61.627, 10.052], [-61.2, 10.069], [-60.997, 10.136], [-60.998, 10.292], [-60.964, 10.328], [-61.02, 10.39], [-61.045, 10.486], [-61.012, 10.534], [-61.037, 10.664], [-60.908, 10.831], [-61.156, 10.811], [-61.196, 10.789], [-61.361, 10.808], [-61.399, 10.763]]], [[[-87.43922596964588, 19.572222596964586], [-87.433, 19.6], [-87.437, 19.572], [-87.43922596964588, 19.572222596964586]]]]}}