{"type": "Feature", "properties": {"geometry_method": "target polygon used as intended article/model envelope", "geometry_confidence": "medium"}, "geometry": {"type": "MultiPolygon", "coordinates": [[[[104.191, 1.801], [104.134, 1.844], [104.11, 1.981], [103.973, 2.195], [103.951, 2.329], [103.831, 2.464], [103.82, 2.578], [103.764, 2.65], [103.637, 2.664], [103.44, 2.918], [103.455, 3.188], [103.426, 3.392], [103.478, 3.507], [103.45, 3.505], [103.464, 3.53], [103.371, 3.643], [103.335, 3.742], [103.35, 3.797], [103.382, 3.805], [103.399, 3.954], [103.441, 3.955], [103.395, 4.106], [103.493, 4.299], [103.454, 4.472], [103.448, 4.786], [103.126, 5.371], [102.977, 5.527], [102.838, 5.592], [102.505, 5.879], [102.342, 6.169], [102.194, 6.232], [102.167, 6.194], [101.794, 6.47], [101.541, 6.851], [101.287, 6.954], [101.259, 6.94], [101.332, 6.917], [101.36, 6.873], [101.273, 6.892], [101.03, 6.845], [100.853, 6.958], [100.777, 6.969], [100.594, 7.213], [100.535, 7.129], [100.421, 7.159], [100.391, 7.211], [100.419, 7.242], [100.368, 7.328], [100.266, 7.378], [100.229, 7.479], [100.181, 7.521], [100.146, 7.711], [100.21, 7.779], [100.271, 7.793], [100.307, 7.746], [100.325, 7.621], [100.277, 7.578], [100.27, 7.525], [100.356, 7.572], [100.405, 7.524], [100.424, 7.266], [100.567, 7.189], [100.581, 7.222], [100.516, 7.294], [100.437, 7.469], [100.224, 8.441], [100.142, 8.525], [100.186, 8.399], [100.163, 8.38], [100.11, 8.409], [99.959, 8.625], [99.934, 9.005], [99.848, 9.301], [99.698, 9.321], [99.619, 9.27], [99.537, 9.281], [99.495, 9.211], [99.447, 9.192], [99.271, 9.217], [99.237, 9.254], [99.227, 9.335], [99.321, 9.392], [99.178, 9.636], [99.147, 9.763], [99.154, 9.983], [99.183, 10.01], [99.15, 10.11], [99.196, 10.205], [99.252, 10.226], [99.158, 10.299], [99.149, 10.366], [99.235, 10.342], [99.282, 10.362], [99.24, 10.521], [99.281, 10.549], [99.315, 10.647], [99.374, 10.678], [99.439, 10.866], [99.483, 10.885], [99.504, 10.861], [99.522, 10.892], [99.493, 10.953], [99.515, 11.037], [99.492, 11.116], [99.525, 11.187], [99.583, 11.188], [99.562, 11.321], [99.638, 11.51], [99.734, 11.687], [99.813, 11.74], [99.836, 11.925], [100.018, 12.184], [99.979, 12.274], [100.01, 12.369], [99.973, 12.468], [99.962, 12.674], [100.046, 12.956], [100.105, 13.043], [100.071, 13.154], [99.957, 13.291], [100.048, 13.41], [100.255, 13.481], [100.273, 13.511], [100.333, 13.483], [100.563, 13.511], [100.593, 13.606], [100.586, 13.554], [100.656, 13.511], [100.915, 13.463], [100.993, 13.492], [100.985, 13.369], [100.913, 13.302], [100.944, 13.2], [100.88, 13.09], [100.934, 13.011], [100.863, 12.924], [100.918, 12.802], [100.841, 12.735], [100.861, 12.647], [100.926, 12.657], [100.924, 12.619], [100.967, 12.597], [100.981, 12.644], [101.109, 12.675], [101.262, 12.654], [101.418, 12.586], [101.456, 12.629], [101.645, 12.646], [101.679, 12.693], [101.747, 12.707], [101.857, 12.651], [101.947, 12.525], [101.93, 12.59], [101.957, 12.602], [101.957, 12.536], [102.026, 12.516], [102.046, 12.467], [102.064, 12.52], [102.006, 12.557], [102.06, 12.568], [102.034, 12.541], [102.107, 12.535], [102.067, 12.481], [102.25, 12.303], [102.276, 12.308], [102.255, 12.368], [102.201, 12.43], [102.269, 12.435], [102.272, 12.391], [102.301, 12.422], [102.272, 12.36], [102.293, 12.315], [102.342, 12.334], [102.336, 12.374], [102.366, 12.343], [102.309, 12.287], [102.26, 12.288], [102.285, 12.197], [102.469, 12.158], [102.576, 12.046], [102.554, 12.199], [102.605, 12.219], [102.65, 12.165], [102.625, 12.145], [102.762, 12.029], [102.771, 11.908], [102.902, 11.746], [102.91, 11.645], [102.954, 11.57], [102.967, 11.718], [102.893, 11.828], [102.976, 11.711], [103.01282344531809, 11.715432451751251], [102.967, 11.675], [102.969, 11.637], [102.983, 11.668], [103.044, 11.63], [102.989, 11.635], [103.001, 11.55], [102.956, 11.551], [103.029, 11.542], [103.033, 11.599], [103.053, 11.59], [103.064, 11.502], [103.11, 11.464], [103.135, 11.505], [103.171, 11.428], [103.126, 11.46], [103.064, 11.444], [103.096, 11.356], [103.135, 11.353], [103.154, 11.303], [103.078, 11.283], [103.054, 11.225], [103.118, 11.153], [103.095, 10.938], [103.125, 10.872], [103.217, 10.873], [103.275, 10.929], [103.352, 10.869], [103.42, 10.89], [103.411, 10.959], [103.475, 11.087], [103.447, 11.089], [103.469, 11.148], [103.555, 11.157], [103.605, 11.086], [103.669, 11.065], [103.722, 10.866], [103.663, 10.761], [103.684, 10.741], [103.559, 10.716], [103.498, 10.616], [103.575, 10.541], [103.608, 10.551], [103.623, 10.496], [103.738, 10.496], [103.703, 10.559], [103.824, 10.541], [103.864, 10.609], [103.868, 10.693], [103.935, 10.586], [104.09, 10.548], [104.167, 10.562], [104.184, 10.538], [104.251, 10.567], [104.295, 10.478], [104.353, 10.492], [104.425, 10.448], [104.452, 10.37], [104.521, 10.418], [104.528, 10.388], [104.494, 10.372], [104.538, 10.281], [104.584, 10.268], [104.609, 10.145], [104.648, 10.139], [104.734, 10.234], [104.804, 10.207], [104.896, 10.093], [104.977, 10.108], [105.04, 10.051], [105.107, 9.945], [105.115, 9.857], [105.065, 9.939], [104.892, 9.797], [104.836, 9.557], [104.811, 9.154], [104.83, 8.976], [104.799, 8.789], [104.832, 8.768], [104.932, 8.821], [104.921, 8.741], [104.846, 8.716], [104.88, 8.693], [104.965, 8.711], [104.905, 8.682], [104.823, 8.693], [104.835, 8.658], [104.722, 8.6], [104.295, 1.46], [104.191, 1.801]], [[100.081, 9.589], [100.047, 9.56], [99.926, 9.566], [99.941, 9.421], [99.985, 9.418], [100.068, 9.468], [100.081, 9.589]], [[104.084, 10.362], [103.999, 10.448], [103.929, 10.362], [103.837, 10.366], [103.864, 10.3], [103.949, 10.244], [104.002, 10.042], [104.05, 10.004], [104.033, 10.086], [104.086, 10.246], [104.084, 10.362]], [[102.251, 12.15], [102.291, 11.974], [102.366, 11.962], [102.379, 11.996], [102.433, 11.953], [102.448, 11.973], [102.405, 12.032], [102.356, 12.111], [102.251, 12.15]], [[104.123, 2.782], [104.164, 2.705], [104.221, 2.723], [104.172, 2.895], [104.162, 2.812], [104.123, 2.782]]], [[[103.02408571428572, 11.716788095238096], [103.084, 11.724], [103.054, 11.701], [103.02408571428572, 11.716788095238096]]], [[[103.02408571428572, 11.716788095238096], [103.01282344531809, 11.715432451751251], [103.018, 11.72], [103.02408571428572, 11.716788095238096]]]]}}