{"type": "Feature", "properties": {"geometry_method": "Selected ecosystem polygon used as intended study envelope, not a recovered author boundary", "geometry_confidence": "low"}, "geometry": {"type": "MultiPolygon", "coordinates": [[[[-66.319, 43.73], [-66.247, 43.561], [-65.869, 42.982], [-65.685, 42.757], [-65.343, 42.461], [-64.995, 42.259], [-65.156, 42.241], [-65.246, 42.164], [-65.371, 42.147], [-65.393, 42.087], [-65.62, 41.897], [-65.655, 41.754], [-65.928, 41.468], [-65.932, 41.372], [-66.117, 41.286], [-66.244, 41.144], [-66.409, 41.026], [-66.428, 40.964], [-66.717, 40.8], [-66.692, 40.687], [-66.866, 40.501], [-67.128, 40.445], [-67.508, 40.288], [-67.727, 40.251], [-67.852, 40.274], [-67.941, 40.221], [-68.068, 40.227], [-68.284, 40.18], [-68.37, 40.092], [-68.486, 40.092], [-68.576, 40.016], [-68.909, 39.972], [-69.035, 40.0], [-69.122, 39.916], [-69.569, 39.867], [-69.672, 39.829], [-69.796, 39.852], [-70.021, 39.83], [-70.274, 39.893], [-70.369, 39.831], [-70.717, 39.832], [-70.822, 39.799], [-70.952, 39.838], [-71.18, 39.828], [-71.377, 39.73], [-71.496, 39.738], [-71.685, 39.615], [-71.798, 39.607], [-71.847, 39.53], [-71.973, 39.448], [-72.13, 39.416], [-72.152, 39.373], [-72.101, 39.278], [-72.242, 39.225], [-72.299, 39.155], [-72.443, 39.137], [-72.701, 38.993], [-72.668, 38.898], [-72.763, 38.787], [-72.981, 38.693], [-73.042, 38.596], [-73.189, 38.543], [-73.323, 38.348], [-73.419, 38.32], [-73.517, 38.241], [-73.651, 38.248], [-73.597, 38.139], [-73.799, 37.973], [-73.816, 37.91], [-73.94, 37.795], [-74.04, 37.751], [-74.098, 37.665], [-74.096, 37.572], [-74.207, 37.564], [-74.296, 37.478], [-74.346, 37.362], [-74.406, 37.327], [-74.433, 37.285], [-74.402, 37.191], [-74.46, 37.064], [-74.597, 37.004], [-74.531, 36.717], [-74.616, 36.644], [-74.673, 36.527], [-74.665, 36.338], [-74.753, 36.285], [-74.761, 36.243], [-74.637, 36.148], [-74.665, 36.053], [-74.645, 35.959], [-74.809, 35.873], [-74.734, 35.58], [-74.814, 35.5], [-74.799, 35.39], [-74.832, 35.287], [-74.937, 35.202], [-75.68, 35.202], [-75.519, 35.238], [-75.489, 35.325], [-75.448, 35.603], [-75.513, 35.777], [-75.465, 35.591], [-75.517, 35.29], [-75.71, 35.202], [-76.525, 35.202], [-76.564, 35.234], [-76.488, 35.222], [-76.469, 35.272], [-76.494, 35.307], [-76.832, 35.392], [-76.933, 35.449], [-76.982, 35.438], [-77.019, 35.482], [-77.051, 35.53], [-76.763, 35.416], [-76.647, 35.437], [-76.645, 35.405], [-76.592, 35.39], [-76.61, 35.496], [-76.644, 35.519], [-76.593, 35.551], [-76.469, 35.539], [-76.489, 35.499], [-76.579, 35.506], [-76.555, 35.439], [-76.503, 35.428], [-76.525, 35.409], [-76.499, 35.386], [-76.459, 35.372], [-76.478, 35.401], [-76.437, 35.408], [-76.416, 35.463], [-76.377, 35.375], [-76.421, 35.367], [-76.369, 35.338], [-76.355, 35.412], [-76.287, 35.351], [-76.254, 35.37], [-76.149, 35.337], [-76.067, 35.382], [-76.062, 35.438], [-76.026, 35.417], [-75.979, 35.519], [-75.894, 35.576], [-75.889, 35.631], [-75.86, 35.585], [-75.819, 35.587], [-75.838, 35.567], [-75.743, 35.614], [-75.775, 35.689], [-75.721, 35.69], [-75.72, 35.814], [-75.848, 35.976], [-75.863, 35.943], [-75.826, 35.927], [-75.905, 35.931], [-75.864, 35.873], [-75.934, 35.922], [-75.989, 35.884], [-75.993, 35.714], [-76.031, 35.65], [-76.139, 35.691], [-76.038, 35.688], [-76.045, 35.754], [-76.118, 35.79], [-76.054, 35.783], [-76.082, 35.864], [-76.02, 35.927], [-76.072, 35.919], [-76.066, 35.954], [-76.024, 35.958], [-76.071, 35.992], [-76.305, 35.956], [-76.267, 35.919], [-76.384, 35.931], [-76.405, 35.98], [-76.561, 35.939], [-76.731, 35.942], [-76.684, 35.999], [-76.76, 36.137], [-76.757, 36.21], [-76.699, 36.28], [-76.714, 36.322], [-76.671, 36.284], [-76.727, 36.165], [-76.657, 36.031], [-76.629, 36.056], [-76.591, 36.014], [-76.498, 36.008], [-76.415, 36.089], [-76.314, 36.094], [-76.461, 36.203], [-76.225, 36.094], [-76.196, 36.106], [-76.287, 36.209], [-76.18, 36.125], [-76.063, 36.153], [-76.144, 36.256], [-76.222, 36.289], [-76.196, 36.32], [-76.198, 36.296], [-76.143, 36.29], [-76.012, 36.183], [-75.905, 36.163], [-75.961, 36.202], [-75.959, 36.277], [-75.998, 36.31], [-75.971, 36.312], [-75.862, 36.169], [-75.852, 36.108], [-75.784, 36.071], [-75.916, 36.351], [-75.919, 36.429], [-75.95, 36.392], [-75.933, 36.357], [-76.035, 36.497], [-76.045, 36.587], [-75.974, 36.492], [-75.899, 36.489], [-75.914, 36.574], [-75.951, 36.537], [-75.975, 36.561], [-75.947, 36.717], [-75.88, 36.594], [-75.729, 36.061], [-75.676, 36.027], [-75.719, 36.006], [-75.592, 35.904], [-75.586, 35.847], [-75.523, 35.789], [-75.783, 36.272], [-75.854, 36.557], [-75.99, 36.914], [-76.153, 36.917], [-76.261, 36.959], [-76.318, 36.94], [-76.294, 36.843], [-76.344, 36.891], [-76.422, 36.905], [-76.521, 36.86], [-76.478, 36.902], [-76.48, 36.961], [-76.648, 37.049], [-76.676, 37.191], [-76.727, 37.147], [-76.794, 37.202], [-76.974, 37.239], [-76.996, 37.288], [-77.069, 37.264], [-77.102, 37.292], [-77.276, 37.311], [-77.247, 37.343], [-77.079, 37.324], [-77.057, 37.284], [-76.996, 37.316], [-76.916, 37.235], [-76.861, 37.316], [-76.848, 37.252], [-76.748, 37.194], [-76.636, 37.221], [-76.614, 37.132], [-76.531, 37.093], [-76.412, 36.966], [-76.297, 37.002], [-76.268, 37.099], [-76.34, 37.097], [-76.288, 37.132], [-76.334, 37.176], [-76.38, 37.171], [-76.372, 37.23], [-76.457, 37.226], [-76.602, 37.302], [-76.798, 37.507], [-76.777, 37.529], [-76.579, 37.324], [-76.455, 37.262], [-76.37, 37.281], [-76.391, 37.318], [-76.434, 37.32], [-76.401, 37.34], [-76.444, 37.374], [-76.401, 37.387], [-76.417, 37.431], [-76.36, 37.381], [-76.318, 37.387], [-76.265, 37.312], [-76.236, 37.43], [-76.276, 37.462], [-76.25, 37.503], [-76.29, 37.524], [-76.308, 37.488], [-76.399, 37.538], [-76.287, 37.568], [-76.536, 37.627], [-76.615, 37.753], [-76.725, 37.798], [-76.782, 37.896], [-76.908, 37.981], [-76.94, 38.072], [-77.134, 38.173], [-77.053, 38.16], [-77.028, 38.121], [-76.921, 38.081], [-76.882, 38.002], [-76.766, 37.927], [-76.71, 37.838], [-76.577, 37.779], [-76.495, 37.654], [-76.466, 37.702], [-76.437, 37.652], [-76.306, 37.627], [-76.338, 37.662], [-76.283, 37.701], [-76.323, 37.733], [-76.291, 37.778], [-76.323, 37.846], [-76.253, 37.82], [-76.228, 37.886], [-76.465, 37.99], [-76.471, 38.019], [-76.53, 38.021], [-76.523, 38.068], [-76.595, 38.148], [-76.727, 38.134], [-76.949, 38.204], [-76.955, 38.259], [-77.046, 38.317], [-77.0, 38.341], [-77.026, 38.401], [-77.246, 38.333], [-77.338, 38.348], [-77.283, 38.361], [-77.347, 38.438], [-77.307, 38.407], [-77.304, 38.496], [-77.231, 38.656], [-77.17, 38.626], [-77.133, 38.649], [-77.152, 38.701], [-77.128, 38.681], [-77.038, 38.729], [-77.052, 38.902], [-77.015, 38.864], [-77.022, 38.701], [-77.095, 38.681], [-77.12, 38.624], [-77.234, 38.552], [-77.264, 38.484], [-77.244, 38.398], [-77.178, 38.369], [-77.122, 38.405], [-77.129, 38.456], [-77.098, 38.459], [-77.08, 38.414], [-77.022, 38.481], [-76.972, 38.361], [-76.876, 38.278], [-76.832, 38.291], [-76.874, 38.392], [-76.818, 38.361], [-76.785, 38.249], [-76.598, 38.23], [-76.52, 38.131], [-76.501, 38.16], [-76.46, 38.135], [-76.439, 38.199], [-76.416, 38.113], [-76.312, 38.045], [-76.337, 38.095], [-76.318, 38.153], [-76.392, 38.239], [-76.371, 38.3], [-76.482, 38.316], [-76.666, 38.481], [-76.678, 38.676], [-76.632, 38.484], [-76.477, 38.388], [-76.449, 38.339], [-76.376, 38.364], [-76.505, 38.531], [-76.513, 38.712], [-76.552, 38.771], [-76.481, 38.832], [-76.536, 38.832], [-76.517, 38.869], [-76.539, 38.886], [-76.484, 38.898], [-76.542, 38.956], [-76.459, 38.911], [-76.442, 38.937], [-76.568, 39.07], [-76.457, 38.99], [-76.393, 39.021], [-76.516, 39.087], [-76.417, 39.072], [-76.457, 39.166], [-76.491, 39.159], [-76.525, 39.212], [-76.619, 39.254], [-76.565, 39.269], [-76.416, 39.21], [-76.387, 39.228], [-76.481, 39.302], [-76.393, 39.258], [-76.428, 39.317], [-76.364, 39.306], [-76.333, 39.356], [-76.399, 39.389], [-76.311, 39.399], [-76.282, 39.31], [-76.244, 39.342], [-76.268, 39.379], [-76.232, 39.469], [-76.21, 39.364], [-76.061, 39.456], [-76.12, 39.49], [-76.074, 39.559], [-75.987, 39.555], [-75.936, 39.602], [-75.995, 39.467], [-75.832, 39.577], [-75.896, 39.501], [-75.84, 39.46], [-75.918, 39.475], [-76.023, 39.4], [-75.838, 39.372], [-76.092, 39.37], [-76.166, 39.32], [-76.261, 39.156], [-76.222, 39.103], [-76.226, 39.041], [-76.196, 39.038], [-76.163, 39.13], [-76.063, 39.14], [-76.163, 39.06], [-76.145, 39.013], [-76.183, 38.987], [-76.249, 38.986], [-76.306, 39.027], [-76.36, 38.857], [-76.31, 38.878], [-76.326, 38.916], [-76.275, 38.914], [-76.221, 38.966], [-76.182, 38.892], [-76.152, 38.925], [-76.153, 38.889], [-76.108, 38.872], [-76.175, 38.844], [-76.178, 38.798], [-76.105, 38.794], [-76.161, 38.761], [-76.273, 38.839], [-76.331, 38.764], [-76.343, 38.685], [-76.31, 38.685], [-76.274, 38.788], [-76.278, 38.725], [-76.218, 38.771], [-76.203, 38.684], [-76.168, 38.722], [-76.166, 38.676], [-76.104, 38.684], [-76.144, 38.646], [-76.094, 38.654], [-76.033, 38.603], [-75.957, 38.649], [-75.966, 38.602], [-76.034, 38.573], [-76.175, 38.607], [-76.162, 38.631], [-76.276, 38.623], [-76.269, 38.552], [-76.166, 38.569], [-76.244, 38.52], [-76.263, 38.457], [-76.28, 38.496], [-76.323, 38.492], [-76.267, 38.381], [-76.211, 38.315], [-76.209, 38.386], [-76.037, 38.227], [-76.033, 38.314], [-75.982, 38.369], [-75.957, 38.343], [-76.0, 38.318], [-75.957, 38.243], [-75.925, 38.325], [-75.838, 38.399], [-75.903, 38.276], [-75.82, 38.228], [-75.927, 38.197], [-75.941, 38.129], [-75.786, 38.154], [-75.852, 38.086], [-75.746, 38.096], [-75.846, 38.039], [-75.882, 37.987], [-75.85, 37.971], [-75.882, 37.953], [-75.855, 37.927], [-75.761, 37.979], [-75.634, 37.956], [-75.739, 37.91], [-75.685, 37.906], [-75.662, 37.841], [-75.697, 37.84], [-75.701, 37.796], [-75.797, 37.796], [-75.77, 37.767], [-75.809, 37.732], [-75.781, 37.719], [-75.878, 37.654], [-75.871, 37.614], [-75.917, 37.608], [-75.932, 37.572], [-75.894, 37.557], [-75.956, 37.498], [-75.922, 37.486], [-75.976, 37.421], [-75.95, 37.419], [-76.018, 37.267], [-75.958, 37.132], [-75.891, 37.225], [-75.894, 37.172], [-75.866, 37.169], [-75.804, 37.453], [-75.697, 37.501], [-75.739, 37.522], [-75.709, 37.556], [-75.656, 37.494], [-75.592, 37.564], [-75.615, 37.583], [-75.568, 37.688], [-75.43, 37.874], [-75.427, 37.971], [-75.372, 38.016], [-75.355, 38.085], [-75.284, 38.106], [-75.228, 38.24], [-75.187, 38.26], [-75.2, 38.229], [-75.172, 38.227], [-75.095, 38.328], [-75.094, 38.355], [-75.139, 38.36], [-75.129, 38.403], [-75.178, 38.419], [-75.096, 38.404], [-75.115, 38.441], [-75.068, 38.456], [-75.07, 38.333], [-75.041, 38.446], [-75.059, 38.616], [-75.094, 38.562], [-75.134, 38.59], [-75.205, 38.567], [-75.201, 38.598], [-75.095, 38.632], [-75.15, 38.656], [-75.122, 38.658], [-75.14, 38.695], [-75.082, 38.695], [-75.064, 38.636], [-75.075, 38.794], [-75.164, 38.801], [-75.302, 38.919], [-75.302, 38.973], [-75.39, 39.08], [-75.397, 39.251], [-75.574, 39.455], [-75.547, 39.556], [-75.604, 39.606], [-75.589, 39.649], [-75.407, 39.824], [-75.145, 39.897], [-75.109, 39.975], [-75.025, 40.011], [-75.117, 39.948], [-75.101, 39.901], [-75.13, 39.876], [-75.34, 39.831], [-75.431, 39.778], [-75.557, 39.615], [-75.511, 39.567], [-75.526, 39.491], [-75.545, 39.503], [-75.525, 39.462], [-75.168, 39.236], [-75.144, 39.184], [-75.041, 39.214], [-75.021, 39.185], [-74.893, 39.168], [-74.895, 39.098], [-74.959, 38.981], [-74.949, 38.923], [-74.82, 38.971], [-74.711, 39.09], [-74.735, 39.119], [-74.697, 39.124], [-74.547, 39.283], [-74.614, 39.273], [-74.648, 39.302], [-74.553, 39.306], [-74.512, 39.371], [-74.484, 39.362], [-74.527, 39.307], [-74.416, 39.355], [-74.431, 39.394], [-74.47, 39.397], [-74.434, 39.455], [-74.394, 39.44], [-74.376, 39.473], [-74.408, 39.551], [-74.294, 39.507], [-74.317, 39.566], [-74.153, 39.701], [-74.178, 39.76], [-74.092, 39.919], [-74.132, 39.929], [-74.097, 39.968], [-74.125, 39.992], [-74.062, 40.013], [-74.054, 40.057], [-74.076, 39.777], [-74.017, 40.05], [-74.041, 40.09], [-73.955, 40.288], [-73.986, 40.461], [-73.981, 40.399], [-74.269, 40.475], [-74.199, 40.643], [-74.118, 40.713], [-74.117, 40.661], [-74.022, 40.716], [-73.904, 40.959], [-73.915, 41.166], [-73.988, 41.263], [-73.952, 41.309], [-73.957, 41.253], [-73.877, 41.176], [-73.865, 41.073], [-73.892, 40.944], [-73.999, 40.713], [-73.925, 40.805], [-73.799, 40.823], [-73.817, 40.865], [-73.715, 40.953], [-73.674, 40.954], [-73.655, 41.003], [-73.254, 41.128], [-73.175, 41.183], [-73.147, 41.154], [-73.104, 41.167], [-72.912, 41.303], [-72.886, 41.25], [-72.614, 41.279], [-72.535, 41.254], [-72.354, 41.279], [-72.382, 41.364], [-72.301, 41.285], [-72.201, 41.294], [-72.183, 41.326], [-72.109, 41.305], [-72.086, 41.351], [-72.033, 41.318], [-71.877, 41.342], [-71.87, 41.315], [-71.564, 41.377], [-71.488, 41.362], [-71.421, 41.487], [-71.446, 41.574], [-71.416, 41.594], [-71.414, 41.659], [-71.444, 41.683], [-71.385, 41.673], [-71.365, 41.707], [-71.391, 41.812], [-71.338, 41.729], [-71.305, 41.719], [-71.287, 41.754], [-71.312, 41.663], [-71.271, 41.653], [-71.224, 41.725], [-71.173, 41.724], [-71.111, 41.795], [-71.205, 41.649], [-71.186, 41.467], [-71.054, 41.562], [-71.041, 41.529], [-71.069, 41.515], [-71.041, 41.498], [-70.951, 41.53], [-70.906, 41.638], [-70.845, 41.587], [-70.851, 41.631], [-70.715, 41.684], [-70.704, 41.747], [-70.649, 41.716], [-70.626, 41.733], [-70.677, 41.525], [-70.484, 41.56], [-70.411, 41.639], [-70.388, 41.614], [-70.259, 41.645], [-70.267, 41.61], [-70.189, 41.655], [-69.936, 41.669], [-69.933, 41.804], [-69.979, 41.797], [-69.964, 41.846], [-69.93, 41.826], [-69.935, 41.857], [-69.993, 41.981], [-70.079, 42.062], [-70.22, 42.092], [-70.247, 42.07], [-70.191, 42.023], [-70.176, 42.055], [-70.123, 42.055], [-70.063, 41.889], [-70.043, 41.937], [-69.989, 41.915], [-70.018, 41.901], [-69.989, 41.836], [-70.011, 41.797], [-70.325, 41.711], [-70.271, 41.734], [-70.457, 41.757], [-70.533, 41.811], [-70.531, 41.933], [-70.694, 42.003], [-70.661, 42.012], [-70.651, 42.058], [-70.629, 42.004], [-70.588, 42.014], [-70.72, 42.166], [-70.722, 42.218], [-70.895, 42.312], [-70.866, 42.256], [-70.961, 42.241], [-70.95, 42.275], [-71.044, 42.311], [-71.014, 42.339], [-71.043, 42.37], [-70.952, 42.355], [-70.977, 42.414], [-70.952, 42.451], [-70.897, 42.421], [-70.923, 42.459], [-70.839, 42.497], [-70.854, 42.522], [-70.888, 42.503], [-70.869, 42.542], [-70.692, 42.577], [-70.659, 42.614], [-70.632, 42.594], [-70.582, 42.63], [-70.622, 42.692], [-70.669, 42.631], [-70.759, 42.663], [-70.728, 42.676], [-70.804, 42.71], [-70.801, 42.749], [-70.763, 42.711], [-70.805, 42.804], [-70.861, 42.822], [-70.811, 42.824], [-70.792, 42.936], [-70.704, 43.05], [-70.751, 43.058], [-70.729, 43.123], [-70.663, 43.088], [-70.583, 43.184], [-70.583, 43.274], [-70.549, 43.324], [-70.447, 43.359], [-70.317, 43.466], [-70.366, 43.484], [-70.326, 43.564], [-70.299, 43.54], [-70.257, 43.577], [-70.189, 43.576], [-70.2, 43.652], [-70.283, 43.666], [-70.235, 43.669], [-70.172, 43.781], [-69.991, 43.877], [-70.007, 43.837], [-69.944, 43.865], [-70.02, 43.761], [-70.0, 43.754], [-69.918, 43.864], [-69.979, 43.74], [-69.908, 43.817], [-69.878, 43.809], [-69.896, 43.873], [-69.859, 43.884], [-69.832, 43.842], [-69.857, 43.801], [-69.835, 43.718], [-69.775, 43.751], [-69.817, 43.987], [-69.877, 43.972], [-69.773, 44.079], [-69.8, 43.987], [-69.747, 43.768], [-69.699, 43.852], [-69.739, 43.827], [-69.721, 43.876], [-69.749, 43.913], [-69.631, 44.038], [-69.607, 44.035], [-69.652, 43.955], [-69.613, 43.931], [-69.646, 43.934], [-69.672, 43.876], [-69.588, 43.862], [-69.59, 43.825], [-69.579, 43.96], [-69.528, 44.034], [-69.567, 43.892], [-69.543, 43.852], [-69.528, 43.91], [-69.503, 43.849], [-69.36, 44.078], [-69.339, 44.066], [-69.359, 43.988], [-69.303, 44.001], [-69.301, 43.954], [-69.208, 44.02], [-69.257, 43.94], [-69.186, 43.969], [-69.189, 44.004], [-69.122, 44.015], [-69.047, 44.1], [-69.089, 44.103], [-69.045, 44.221], [-68.931, 44.346], [-68.985, 44.44], [-68.848, 44.494], [-68.84, 44.46], [-68.808, 44.48], [-68.795, 44.58], [-68.729, 44.566], [-68.806, 44.409], [-68.721, 44.457], [-68.689, 44.425], [-68.744, 44.424], [-68.745, 44.383], [-68.787, 44.389], [-68.815, 44.332], [-68.742, 44.359], [-68.521, 44.248], [-68.541, 44.279], [-68.509, 44.285], [-68.55, 44.322], [-68.536, 44.378], [-68.567, 44.427], [-68.475, 44.447], [-68.454, 44.398], [-68.465, 44.508], [-68.414, 44.499], [-68.418, 44.413], [-68.346, 44.477], [-68.265, 44.47], [-68.299, 44.546], [-68.214, 44.481], [-68.184, 44.539], [-68.179, 44.477], [-68.145, 44.515], [-68.094, 44.487], [-68.098, 44.412], [-68.053, 44.346], [-68.011, 44.414], [-67.965, 44.415], [-68.018, 44.487], [-67.96, 44.514], [-67.93, 44.427], [-67.899, 44.502], [-67.898, 44.412], [-67.884, 44.496], [-67.84, 44.499], [-67.867, 44.559], [-67.785, 44.618], [-67.793, 44.55], [-67.735, 44.613], [-67.74, 44.522], [-67.707, 44.513], [-67.652, 44.583], [-67.628, 44.541], [-67.561, 44.555], [-67.553, 44.626], [-67.585, 44.634], [-67.551, 44.666], [-67.459, 44.619], [-67.433, 44.625], [-67.436, 44.68], [-67.405, 44.611], [-67.359, 44.631], [-67.382, 44.716], [-67.298, 44.719], [-67.323, 44.676], [-67.282, 44.643], [-67.25, 44.651], [-67.255, 44.679], [-67.187, 44.662], [-66.969, 44.831], [-67.048, 44.914], [-67.039, 44.845], [-67.092, 44.904], [-67.095, 44.862], [-67.132, 44.878], [-67.139, 44.832], [-67.198, 44.919], [-67.126, 44.906], [-67.106, 44.964], [-67.073, 44.939], [-67.034, 44.985], [-67.159, 45.167], [-67.207, 45.183], [-67.171, 45.191], [-67.183, 45.245], [-67.127, 45.22], [-67.122, 45.159], [-67.041, 45.089], [-67.027, 45.168], [-66.987, 45.154], [-66.958, 45.189], [-66.846, 45.132], [-66.908, 45.111], [-66.88, 45.057], [-66.791, 45.103], [-66.797, 45.059], [-66.755, 45.056], [-66.722, 45.089], [-66.648, 45.084], [-66.496, 45.15], [-66.441, 45.073], [-66.346, 45.144], [-66.25, 45.161], [-66.253, 45.192], [-66.322, 45.198], [-66.246, 45.209], [-66.217, 45.159], [-66.058, 45.257], [-66.145, 45.279], [-66.193, 45.334], [-66.088, 45.355], [-66.003, 45.462], [-66.015, 45.378], [-66.126, 45.304], [-66.039, 45.288], [-65.999, 45.229], [-65.919, 45.206], [-65.799, 45.257], [-65.74, 45.245], [-65.327, 45.458], [-65.015, 45.549], [-64.904, 45.628], [-64.778, 45.607], [-64.693, 45.716], [-64.642, 45.717], [-64.673, 45.75], [-64.574, 45.863], [-64.706, 45.995], [-64.6993476849068, 46.03301322910403], [-64.576, 45.886], [-64.55, 45.868], [-64.534, 45.898], [-64.488, 45.801], [-64.539, 45.723], [-64.482, 45.723], [-64.34, 45.86], [-64.368, 45.871], [-64.348, 45.882], [-64.277, 45.843], [-64.29028125, 45.80528125], [-64.306, 45.821], [-64.376, 45.792], [-64.437, 45.74], [-64.458, 45.674], [-64.909, 45.418], [-64.937, 45.327], [-64.816, 45.349], [-64.763, 45.326], [-64.76, 45.289], [-64.699, 45.326], [-64.701, 45.369], [-64.563, 45.412], [-64.386, 45.366], [-64.07, 45.41], [-63.924, 45.388], [-63.884, 45.351], [-63.756, 45.398], [-63.361, 45.361], [-63.467, 45.326], [-63.471, 45.291], [-63.539, 45.333], [-63.79, 45.312], [-63.855, 45.269], [-64.153, 45.193], [-64.199, 45.117], [-64.099, 45.057], [-64.104, 44.992], [-64.156, 44.978], [-64.147, 45.044], [-64.21, 45.104], [-64.311, 45.141], [-64.36, 45.097], [-64.38, 45.131], [-64.327, 45.303], [-64.489, 45.335], [-64.402, 45.311], [-64.398, 45.281], [-64.862, 45.14], [-65.647, 44.765], [-65.751, 44.673], [-65.428, 44.777], [-65.697, 44.613], [-65.753, 44.606], [-65.785, 44.691], [-65.953, 44.608], [-66.191, 44.423], [-66.196, 44.386], [-66.267, 44.278], [-66.337, 43.955], [-66.319, 43.73]], [[-66.787, 44.808], [-66.838, 44.771], [-66.886, 44.614], [-66.765, 44.671], [-66.741, 44.789], [-66.787, 44.808]], [[-68.367, 44.426], [-68.354, 44.404], [-68.429, 44.315], [-68.396, 44.301], [-68.404, 44.269], [-68.321, 44.237], [-68.286, 44.265], [-68.318, 44.293], [-68.305, 44.32], [-68.193, 44.325], [-68.168, 44.346], [-68.186, 44.382], [-68.247, 44.449], [-68.317, 44.452], [-68.367, 44.426]], [[-70.761, 41.308], [-70.697, 41.349], [-70.506, 41.357], [-70.51, 41.408], [-70.575, 41.422], [-70.544, 41.437], [-70.557, 41.465], [-70.601, 41.441], [-70.599, 41.479], [-70.619, 41.468], [-70.761, 41.363], [-70.838, 41.36], [-70.761, 41.308]], [[-70.091, 41.284], [-70.234, 41.284], [-70.108, 41.248], [-69.966, 41.262], [-70.044, 41.4], [-70.035, 41.359], [-70.076, 41.31], [-70.018, 41.327], [-70.091, 41.284]], [[-71.31, 41.561], [-71.344, 41.453], [-71.231, 41.491], [-71.223, 41.654], [-71.31, 41.561]], [[-73.076, 40.974], [-73.093, 40.951], [-73.109, 40.979], [-73.227, 40.911], [-73.402, 40.956], [-73.401, 40.93], [-73.357, 40.93], [-73.362, 40.903], [-73.43, 40.907], [-73.428, 40.939], [-73.474, 40.952], [-73.471, 40.891], [-73.589, 40.921], [-73.643, 40.893], [-73.646, 40.82], [-73.709, 40.872], [-73.732, 40.852], [-73.694, 40.837], [-73.71, 40.809], [-73.747, 40.834], [-73.761, 40.79], [-73.923, 40.79], [-74.033, 40.626], [-74.001, 40.581], [-73.88, 40.6], [-73.9, 40.636], [-73.851, 40.659], [-73.765, 40.638], [-73.929, 40.564], [-73.583, 40.596], [-73.702, 40.62], [-73.369, 40.671], [-73.231, 40.723], [-73.151, 40.707], [-73.135, 40.739], [-72.868, 40.756], [-72.809, 40.776], [-72.82, 40.799], [-72.649, 40.807], [-72.725, 40.775], [-72.503, 40.84], [-72.496, 40.888], [-72.437, 40.88], [-72.453, 40.854], [-71.856, 41.069], [-71.957, 41.074], [-72.102, 41.002], [-72.156, 41.059], [-72.186, 41.014], [-72.235, 41.046], [-72.294, 41.011], [-72.328, 41.037], [-72.327, 41.004], [-72.442, 40.951], [-72.436, 40.92], [-72.621, 40.913], [-72.457, 41.015], [-72.435, 40.991], [-72.435, 41.032], [-72.386, 41.045], [-72.411, 41.065], [-72.32, 41.134], [-72.262, 41.125], [-72.246, 41.164], [-72.351, 41.141], [-72.647, 40.98], [-73.076, 40.974]], [[-74.177, 40.642], [-74.236, 40.513], [-74.109, 40.56], [-74.054, 40.604], [-74.063, 40.639], [-74.177, 40.642]]], [[[-64.336, 45.741], [-64.29074549819929, 45.80396278511405], [-64.302, 45.772], [-64.265, 45.767], [-64.336, 45.741]]], [[[-64.29074549819929, 45.80396278511405], [-64.29028125, 45.80528125], [-64.29, 45.805], [-64.29074549819929, 45.80396278511405]]], [[[-64.6993476849068, 46.03301322910403], [-64.748, 46.091], [-64.699, 46.035], [-64.6993476849068, 46.03301322910403]]]]}}