{"type": "Feature", "properties": {"source": "Final2009 PDF11 printedp7", "method": "box minus NaturalEarth50m land", "bounds": [-30, 8.5, -6.5, 35.97]}, "geometry": {"type": "Polygon", "coordinates": [[[-30.0, 8.5], [-30.0, 35.97], [-6.5, 35.97], [-6.5, 34.54145891867365], [-6.755762, 34.13291], [-6.900977, 33.969043], [-7.144678, 33.830322], [-7.562354, 33.640283], [-8.301172, 33.374365], [-8.512842, 33.252441], [-8.596289, 33.187158], [-8.83623, 32.920459], [-9.24585, 32.572461], [-9.249121, 32.48584], [-9.286572, 32.240576], [-9.347461, 32.086377], [-9.674951, 31.710986], [-9.808691, 31.424609], [-9.83335, 31.069629], [-9.832422, 30.847266], [-9.875488, 30.71792], [-9.853906, 30.64458], [-9.773145, 30.603125], [-9.65293, 30.447559], [-9.623828, 30.352637], [-9.66709, 30.109277], [-9.743457, 29.958203], [-9.852637, 29.809229], [-10.010498, 29.641406], [-10.200586, 29.380371], [-10.486475, 29.064941], [-10.673828, 28.939209], [-11.080957, 28.71377], [-11.299072, 28.526074], [-11.430176, 28.382031], [-11.552686, 28.310107], [-11.986084, 28.129297], [-12.468896, 28.009424], [-12.793652, 27.978418], [-12.948926, 27.91416], [-13.040723, 27.769824], [-13.175977, 27.655713], [-13.256152, 27.434619], [-13.409814, 27.146631], [-13.495752, 26.872656], [-13.575781, 26.735107], [-13.695898, 26.64292], [-13.9521, 26.48877], [-14.168359, 26.41543], [-14.312451, 26.296729], [-14.413867, 26.253711], [-14.470557, 26.163037], [-14.522754, 25.925244], [-14.602295, 25.808545], [-14.707031, 25.547705], [-14.794922, 25.40415], [-14.84292, 25.220117], [-14.856055, 24.871582], [-14.904297, 24.719775], [-15.038867, 24.548828], [-15.188623, 24.478809], [-15.586328, 24.072754], [-15.777783, 23.95293], [-15.899316, 23.844434], [-15.952832, 23.74082], [-15.980713, 23.670312], [-15.912549, 23.727588], [-15.855176, 23.800342], [-15.80166, 23.842236], [-15.789258, 23.792871], [-15.805957, 23.749512], [-15.942627, 23.552637], [-15.996729, 23.425488], [-16.113672, 23.227539], [-16.210254, 23.0979], [-16.169727, 23.031934], [-16.201855, 22.945361], [-16.304297, 22.834814], [-16.35874, 22.594531], [-16.514404, 22.333496], [-16.683984, 22.274365], [-16.793262, 22.159717], [-16.930859, 21.9], [-17.009619, 21.3771], [-17.098779, 20.856885], [-17.048047, 20.806152], [-16.998242, 21.039697], [-16.971143, 21.076465], [-16.92793, 21.114795], [-16.876074, 21.086133], [-16.728369, 20.806152], [-16.62251, 20.63418], [-16.562695, 20.60415], [-16.534912, 20.654004], [-16.53042, 20.709521], [-16.479199, 20.689795], [-16.429785, 20.652344], [-16.33374, 20.415869], [-16.210449, 20.22793], [-16.241162, 20.14126], [-16.233203, 20.000977], [-16.283398, 19.787158], [-16.444873, 19.473145], [-16.305273, 19.512646], [-16.371289, 19.410254], [-16.474805, 19.390625], [-16.514453, 19.361963], [-16.476172, 19.285059], [-16.305908, 19.153809], [-16.213086, 19.00332], [-16.150098, 18.718164], [-16.084961, 18.521191], [-16.046729, 18.223145], [-16.030322, 17.887939], [-16.078906, 17.54585], [-16.207471, 17.192578], [-16.34668, 16.926416], [-16.463623, 16.601514], [-16.481299, 16.454248], [-16.535742, 16.286816], [-16.535254, 15.838379], [-16.570752, 15.734424], [-16.843408, 15.293994], [-17.147168, 14.922021], [-17.411816, 14.792187], [-17.535645, 14.755127], [-17.44502, 14.651611], [-17.418457, 14.723486], [-17.345801, 14.729297], [-17.260645, 14.701074], [-17.168066, 14.640625], [-17.079395, 14.483057], [-16.973828, 14.403223], [-16.880518, 14.20835], [-16.797754, 14.093262], [-16.791748, 14.00415], [-16.742139, 14.005811], [-16.66748, 14.035596], [-16.618115, 14.040527], [-16.6396, 14.007471], [-16.733887, 13.961182], [-16.766943, 13.904932], [-16.74541, 13.84043], [-16.647852, 13.770996], [-16.587793, 13.689551], [-16.562305, 13.587305], [-16.530078, 13.457959], [-16.440527, 13.353174], [-16.351807, 13.343359], [-16.135449, 13.448242], [-15.849902, 13.459961], [-15.569531, 13.499854], [-15.438135, 13.483203], [-15.42749, 13.468359], [-15.471289, 13.458643], [-15.617676, 13.460107], [-15.804492, 13.425391], [-15.986426, 13.408838], [-16.158398, 13.384033], [-16.187891, 13.326172], [-16.185059, 13.282715], [-16.27168, 13.293799], [-16.413379, 13.269727], [-16.556445, 13.303223], [-16.59834, 13.356836], [-16.614795, 13.435303], [-16.669336, 13.475], [-16.750391, 13.425391], [-16.824805, 13.341064], [-16.769336, 13.148486], [-16.76333, 13.06416], [-16.757373, 12.979785], [-16.768945, 12.883301], [-16.758984, 12.702344], [-16.778418, 12.670166], [-16.767969, 12.628418], [-16.743896, 12.585449], [-16.701416, 12.603174], [-16.672559, 12.622021], [-16.637842, 12.685156], [-16.597656, 12.715283], [-16.548828, 12.663818], [-16.455029, 12.624805], [-16.442871, 12.609473], [-16.449951, 12.580713], [-16.488086, 12.581836], [-16.553223, 12.604883], [-16.677637, 12.560059], [-16.760303, 12.525781], [-16.784863, 12.47251], [-16.74585, 12.399707], [-16.711816, 12.354834], [-16.436816, 12.20415], [-16.312305, 12.243018], [-16.24458, 12.237109], [-16.254736, 12.206055], [-16.318848, 12.14375], [-16.328076, 12.051611], [-16.274316, 11.978125], [-16.138428, 11.917285], [-15.958789, 11.959619], [-15.920215, 11.937793], [-15.902734, 11.919678], [-15.941748, 11.786621], [-15.819385, 11.763477], [-15.650684, 11.818359], [-15.513477, 11.917578], [-15.434766, 11.943555], [-15.188086, 11.927295], [-15.111523, 11.970264], [-15.078271, 11.968994], [-15.071973, 11.947021], [-15.101709, 11.913965], [-15.133105, 11.907324], [-15.21084, 11.870947], [-15.415723, 11.871777], [-15.467187, 11.842822], [-15.500244, 11.778369], [-15.501904, 11.723779], [-15.412988, 11.615234], [-15.359668, 11.6229], [-15.316699, 11.669189], [-15.230371, 11.686768], [-15.122412, 11.661572], [-15.072656, 11.597803], [-15.16377, 11.580957], [-15.252588, 11.573291], [-15.429102, 11.498877], [-15.479492, 11.410303], [-15.448975, 11.389746], [-15.39917, 11.401465], [-15.354687, 11.396338], [-15.348437, 11.378076], [-15.394531, 11.334473], [-15.400586, 11.266211], [-15.393115, 11.217236], [-15.31748, 11.152002], [-15.263379, 11.160889], [-15.216699, 11.15625], [-15.222119, 11.030908], [-15.181055, 11.034229], [-15.096777, 11.140039], [-15.05459, 11.141943], [-15.09375, 11.011035], [-15.043018, 10.940137], [-15.051221, 10.83457], [-15.012402, 10.804346], [-14.975, 10.803418], [-14.924805, 10.944922], [-14.886719, 10.968066], [-14.837451, 10.962549], [-14.775928, 10.931641], [-14.757373, 10.862061], [-14.693359, 10.741016], [-14.677344, 10.688965], [-14.593506, 10.766699], [-14.587402, 10.734912], [-14.613623, 10.617822], [-14.60957, 10.549854], [-14.426904, 10.24834], [-14.17041, 10.128613], [-14.086279, 10.127246], [-14.04502, 10.14126], [-14.029932, 10.115137], [-14.021875, 10.047852], [-13.954639, 9.968701], [-13.820117, 9.887207], [-13.753711, 9.870264], [-13.712646, 9.922949], [-13.689795, 9.927783], [-13.700488, 9.85127], [-13.658691, 9.776367], [-13.657129, 9.639111], [-13.691357, 9.535791], [-13.568262, 9.543408], [-13.436279, 9.420312], [-13.405566, 9.360645], [-13.396094, 9.314307], [-13.295898, 9.218506], [-13.269482, 9.170557], [-13.302637, 9.078369], [-13.292676, 9.049219], [-13.271631, 8.987402], [-13.153711, 8.897705], [-13.059473, 8.881152], [-13.071045, 8.856348], [-13.206934, 8.843115], [-13.226172, 8.765967], [-13.228418, 8.695898], [-13.181836, 8.576904], [-13.121631, 8.58877], [-13.088232, 8.625732], [-12.953369, 8.615137], [-12.904004, 8.65625], [-12.894092, 8.629785], [-12.912939, 8.581543], [-12.994238, 8.526465], [-13.01785715838323, 8.5], [-30.0, 8.5]], [[-24.496875, 14.980273], [-24.51709, 14.93125], [-24.492188, 14.874219], [-24.440527, 14.834814], [-24.386133, 14.818213], [-24.308252, 14.856299], [-24.295801, 14.929541], [-24.329492, 15.019482], [-24.391992, 15.038281], [-24.496875, 14.980273]], [[-23.78252, 15.166113], [-23.78501, 15.076904], [-23.705371, 14.961328], [-23.637207, 14.923486], [-23.504687, 14.916113], [-23.444238, 15.007959], [-23.535254, 15.139258], [-23.57998, 15.160889], [-23.700635, 15.271631], [-23.707227, 15.316895], [-23.748096, 15.328516], [-23.759375, 15.310791], [-23.754492, 15.243555], [-23.78252, 15.166113]], [[-23.210254, 15.323535], [-23.247168, 15.256982], [-23.24248, 15.240527], [-23.251807, 15.178125], [-23.209961, 15.133105], [-23.182129, 15.136768], [-23.115869, 15.16665], [-23.119336, 15.268408], [-23.137744, 15.317725], [-23.210254, 15.323535]], [[-22.681885, 16.113281], [-22.692627, 16.169043], [-22.749414, 16.221533], [-22.802637, 16.225537], [-22.834326, 16.218994], [-22.917725, 16.237256], [-22.916113, 16.148438], [-22.959277, 16.045117], [-22.884082, 15.992725], [-22.820508, 15.986035], [-22.710107, 16.043359], [-22.681885, 16.113281]], [[-24.282812, 16.575928], [-24.243066, 16.599414], [-24.094141, 16.561035], [-24.032715, 16.572021], [-24.046387, 16.593066], [-24.087695, 16.62251], [-24.271094, 16.644873], [-24.376709, 16.677783], [-24.39292, 16.664453], [-24.398096, 16.618408], [-24.322363, 16.493115], [-24.282812, 16.575928]], [[-22.93291, 16.841016], [-22.990918, 16.808838], [-22.980615, 16.700879], [-22.959424, 16.683057], [-22.920264, 16.60791], [-22.88833, 16.659082], [-22.903906, 16.732129], [-22.904736, 16.84375], [-22.93291, 16.841016]], [[-24.991016, 16.913232], [-25.070117, 16.870703], [-25.093066, 16.83252], [-25.019971, 16.797217], [-24.969141, 16.794189], [-24.887061, 16.818115], [-24.891895, 16.846484], [-24.936475, 16.922119], [-24.991016, 16.913232]], [[-25.113477, 17.193652], [-25.337109, 17.091016], [-25.341553, 17.067725], [-25.321924, 17.015381], [-25.308301, 16.93584], [-25.267236, 16.925928], [-25.169824, 16.946484], [-25.01709, 17.049316], [-24.979687, 17.094727], [-25.034668, 17.176465], [-25.113477, 17.193652]], [[-17.924512, 27.850146], [-18.043359, 27.768115], [-18.160547, 27.761475], [-18.135937, 27.72793], [-18.106592, 27.707471], [-17.984766, 27.646387], [-17.887939, 27.80957], [-17.924512, 27.850146]], [[-17.258594, 28.203174], [-17.290332, 28.176318], [-17.324902, 28.117676], [-17.273926, 28.038281], [-17.225391, 28.013525], [-17.184668, 28.021973], [-17.101074, 28.083447], [-17.10376, 28.111133], [-17.129639, 28.155957], [-17.214355, 28.199268], [-17.258594, 28.203174]], [[-17.797559, 28.846777], [-17.928809, 28.84458], [-18.000781, 28.758252], [-17.882129, 28.5646], [-17.859375, 28.485693], [-17.834277, 28.493213], [-17.758008, 28.569092], [-17.744385, 28.616016], [-17.751611, 28.688574], [-17.726562, 28.724463], [-17.744531, 28.786572], [-17.797559, 28.846777]], [[-16.765283, 32.709717], [-16.693262, 32.758008], [-16.773975, 32.773535], [-16.929199, 32.841406], [-17.054492, 32.815869], [-17.190869, 32.868604], [-17.241016, 32.807373], [-17.226025, 32.766846], [-17.171191, 32.721875], [-17.018262, 32.662793], [-16.837402, 32.648291], [-16.765283, 32.709717]], [[-16.175879, 11.130811], [-16.194629, 11.130127], [-16.236426, 11.113428], [-16.231006, 11.094238], [-16.194531, 11.04458], [-16.114502, 11.059424], [-16.072217, 11.084082], [-16.052783, 11.117529], [-16.067334, 11.197217], [-16.087451, 11.198779], [-16.104785, 11.191016], [-16.144043, 11.166846], [-16.175879, 11.130811]], [[-15.946484, 11.179736], [-15.963477, 11.095312], [-15.950635, 11.087109], [-15.963965, 11.058984], [-15.905176, 11.054736], [-15.895898, 11.082471], [-15.905273, 11.14834], [-15.909131, 11.161328], [-15.937695, 11.192773], [-15.946484, 11.179736]], [[-15.71748, 11.301758], [-15.754687, 11.268701], [-15.779785, 11.194531], [-15.76748, 11.182275], [-15.725146, 11.174512], [-15.725146, 11.215479], [-15.687109, 11.234326], [-15.667187, 11.257861], [-15.65835, 11.286475], [-15.671924, 11.296484], [-15.71748, 11.301758]], [[-15.964551, 11.598291], [-16.019336, 11.527295], [-16.023193, 11.477148], [-15.997217, 11.44917], [-15.94873, 11.434424], [-15.901807, 11.46582], [-15.915332, 11.589111], [-15.964551, 11.598291]], [[-15.484424, 11.567529], [-15.482471, 11.632324], [-15.536572, 11.617627], [-15.619629, 11.533496], [-15.562793, 11.51377], [-15.553418, 11.537012], [-15.526221, 11.553857], [-15.484424, 11.567529]], [[-15.986426, 11.882031], [-16.021875, 11.88667], [-16.152441, 11.876807], [-16.147363, 11.845996], [-16.102441, 11.773193], [-16.03833, 11.759717], [-15.986426, 11.882031]], [[-16.343652, 19.866211], [-16.393262, 19.849268], [-16.420166, 19.801953], [-16.477002, 19.710352], [-16.465967, 19.646387], [-16.437549, 19.609277], [-16.37334, 19.706445], [-16.343652, 19.866211]], [[-15.559375, 27.746973], [-15.436768, 27.810693], [-15.38916, 27.874707], [-15.383154, 27.992822], [-15.406689, 28.070508], [-15.400586, 28.147363], [-15.415479, 28.159326], [-15.432715, 28.154248], [-15.452783, 28.136914], [-15.682764, 28.154053], [-15.720947, 28.06416], [-15.809473, 27.994482], [-15.807324, 27.887549], [-15.710303, 27.784082], [-15.655762, 27.758398], [-15.559375, 27.746973]], [[-16.794727, 28.14917], [-16.658008, 28.007178], [-16.542773, 28.03208], [-16.49624, 28.061914], [-16.418213, 28.151416], [-16.334473, 28.379932], [-16.119141, 28.528271], [-16.123633, 28.575977], [-16.318994, 28.558203], [-16.517432, 28.412695], [-16.556836, 28.400488], [-16.752051, 28.369824], [-16.843066, 28.376123], [-16.905322, 28.3396], [-16.866016, 28.293262], [-16.794727, 28.14917]], [[-14.152588, 28.406641], [-14.231982, 28.21582], [-14.355566, 28.129687], [-14.491797, 28.100928], [-14.468604, 28.082373], [-14.332617, 28.056006], [-14.196777, 28.169287], [-13.928027, 28.253467], [-13.862988, 28.409326], [-13.827588, 28.585156], [-13.827148, 28.691211], [-13.857227, 28.738037], [-13.886279, 28.744678], [-13.95415, 28.741455], [-14.003369, 28.706689], [-14.028369, 28.617432], [-14.152588, 28.406641]], [[-13.535059, 29.144287], [-13.650098, 29.118994], [-13.788184, 29.056104], [-13.823633, 29.01333], [-13.859912, 28.869092], [-13.783984, 28.845459], [-13.715967, 28.91123], [-13.554688, 28.960205], [-13.47793, 29.006592], [-13.45376, 29.151367], [-13.422949, 29.19751], [-13.463574, 29.237207], [-13.501416, 29.21123], [-13.535059, 29.144287]]]}}