{"type": "Feature", "properties": {"geometry_method": "target polygon used as intended article/model envelope", "geometry_confidence": "medium"}, "geometry": {"type": "MultiPolygon", "coordinates": [[[[-155.732, -25.0], [-156.436, -25.0], [-156.142, -24.894], [-155.732, -25.0]]], [[[-141.564, -25.0], [-141.944, -24.825], [-141.231, -25.0], [-141.564, -25.0]]], [[[-180.0, -25.0], [-180.0, -24.191], [-179.476, -24.319], [-179.071, -24.369], [-178.585, -24.864], [-178.38, -25.0], [-180.0, -25.0]]], [[[-171.511, -22.547], [-171.409, -22.157], [-171.195, -22.253], [-170.582, -22.423], [-169.954, -22.486], [-169.326, -22.446], [-168.683, -22.294], [-168.112, -22.055], [-167.597, -21.725], [-167.11, -21.269], [-166.734, -20.771], [-166.468, -20.238], [-166.313, -19.694], [-165.89, -20.288], [-165.449, -20.697], [-164.937, -21.026], [-164.37, -21.266], [-163.763, -21.408], [-163.39, -21.435], [-163.367, -21.76], [-163.223, -22.325], [-162.968, -22.867], [-162.62, -23.351], [-162.178, -23.775], [-161.665, -24.118], [-161.091, -24.373], [-160.417, -24.546], [-160.163, -24.569], [-159.763, -24.827], [-159.357, -25.0], [-174.03, -25.0], [-173.858, -24.888], [-173.417, -24.478], [-173.071, -24.325], [-172.556, -23.984], [-172.116, -23.565], [-171.764, -23.08], [-171.511, -22.547]]], [[[-121.683, -22.906], [-122.066, -22.444], [-122.526, -22.05], [-123.051, -21.734], [-123.626, -21.505], [-124.233, -21.37], [-124.871, -21.332], [-125.491, -21.393], [-126.217, -21.607], [-126.497, -21.428], [-127.064, -21.186], [-127.666, -21.037], [-128.285, -20.986], [-128.923, -21.037], [-129.451, -20.801], [-130.049, -20.643], [-130.666, -20.582], [-131.285, -20.62], [-131.979, -20.765], [-132.131, -20.321], [-132.408, -19.802], [-132.864, -19.253], [-132.824, -19.097], [-132.785, -18.517], [-132.853, -17.934], [-133.025, -17.372], [-133.294, -16.85], [-133.651, -16.381], [-134.114, -15.953], [-134.668, -15.597], [-135.386, -15.301], [-135.347, -14.827], [-135.405, -14.249], [-135.564, -13.689], [-135.819, -13.164], [-136.093, -12.786], [-135.793, -12.486], [-135.459, -12.007], [-135.216, -11.478], [-135.071, -10.915], [-135.028, -10.334], [-135.087, -9.757], [-135.247, -9.198], [-135.502, -8.675], [-135.728, -8.362], [-136.006, -7.75], [-136.346, -7.277], [-137.435, -6.272], [-137.812, -5.714], [-138.225, -5.305], [-138.703, -4.973], [-139.231, -4.728], [-139.794, -4.578], [-140.373, -4.526], [-140.954, -4.576], [-141.7, -4.762], [-142.229, -5.004], [-142.849, -5.41], [-143.271, -5.825], [-143.61, -6.297], [-143.869, -6.834], [-144.033, -7.417], [-144.091, -7.995], [-144.046, -8.588], [-143.968, -8.89], [-143.941, -9.236], [-143.796, -9.798], [-143.553, -10.327], [-143.184, -10.842], [-143.025, -11.152], [-143.414, -11.389], [-143.69, -11.263], [-144.262, -11.113], [-144.875, -11.057], [-145.153, -11.079], [-145.853, -10.998], [-146.454, -11.043], [-147.065, -11.192], [-147.011, -11.082], [-146.864, -10.509], [-146.821, -9.931], [-146.883, -9.316], [-147.043, -8.754], [-147.298, -8.229], [-147.642, -7.754], [-148.061, -7.345], [-148.543, -7.017], [-149.074, -6.775], [-149.64, -6.628], [-150.222, -6.579], [-150.806, -6.631], [-151.37, -6.782], [-151.568, -6.874], [-151.791, -6.814], [-152.373, -6.762], [-152.704, -6.79], [-152.605, -6.437], [-152.346, -6.178], [-152.014, -5.701], [-151.753, -5.13], [-151.604, -4.563], [-151.556, -3.985], [-151.61, -3.407], [-151.762, -2.847], [-152.01, -2.322], [-152.345, -1.848], [-152.756, -1.439], [-153.234, -1.106], [-153.761, -0.861], [-154.328, -0.71], [-154.84, -0.666], [-154.615, -0.441], [-154.281, 0.033], [-154.033, 0.563], [-153.882, 1.123], [-153.828, 1.715], [-153.878, 2.312], [-154.032, 2.892], [-154.276, 3.419], [-154.744, 4.117], [-155.163, 4.539], [-155.639, 4.873], [-156.162, 5.12], [-156.349, 5.523], [-156.682, 6.0], [-157.112, 6.432], [-157.672, 6.826], [-157.885, 6.925], [-158.234, 7.273], [-158.716, 7.609], [-159.375, 7.918], [-159.539, 8.219], [-159.781, 8.549], [-160.083, 8.867], [-160.412, 9.139], [-160.949, 9.458], [-161.528, 9.672], [-161.933, 9.754], [-162.344, 9.786], [-162.756, 9.768], [-163.162, 9.7], [-163.556, 9.583], [-163.933, 9.419], [-164.287, 9.21], [-164.634, 8.941], [-164.923, 8.65], [-165.174, 8.326], [-165.396, 7.949], [-165.557, 7.573], [-165.677, 7.152], [-165.74, 6.732], [-165.755, 6.323], [-165.72, 5.916], [-165.604, 5.404], [-165.396, 4.89], [-164.85, 3.974], [-164.563, 3.609], [-164.227, 3.286], [-163.851, 3.013], [-163.44, 2.795], [-163.088, 2.664], [-162.568, 2.157], [-162.367, 2.017], [-162.778, 1.512], [-163.075, 0.977], [-163.27, 0.397], [-163.357, -0.211], [-163.33, -0.852], [-163.191, -1.449], [-162.932, -2.035], [-162.585, -2.539], [-162.153, -2.971], [-161.65, -3.316], [-161.12, -3.554], [-160.498, -3.704], [-159.889, -3.734], [-159.313, -3.657], [-158.733, -3.47], [-158.175, -3.178], [-158.486, -3.461], [-158.822, -3.934], [-159.072, -4.458], [-159.226, -5.018], [-159.282, -5.596], [-159.262, -5.853], [-159.758, -6.085], [-160.235, -6.42], [-160.538, -6.723], [-161.102, -6.676], [-161.684, -6.727], [-162.249, -6.877], [-162.779, -7.122], [-163.26, -7.453], [-163.677, -7.864], [-163.885, -8.155], [-164.099, -8.005], [-164.628, -7.756], [-165.193, -7.601], [-165.779, -7.544], [-166.363, -7.588], [-166.941, -7.734], [-167.476, -7.971], [-167.989, -8.308], [-168.301, -7.686], [-168.646, -7.195], [-168.953, -6.887], [-168.654, -6.598], [-168.321, -6.12], [-168.251, -5.967], [-168.14, -5.855], [-167.807, -5.377], [-167.565, -4.85], [-167.417, -4.289], [-167.37, -3.709], [-167.424, -3.13], [-167.578, -2.57], [-167.826, -2.046], [-168.084, -1.68], [-168.199, -1.435], [-168.535, -0.959], [-168.948, -0.549], [-169.425, -0.217], [-169.807, -0.04], [-170.036, 0.116], [-170.562, 0.36], [-171.126, 0.511], [-171.72, 0.563], [-172.303, 0.513], [-172.863, 0.362], [-173.145, 0.253], [-173.223, 0.919], [-173.413, 1.698], [-173.544, 2.084], [-173.708, 2.426], [-173.909, 2.748], [-174.145, 3.044], [-174.404, 3.299], [-174.724, 3.556], [-175.07, 3.77], [-175.413, 3.929], [-175.804, 4.057], [-176.204, 4.136], [-176.626, 4.164], [-176.988, 4.146], [-177.361, 4.085], [-177.889, 3.92], [-178.382, 3.67], [-178.87, 3.302], [-179.247, 2.898], [-179.539, 2.462], [-179.788, 1.903], [-179.937, 1.276], [-179.967, 0.693], [-179.896, 0.114], [-179.67, -0.787], [-179.5, -1.232], [-179.263, -1.657], [-178.903, -2.114], [-178.5, -2.477], [-178.0, -2.794], [-177.488, -3.005], [-177.679, -3.5], [-177.835, -4.065], [-177.89, -4.647], [-177.843, -5.227], [-177.773, -5.5], [-177.696, -5.797], [-177.453, -6.325], [-177.114, -6.813], [-176.703, -7.226], [-176.226, -7.561], [-175.762, -7.773], [-175.808, -7.96], [-175.855, -8.587], [-175.805, -9.165], [-175.622, -9.901], [-176.203, -9.848], [-176.749, -9.894], [-176.711, -9.377], [-176.772, -8.794], [-176.934, -8.23], [-177.192, -7.699], [-177.562, -7.184], [-177.825, -6.929], [-178.095, -6.5], [-178.147, -6.321], [-178.399, -5.796], [-178.737, -5.322], [-179.175, -4.891], [-179.757, -4.512], [-180.0, -4.145], [-180.0, -3.742], [-179.874, -3.266], [-179.82, -2.665], [-179.872, -2.082], [-180.0, -1.62], [-180.0, 25.39], [-179.322, 25.161], [-177.837, 24.872], [-177.363, 24.662], [-176.969, 24.062], [-176.5, 23.588], [-175.927, 23.193], [-175.242, 22.893], [-174.792, 22.775], [-174.311, 22.709], [-173.825, 22.702], [-173.346, 22.754], [-172.711, 22.533], [-172.04, 22.423], [-171.616, 22.287], [-171.16, 22.198], [-170.587, 22.162], [-170.007, 22.211], [-169.634, 22.012], [-169.216, 21.846], [-168.738, 21.295], [-168.144, 20.843], [-167.596, 20.569], [-166.993, 20.381], [-166.365, 20.289], [-165.954, 20.285], [-165.548, 20.324], [-164.801, 20.23], [-164.389, 20.241], [-163.956, 20.301], [-163.738, 20.172], [-163.413, 19.675], [-162.991, 19.227], [-162.552, 18.893], [-162.097, 18.643], [-161.539, 18.439], [-160.971, 18.328], [-160.412, 18.305], [-159.826, 18.372], [-159.278, 18.139], [-159.099, 17.696], [-158.848, 17.257], [-158.57, 16.894], [-158.23, 16.557], [-157.876, 16.288], [-157.304, 15.948], [-156.844, 15.755], [-156.378, 15.631], [-155.915, 15.571], [-155.45, 15.57], [-155.005, 15.626], [-154.564, 15.739], [-153.866, 16.048], [-153.419, 16.351], [-152.997, 16.588], [-152.674, 16.823], [-152.335, 17.117], [-152.045, 17.432], [-151.798, 17.777], [-151.599, 18.14], [-151.443, 18.53], [-151.341, 18.921], [-151.284, 19.34], [-151.282, 19.741], [-151.334, 20.156], [-151.435, 20.545], [-151.586, 20.92], [-151.784, 21.276], [-152.396, 22.054], [-152.968, 22.582], [-153.442, 23.141], [-153.863, 23.484], [-154.459, 23.843], [-155.271, 24.228], [-155.829, 24.41], [-156.489, 24.765], [-156.899, 24.907], [-157.35, 25.007], [-157.835, 25.255], [-158.367, 25.441], [-158.943, 25.553], [-159.511, 25.578], [-159.831, 25.809], [-160.159, 25.995], [-160.508, 26.149], [-160.909, 26.278], [-161.338, 26.365], [-161.762, 26.405], [-162.181, 26.401], [-162.639, 26.345], [-163.102, 26.589], [-163.619, 26.775], [-164.145, 26.884], [-164.707, 26.923], [-165.077, 27.052], [-165.5, 27.47], [-166.003, 27.819], [-166.43, 28.03], [-166.904, 28.195], [-167.306, 28.285], [-167.717, 28.334], [-168.145, 28.341], [-168.583, 28.302], [-168.95, 28.493], [-169.349, 28.647], [-169.765, 28.759], [-170.164, 28.824], [-170.822, 29.03], [-171.483, 29.121], [-172.182, 29.105], [-172.352, 29.456], [-172.558, 29.775], [-172.807, 30.076], [-173.092, 30.349], [-173.423, 30.601], [-173.797, 30.825], [-174.183, 31.002], [-174.579, 31.137], [-175.135, 31.257], [-175.729, 31.304], [-176.472, 31.53], [-177.05, 31.61], [-177.624, 31.742], [-178.07, 31.791], [-178.558, 31.792], [-179.027, 31.743], [-179.5, 31.64], [-180.0, 31.468], [-180.0, 40.0], [-130.0, 40.0], [-130.0, 40.5], [-128.79, 40.5], [-128.698, 39.845], [-128.432, 39.122], [-128.195, 38.723], [-127.941, 38.398], [-127.811, 37.998], [-127.679, 37.723], [-127.527, 37.457], [-127.192, 37.026], [-127.03, 36.621], [-126.731, 36.132], [-126.233, 35.576], [-125.783, 35.224], [-125.612, 34.9], [-125.368, 34.538], [-125.039, 34.178], [-124.72, 33.9], [-124.504, 33.649], [-124.357, 33.191], [-124.205, 32.837], [-123.988, 32.473], [-123.701, 32.112], [-123.348, 31.752], [-122.864, 31.378], [-122.425, 30.956], [-121.868, 30.543], [-122.008, 30.222], [-122.154, 29.656], [-122.176, 28.997], [-122.09, 28.422], [-121.824, 27.653], [-121.515, 27.121], [-121.123, 26.657], [-120.651, 26.259], [-120.11, 25.938], [-119.519, 25.704], [-118.741, 25.528], [-118.348, 25.503], [-117.866, 25.524], [-117.4, 25.156], [-116.83, 24.626], [-116.407, 24.345], [-115.869, 24.051], [-115.724, 23.624], [-115.43, 23.076], [-114.944, 22.476], [-114.652, 22.179], [-114.309, 21.903], [-113.894, 21.633], [-114.286, 21.697], [-114.865, 21.72], [-115.483, 21.64], [-116.036, 21.492], [-116.595, 21.236], [-117.097, 20.892], [-117.524, 20.471], [-117.864, 19.986], [-118.108, 19.453], [-118.249, 18.889], [-118.284, 18.283], [-118.213, 17.706], [-118.038, 17.151], [-117.762, 16.623], [-117.403, 16.156], [-116.966, 15.756], [-116.466, 15.433], [-115.916, 15.197], [-115.333, 15.055], [-114.733, 15.012], [-114.068, 15.078], [-113.488, 15.231], [-112.942, 15.478], [-112.539, 15.75], [-112.175, 15.585], [-111.593, 15.432], [-110.99, 15.377], [-110.389, 15.421], [-109.777, 15.573], [-109.227, 15.809], [-108.724, 16.133], [-108.286, 16.535], [-107.925, 17.002], [-107.764, 17.31], [-107.561, 17.069], [-107.113, 16.678], [-106.175, 16.135], [-106.03, 15.83], [-105.799, 15.46], [-105.574, 15.179], [-105.179, 14.8], [-104.608, 14.419], [-104.098, 14.198], [-103.648, 14.075], [-103.294, 14.021], [-102.623, 14.016], [-102.152, 14.086], [-101.908, 14.022], [-100.853, 13.565], [-100.23, 13.41], [-98.982, 12.83], [-98.406, 12.679], [-98.164, 12.651], [-97.189, 12.369], [-96.532, 12.308], [-95.94, 12.351], [-95.683, 12.374], [-95.029, 12.548], [-94.385, 11.942], [-93.98, 11.635], [-93.208, 11.143], [-92.528, 10.84], [-91.757, 10.642], [-91.439, 10.612], [-90.979, 10.403], [-90.409, 10.254], [-90.243, 10.24], [-89.985, 10.124], [-89.422, 9.973], [-89.205, 9.75], [-88.95, 8.909], [-88.718, 8.456], [-89.246, 8.092], [-89.667, 7.671], [-90.001, 7.192], [-90.245, 6.665], [-90.397, 6.092], [-90.444, 5.513], [-90.396, 5.0], [-120.0, 5.0], [-120.0, -25.0], [-121.132, -25.0], [-121.112, -24.55], [-121.198, -23.976], [-121.391, -23.421], [-121.683, -22.906]], [[-108.632, 13.593], [-109.228, 13.645], [-109.823, 13.593], [-110.401, 13.441], [-110.94, 13.193], [-111.426, 12.857], [-111.848, 12.437], [-112.186, 11.956], [-112.431, 11.427], [-112.578, 10.865], [-112.623, 10.285], [-112.566, 9.706], [-112.408, 9.147], [-112.153, 8.619], [-111.809, 8.141], [-111.38, 7.724], [-110.897, 7.392], [-110.366, 7.149], [-109.801, 7.0], [-109.215, 6.95], [-108.631, 7.0], [-108.063, 7.149], [-107.529, 7.394], [-107.048, 7.724], [-106.629, 8.134], [-106.287, 8.608], [-106.033, 9.134], [-105.874, 9.699], [-105.816, 10.28], [-105.861, 10.861], [-106.008, 11.423], [-106.253, 11.952], [-106.59, 12.432], [-107.007, 12.846], [-107.496, 13.184], [-108.055, 13.441], [-108.632, 13.593]], [[-168.853, 20.082], [-169.551, 20.133], [-170.225, 20.059], [-170.871, 19.863], [-171.5, 19.529], [-172.016, 19.115], [-172.437, 18.615], [-172.78, 17.999], [-172.97, 17.384], [-173.033, 16.688], [-172.959, 16.05], [-172.76, 15.439], [-172.447, 14.874], [-171.981, 14.326], [-171.47, 13.923], [-170.836, 13.599], [-170.148, 13.409], [-169.495, 13.359], [-168.843, 13.431], [-168.146, 13.642], [-167.517, 13.977], [-167.013, 14.388], [-166.56, 14.926], [-166.247, 15.49], [-166.037, 16.159], [-165.973, 16.798], [-166.049, 17.493], [-166.251, 18.105], [-166.572, 18.668], [-167.022, 19.18], [-167.597, 19.617], [-168.2, 19.908], [-168.853, 20.082]]]]}}