{
  "type": "FeatureCollection",
  "features": [
    {
      "type": "Feature",
      "properties": {
        "paper_id": "Griffiths-2019",
        "geometry_basis": "explicit published study rectangle; includes land; not an author-supplied habitat polygon"
      },
      "geometry": {
        "type": "Polygon",
        "coordinates": [
          [
            [
              180.0,
              -15.0
            ],
            [
              180.0,
              10.0
            ],
            [
              140.0,
              10.0
            ],
            [
              140.0,
              -15.0
            ],
            [
              180.0,
              -15.0
            ]
          ]
        ]
      }
    }
  ]
}
