{
  "type": "Feature",
  "properties": {
    "article_id": "ARC-2012",
    "unit_id": "LME_066",
    "geometry_method": "published/inferred bounding box; not a clipped or exact author polygon"
  },
  "geometry": {
    "type": "Polygon",
    "coordinates": [
      [
        [
          -96,
          72
        ],
        [
          -74,
          72
        ],
        [
          -74,
          76
        ],
        [
          -96,
          76
        ],
        [
          -96,
          72
        ]
      ]
    ]
  }
}