{
  "type": "Feature",
  "properties": {
    "article_id": "HUM-2018",
    "unit_id": "LME_013",
    "geometry_method": "reported/inferred bounding box shown against the target polygon"
  },
  "geometry": {
    "type": "Polygon",
    "coordinates": [
      [
        [
          -82,
          -16
        ],
        [
          -70,
          -16
        ],
        [
          -70,
          -4
        ],
        [
          -82,
          -4
        ],
        [
          -82,
          -16
        ]
      ]
    ]
  }
}