{
  "type": "Feature",
  "properties": {
    "article_id": "ANT-2008",
    "unit_id": "LME_061",
    "geometry_method": "published/inferred bounding box; not a clipped or exact author polygon"
  },
  "geometry": {
    "type": "Polygon",
    "coordinates": [
      [
        [
          -70,
          -70
        ],
        [
          -45,
          -70
        ],
        [
          -45,
          -55
        ],
        [
          -70,
          -55
        ],
        [
          -70,
          -70
        ]
      ]
    ]
  }
}