{
  "type": "Feature",
  "properties": {
    "article_id": "BOB-2019",
    "unit_id": "LME_034",
    "geometry_method": "reported/inferred bounding box shown against the target polygon"
  },
  "geometry": {
    "type": "Polygon",
    "coordinates": [
      [
        [
          88,
          20.5
        ],
        [
          92.5,
          20.5
        ],
        [
          92.5,
          23
        ],
        [
          88,
          23
        ],
        [
          88,
          20.5
        ]
      ]
    ]
  }
}