{
  "type": "Feature",
  "properties": {
    "article_id": "NBR-2000",
    "unit_id": "LME_017",
    "geometry_method": "published/inferred bounding box; not a clipped or exact author polygon"
  },
  "geometry": {
    "type": "Polygon",
    "coordinates": [
      [
        [
          -48,
          -1.2
        ],
        [
          -46,
          -1.2
        ],
        [
          -46,
          0.5
        ],
        [
          -48,
          0.5
        ],
        [
          -48,
          -1.2
        ]
      ]
    ]
  }
}