{
  "type": "Feature",
  "properties": {
    "article_id": "YS-2022",
    "unit_id": "LME_048",
    "geometry_method": "reported/inferred bounding box shown against the target polygon"
  },
  "geometry": {
    "type": "Polygon",
    "coordinates": [
      [
        [
          121,
          38
        ],
        [
          124,
          38
        ],
        [
          124,
          39.5
        ],
        [
          121,
          39.5
        ],
        [
          121,
          38
        ]
      ]
    ]
  }
}