{
  "type": "Feature",
  "properties": {
    "article_id": "WCA-2026",
    "unit_id": "HS_031",
    "geometry_method": "target polygon used as intended model envelope"
  },
  "geometry": {
    "type": "MultiPolygon",
    "coordinates": [
      [
        [
          [
            -71.449,
            35
          ],
          [
            -67.21,
            35
          ],
          [
            -67.494,
            34.829
          ],
          [
            -67.978,
            34.407
          ],
          [
            -68.361,
            33.921
          ],
          [
            -68.634,
            33.385
          ],
          [
            -68.793,
            32.797
          ],
          [
            -68.827,
            32.214
          ],
          [
            -68.742,
            31.638
          ],
          [
            -68.542,
            31.083
          ],
          [
            -68.228,
            30.545
          ],
          [
            -67.819,
            30.072
          ],
          [
            -67.334,
            29.672
          ],
          [
            -66.78,
            29.349
          ],
          [
            -66.162,
            29.107
          ],
          [
            -65.52,
            28.962
          ],
          [
            -64.833,
            28.913
          ],
          [
            -64.169,
            28.963
          ],
          [
            -63.526,
            29.108
          ],
          [
            -62.867,
            29.37
          ],
          [
            -62.19,
            29.766
          ],
          [
            -61.704,
            30.166
          ],
          [
            -61.302,
            30.631
          ],
          [
            -60.995,
            31.151
          ],
          [
            -60.795,
            31.706
          ],
          [
            -60.705,
            32.303
          ],
          [
            -60.739,
            32.883
          ],
          [
            -60.894,
            33.449
          ],
          [
            -61.167,
            33.986
          ],
          [
            -61.551,
            34.472
          ],
          [
            -62.036,
            34.895
          ],
          [
            -62.204,
            35
          ],
          [
            -42,
            35
          ],
          [
            -42,
            36
          ],
          [
            -40,
            36
          ],
          [
            -40,
            5
          ],
          [
            -47.944,
            5
          ],
          [
            -48.324,
            5.774
          ],
          [
            -48.756,
            6.38
          ],
          [
            -49.234,
            6.858
          ],
          [
            -49.46,
            7.035
          ],
          [
            -49.765,
            7.366
          ],
          [
            -50.89,
            8.172
          ],
          [
            -51.42,
            8.419
          ],
          [
            -51.821,
            8.527
          ],
          [
            -52.862,
            8.963
          ],
          [
            -53.574,
            9.162
          ],
          [
            -54.234,
            9.283
          ],
          [
            -54.82,
            9.335
          ],
          [
            -55.776,
            9.322
          ],
          [
            -56.096,
            9.737
          ],
          [
            -56.871,
            10.508
          ],
          [
            -57.106,
            10.693
          ],
          [
            -56.856,
            10.938
          ],
          [
            -56.489,
            11.439
          ],
          [
            -56.222,
            11.981
          ],
          [
            -56.061,
            12.54
          ],
          [
            -56,
            13.127
          ],
          [
            -56.043,
            13.706
          ],
          [
            -56.191,
            14.273
          ],
          [
            -56.437,
            14.802
          ],
          [
            -56.781,
            15.289
          ],
          [
            -57.352,
            15.851
          ],
          [
            -57.559,
            15.997
          ],
          [
            -57.526,
            16.304
          ],
          [
            -57.567,
            16.883
          ],
          [
            -57.718,
            17.457
          ],
          [
            -57.965,
            17.988
          ],
          [
            -58.372,
            18.532
          ],
          [
            -58.435,
            18.748
          ],
          [
            -58.689,
            19.287
          ],
          [
            -59.084,
            19.823
          ],
          [
            -59.515,
            20.239
          ],
          [
            -60.018,
            20.578
          ],
          [
            -60.683,
            20.871
          ],
          [
            -61.636,
            21.487
          ],
          [
            -62.2,
            21.736
          ],
          [
            -62.803,
            21.889
          ],
          [
            -63.3,
            21.926
          ],
          [
            -63.709,
            22.03
          ],
          [
            -64.332,
            22.082
          ],
          [
            -65.034,
            22.027
          ],
          [
            -65.822,
            21.818
          ],
          [
            -65.983,
            22.023
          ],
          [
            -66.734,
            22.803
          ],
          [
            -67.155,
            23.197
          ],
          [
            -67.988,
            23.728
          ],
          [
            -68.832,
            24.094
          ],
          [
            -69.427,
            24.486
          ],
          [
            -70.525,
            25.043
          ],
          [
            -70.882,
            25.338
          ],
          [
            -71.613,
            26.253
          ],
          [
            -72.039,
            26.67
          ],
          [
            -72.648,
            27.068
          ],
          [
            -73.194,
            27.31
          ],
          [
            -73.709,
            28.218
          ],
          [
            -74.097,
            28.717
          ],
          [
            -74.621,
            29.184
          ],
          [
            -75.687,
            29.856
          ],
          [
            -76.098,
            30.046
          ],
          [
            -76.943,
            30.371
          ],
          [
            -76.518,
            30.698
          ],
          [
            -75.789,
            31.018
          ],
          [
            -75.172,
            31.44
          ],
          [
            -74.7,
            31.615
          ],
          [
            -74.232,
            31.854
          ],
          [
            -73.63,
            32.289
          ],
          [
            -73.128,
            32.556
          ],
          [
            -72.657,
            32.896
          ],
          [
            -72.21,
            33.34
          ],
          [
            -71.853,
            33.848
          ],
          [
            -71.616,
            34.364
          ],
          [
            -71.449,
            35
          ]
        ]
      ]
    ]
  }
}