{"type": "Feature", "properties": {"geometry_method": "target polygon used as intended model envelope", "geometry_confidence": "medium"}, "geometry": {"type": "MultiPolygon", "coordinates": [[[[-60.371, 59.689], [-60.081, 59.452], [-60.159, 59.349], [-60.036, 59.247], [-60.043, 59.156], [-59.953, 59.057], [-59.882, 58.854], [-59.961, 58.798], [-59.976, 58.735], [-59.717, 58.428], [-59.632, 58.244], [-59.66, 58.159], [-59.718, 58.122], [-59.633, 58.067], [-59.441, 57.799], [-59.057, 57.41], [-59.041, 57.291], [-58.904, 57.207], [-58.836, 57.106], [-58.482, 56.903], [-58.383, 56.791], [-58.359, 56.701], [-58.1, 56.516], [-57.665, 56.398], [-57.346, 56.095], [-57.344, 55.967], [-57.216, 55.894], [-57.149, 55.793], [-57.009, 55.739], [-56.575, 55.477], [-56.159, 55.452], [-55.993, 55.374], [-55.729, 55.357], [-55.141, 55.199], [-54.135, 55.09], [-53.76, 54.983], [-53.598, 54.88], [-53.266, 54.818], [-53.076, 54.739], [-53.027, 54.69], [-53.148, 54.56], [-53.185, 54.434], [-53.145, 54.353], [-52.763, 54.093], [-52.704, 53.97], [-52.616, 53.894], [-52.608, 53.785], [-52.428, 53.699], [-52.377, 53.61], [-52.212, 53.507], [-52.186, 53.397], [-52.036, 53.298], [-52.053, 53.199], [-51.92, 53.111], [-51.871, 53.001], [-51.713, 52.913], [-51.673, 52.814], [-51.532, 52.743], [-51.464, 52.605], [-50.844, 52.181], [-50.658, 52.013], [-50.589, 51.903], [-50.427, 51.815], [-50.009, 51.433], [-49.962, 51.347], [-49.798, 51.251], [-49.734, 51.126], [-49.75, 51.029], [-49.857, 50.981], [-49.998, 51.027], [-50.123, 51.029], [-50.189, 50.993], [-50.363, 50.871], [-50.396, 50.636], [-50.315, 50.537], [-50.337, 50.475], [-50.312, 50.404], [-50.117, 50.21], [-50.0, 50.146], [-49.76, 49.853], [-49.789, 49.755], [-49.683, 49.56], [-49.746, 49.495], [-49.779, 49.365], [-49.759, 49.273], [-49.795, 49.142], [-49.783, 49.057], [-49.852, 48.976], [-49.724, 48.901], [-49.561, 48.694], [-49.389, 48.604], [-49.276, 48.49], [-49.104, 48.414], [-48.579, 48.298], [-48.43, 48.194], [-48.168, 48.156], [-47.158, 48.167], [-46.683, 48.253], [-46.629, 48.298], [-46.462, 48.3], [-45.387, 48.632], [-44.877, 48.596], [-44.232, 48.252], [-44.177, 48.183], [-43.957, 48.034], [-43.92, 47.908], [-43.757, 47.811], [-43.691, 47.617], [-43.576, 47.425], [-43.626, 47.327], [-43.532, 47.133], [-43.566, 46.862], [-43.835, 46.8], [-44.03, 46.649], [-44.345, 46.581], [-44.406, 46.492], [-44.626, 46.419], [-44.785, 46.427], [-45.335, 46.368], [-45.541, 46.245], [-45.655, 46.224], [-45.79, 46.275], [-45.888, 46.197], [-46.008, 46.195], [-46.168, 46.334], [-46.278, 46.27], [-46.26, 46.166], [-46.296, 45.941], [-46.611, 45.859], [-47.553, 45.84], [-47.581, 45.819], [-47.708, 45.841], [-47.763, 45.75], [-47.976, 45.684], [-48.153, 45.588], [-48.165, 45.465], [-48.239, 45.455], [-48.326, 45.494], [-48.365, 45.44], [-48.521, 45.385], [-48.529, 45.299], [-48.708, 45.166], [-48.835, 44.967], [-48.974, 44.914], [-48.94, 44.626], [-49.006, 44.53], [-48.9, 44.338], [-48.881, 44.242], [-48.95, 44.05], [-48.9, 43.859], [-48.968, 43.735], [-49.032, 43.699], [-49.068, 43.567], [-49.219, 43.588], [-49.157, 43.38], [-49.238, 43.315], [-49.36, 43.292], [-49.334, 43.188], [-49.4, 43.085], [-49.525, 43.074], [-49.818, 42.861], [-49.968, 42.806], [-49.979, 42.71], [-50.122, 42.682], [-50.493, 42.71], [-50.436, 42.806], [-50.888, 42.905], [-50.872, 42.966], [-50.926, 43.021], [-51.177, 43.074], [-51.357, 43.052], [-51.397, 43.016], [-51.702, 43.295], [-51.855, 43.367], [-51.985, 43.371], [-52.064, 43.413], [-52.105, 43.496], [-52.293, 43.641], [-52.497, 43.667], [-52.659, 43.792], [-52.691, 43.885], [-52.785, 43.955], [-53.045, 44.015], [-53.083, 44.05], [-53.009, 44.146], [-53.184, 44.25], [-53.441, 44.279], [-53.685, 44.352], [-53.908, 44.497], [-54.073, 44.53], [-54.055, 44.626], [-54.12, 44.657], [-54.272, 44.64], [-54.55, 44.722], [-54.509, 44.818], [-54.541, 44.914], [-54.584, 44.932], [-54.867, 44.996], [-54.971, 44.949], [-55.121, 45.042], [-55.174, 44.974], [-55.338, 44.974], [-55.462, 44.913], [-56.041, 44.973], [-56.141, 45.01], [-56.92, 45.592], [-57.948, 46.517], [-58.22, 46.813], [-58.51, 46.995], [-59.453, 47.724], [-59.839, 47.935], [-60.849, 48.263], [-61.199, 48.33], [-61.598, 48.342], [-62.024, 48.439], [-62.327, 48.561], [-62.626, 48.569], [-63.357, 48.788], [-64.23, 48.906], [-64.588, 49.112], [-64.942, 49.214], [-65.588, 49.261], [-66.306, 49.187], [-66.639, 49.121], [-67.067, 48.967], [-67.553, 48.855], [-68.211, 48.637], [-68.354, 48.551], [-68.454, 48.532], [-68.541, 48.451], [-68.727, 48.372], [-68.823, 48.364], [-69.341, 48.014], [-69.429, 47.995], [-69.556, 47.867], [-69.546, 47.833], [-69.896, 47.541], [-70.018, 47.487], [-70.044, 47.391], [-70.201, 47.312], [-70.31, 47.177], [-70.507, 47.02], [-71.006, 46.848], [-71.144, 46.845], [-71.299, 46.742], [-71.197, 46.852], [-70.974, 47.003], [-70.722, 47.101], [-70.574, 47.274], [-70.5, 47.435], [-70.226, 47.496], [-70.206, 47.577], [-70.139, 47.659], [-69.926, 47.773], [-69.73, 48.109], [-69.86, 48.144], [-69.937, 48.222], [-70.181, 48.241], [-70.273, 48.298], [-70.464, 48.349], [-70.768, 48.351], [-70.864, 48.317], [-70.887, 48.359], [-70.781, 48.392], [-70.97, 48.447], [-71.071, 48.44], [-70.981, 48.462], [-70.761, 48.432], [-70.684, 48.381], [-70.373, 48.374], [-70.151, 48.274], [-69.959, 48.269], [-69.81, 48.156], [-69.684, 48.138], [-69.577, 48.24], [-69.433, 48.308], [-69.293, 48.458], [-69.231, 48.586], [-69.142, 48.595], [-69.061, 48.767], [-68.967, 48.783], [-68.956, 48.816], [-68.788, 48.908], [-68.642, 48.917], [-68.696, 48.94], [-68.643, 48.956], [-68.607, 49.042], [-68.404, 49.123], [-68.444, 49.192], [-68.368, 49.133], [-68.444, 49.06], [-68.408, 49.056], [-68.326, 49.1], [-68.19, 49.112], [-68.192, 49.165], [-68.299, 49.196], [-68.156, 49.202], [-68.12, 49.272], [-67.958, 49.295], [-67.81, 49.274], [-67.57, 49.33], [-67.375, 49.327], [-67.234, 49.47], [-67.239, 49.591], [-67.163, 49.68], [-67.18, 49.745], [-67.151, 49.807], [-67.074, 49.848], [-67.038, 49.821], [-66.963, 49.915], [-66.959, 49.975], [-66.741, 50.042], [-66.62, 50.149], [-66.638, 50.181], [-66.459, 50.133], [-66.428, 50.165], [-66.545, 50.186], [-66.47, 50.262], [-66.412, 50.261], [-66.369, 50.193], [-66.236, 50.219], [-66.09, 50.191], [-66.093, 50.244], [-66.056, 50.216], [-65.952, 50.289], [-65.714, 50.257], [-65.258, 50.319], [-65.19, 50.287], [-64.914, 50.292], [-64.872, 50.267], [-64.455, 50.319], [-64.162, 50.262], [-63.813, 50.313], [-63.598, 50.251], [-63.489, 50.262], [-63.395, 50.213], [-63.359, 50.242], [-63.159, 50.255], [-63.164, 50.291], [-62.995, 50.312], [-62.963, 50.286], [-62.805, 50.289], [-62.713, 50.315], [-62.747, 50.285], [-62.446, 50.257], [-62.397, 50.294], [-62.211, 50.234], [-61.865, 50.229], [-61.797, 50.175], [-61.79, 50.134], [-61.574, 50.182], [-61.783, 50.107], [-61.721, 50.092], [-61.297, 50.199], [-61.162, 50.177], [-61.156, 50.202], [-61.113, 50.188], [-61.026, 50.226], [-60.934, 50.194], [-60.793, 50.262], [-60.839, 50.215], [-60.789, 50.201], [-60.748, 50.234], [-60.666, 50.22], [-60.62, 50.247], [-60.584, 50.208], [-60.448, 50.259], [-60.356, 50.223], [-60.36, 50.251], [-60.292, 50.245], [-60.275, 50.289], [-60.237, 50.268], [-60.267, 50.236], [-60.243, 50.232], [-60.15, 50.289], [-60.172, 50.232], [-60.133, 50.23], [-60.134, 50.204], [-60.114, 50.233], [-59.948, 50.255], [-59.834, 50.319], [-59.815, 50.349], [-59.854, 50.326], [-59.882, 50.372], [-59.816, 50.434], [-59.585, 50.478], [-59.454, 50.622], [-59.405, 50.635], [-59.424, 50.661], [-59.35, 50.663], [-59.269, 50.712], [-59.256, 50.76], [-59.194, 50.73], [-59.119, 50.804], [-59.099, 50.879], [-59.055, 50.871], [-59.093, 50.821], [-59.087, 50.775], [-59.015, 50.749], [-59.029, 50.776], [-58.948, 50.828], [-58.976, 50.863], [-58.939, 50.883], [-58.967, 50.896], [-58.952, 50.993], [-59.003, 51.016], [-58.898, 51.054], [-58.913, 51.0], [-58.89, 50.992], [-58.83, 51.041], [-58.838, 51.083], [-58.619, 51.153], [-58.592, 51.185], [-58.671, 51.221], [-58.675, 51.255], [-58.626, 51.229], [-58.628, 51.276], [-58.58, 51.244], [-58.472, 51.31], [-58.297, 51.269], [-58.283, 51.336], [-58.249, 51.333], [-58.261, 51.288], [-58.227, 51.271], [-58.021, 51.309], [-57.801, 51.433], [-57.764, 51.402], [-57.748, 51.472], [-57.684, 51.477], [-57.677, 51.43], [-57.582, 51.465], [-57.602, 51.428], [-57.247, 51.504], [-57.201, 51.412], [-56.943, 51.427], [-56.933, 51.492], [-56.858, 51.469], [-56.814, 51.492], [-56.807, 51.528], [-56.696, 51.585], [-56.682, 51.642], [-56.573, 51.656], [-56.347, 51.779], [-56.21, 51.79], [-56.118, 51.86], [-55.915, 51.932], [-55.894, 51.962], [-55.959, 52.019], [-55.843, 52.003], [-55.764, 52.047], [-55.793, 52.084], [-55.69, 52.101], [-55.713, 52.14], [-55.689, 52.181], [-55.777, 52.209], [-55.618, 52.215], [-55.721, 52.251], [-55.792, 52.237], [-55.704, 52.29], [-55.849, 52.299], [-55.824, 52.323], [-56.197, 52.44], [-55.782, 52.334], [-55.806, 52.382], [-55.648, 52.354], [-55.646, 52.437], [-55.766, 52.448], [-55.736, 52.469], [-55.751, 52.496], [-55.971, 52.502], [-56.107, 52.547], [-56.246, 52.529], [-56.497, 52.594], [-56.237, 52.542], [-56.09, 52.572], [-55.999, 52.549], [-55.989, 52.567], [-56.048, 52.576], [-55.975, 52.62], [-56.123, 52.651], [-55.937, 52.639], [-55.794, 52.593], [-55.74, 52.639], [-55.779, 52.682], [-55.961, 52.679], [-56.053, 52.763], [-56.165, 52.805], [-55.996, 52.773], [-55.923, 52.79], [-55.988, 52.806], [-55.804, 52.832], [-55.834, 52.922], [-55.911, 52.95], [-55.889, 52.969], [-56.041, 53.006], [-56.112, 52.967], [-56.133, 52.983], [-56.084, 53.015], [-56.167, 53.029], [-55.934, 53.022], [-55.878, 53.075], [-55.944, 53.112], [-55.83, 53.097], [-55.748, 53.144], [-55.763, 53.179], [-55.842, 53.205], [-55.791, 53.199], [-55.749, 53.254], [-55.814, 53.232], [-55.86, 53.248], [-55.806, 53.273], [-55.818, 53.295], [-55.911, 53.304], [-55.808, 53.341], [-55.886, 53.344], [-55.858, 53.365], [-55.912, 53.395], [-56.038, 53.367], [-55.966, 53.409], [-56.032, 53.432], [-56.049, 53.472], [-56.266, 53.55], [-56.063, 53.541], [-56.009, 53.5], [-55.979, 53.542], [-56.031, 53.576], [-56.32, 53.585], [-56.347, 53.594], [-56.263, 53.601], [-56.726, 53.674], [-56.415, 53.721], [-56.432, 53.764], [-56.484, 53.782], [-56.616, 53.763], [-56.6, 53.711], [-56.704, 53.751], [-57.015, 53.711], [-57.077, 53.629], [-57.136, 53.609], [-57.159, 53.564], [-57.136, 53.549], [-57.285, 53.477], [-57.289, 53.434], [-57.372, 53.431], [-57.307, 53.496], [-57.306, 53.534], [-57.344, 53.543], [-57.317, 53.58], [-57.377, 53.607], [-57.449, 53.592], [-57.445, 53.619], [-57.55, 53.592], [-57.12, 53.741], [-57.16, 53.759], [-57.1, 53.801], [-57.134, 53.824], [-57.076, 53.823], [-57.215, 53.877], [-57.215, 53.93], [-57.142, 53.935], [-57.287, 53.998], [-57.371, 54.106], [-57.36, 54.134], [-57.396, 54.129], [-57.384, 54.151], [-57.468, 54.194], [-57.609, 54.162], [-57.605, 54.184], [-57.659, 54.199], [-57.856, 54.196], [-58.031, 54.236], [-58.356, 54.206], [-58.418, 54.14], [-58.329, 54.089], [-58.159, 54.136], [-57.786, 54.072], [-58.13, 54.097], [-58.842, 53.943], [-58.876, 53.888], [-59.066, 53.795], [-59.011, 53.747], [-59.08, 53.681], [-59.214, 53.691], [-59.279, 53.663], [-59.302, 53.686], [-59.47, 53.576], [-59.606, 53.53], [-59.893, 53.529], [-59.785, 53.477], [-59.874, 53.485], [-59.872, 53.444], [-59.909, 53.456], [-60.025, 53.355], [-60.148, 53.327], [-60.09, 53.3], [-60.114, 53.27], [-60.164, 53.309], [-60.289, 53.264], [-60.418, 53.269], [-60.175, 53.338], [-60.396, 53.331], [-60.413, 53.358], [-60.364, 53.351], [-60.332, 53.389], [-60.138, 53.454], [-60.038, 53.44], [-60.053, 53.499], [-60.279, 53.559], [-60.537, 53.678], [-60.806, 53.723], [-60.924, 53.713], [-60.857, 53.793], [-60.866, 53.832], [-60.811, 53.772], [-60.391, 53.666], [-60.134, 53.528], [-60.064, 53.56], [-60.12, 53.611], [-60.098, 53.684], [-60.018, 53.704], [-60.131, 53.777], [-59.829, 53.789], [-59.8, 53.801], [-59.881, 53.825], [-59.826, 53.843], [-59.463, 53.831], [-59.201, 53.927], [-59.008, 53.955], [-58.919, 54.011], [-59.039, 54.027], [-58.632, 54.035], [-58.372, 54.228], [-58.688, 54.125], [-59.276, 54.021], [-59.51, 53.996], [-59.576, 54.049], [-59.376, 54.047], [-58.915, 54.139], [-58.693, 54.152], [-58.446, 54.239], [-58.234, 54.254], [-58.243, 54.287], [-58.096, 54.326], [-58.262, 54.311], [-58.146, 54.365], [-57.622, 54.384], [-57.523, 54.417], [-57.525, 54.451], [-57.421, 54.456], [-57.702, 54.473], [-57.397, 54.496], [-57.377, 54.542], [-57.431, 54.55], [-57.347, 54.579], [-57.415, 54.589], [-57.451, 54.65], [-57.694, 54.635], [-57.726, 54.686], [-57.786, 54.679], [-57.855, 54.737], [-57.999, 54.714], [-58.173, 54.746], [-58.188, 54.792], [-58.257, 54.797], [-58.392, 54.787], [-58.405, 54.738], [-58.444, 54.774], [-58.566, 54.766], [-58.514, 54.801], [-58.685, 54.816], [-58.692, 54.846], [-58.731, 54.843], [-58.756, 54.798], [-58.779, 54.85], [-58.904, 54.845], [-58.876, 54.913], [-59.016, 54.892], [-58.894, 54.953], [-58.986, 55.021], [-59.043, 54.995], [-58.956, 55.101], [-58.961, 55.135], [-58.996, 55.119], [-59.024, 55.157], [-59.064, 55.147], [-59.09, 55.083], [-59.126, 55.124], [-59.149, 55.068], [-59.182, 55.097], [-59.229, 55.081], [-59.251, 55.036], [-59.389, 54.977], [-59.24, 55.111], [-59.137, 55.154], [-59.127, 55.206], [-59.161, 55.237], [-59.217, 55.165], [-59.217, 55.217], [-59.287, 55.189], [-59.402, 55.028], [-59.433, 55.069], [-59.772, 54.885], [-59.808, 54.836], [-59.791, 54.786], [-59.939, 54.746], [-59.847, 54.803], [-59.817, 54.842], [-59.86, 54.846], [-59.848, 54.871], [-59.716, 54.946], [-59.733, 54.967], [-59.519, 55.054], [-59.428, 55.136], [-59.502, 55.142], [-59.506, 55.213], [-59.535, 55.168], [-59.639, 55.131], [-59.729, 55.144], [-59.801, 55.109], [-59.921, 55.14], [-59.964, 55.11], [-59.963, 55.161], [-59.864, 55.154], [-59.732, 55.197], [-59.753, 55.221], [-59.712, 55.27], [-59.755, 55.276], [-59.779, 55.33], [-59.915, 55.264], [-59.917, 55.234], [-60.02, 55.235], [-60.099, 55.137], [-60.294, 55.019], [-60.288, 55.053], [-60.221, 55.106], [-60.19, 55.097], [-60.023, 55.271], [-60.194, 55.192], [-60.138, 55.278], [-60.16, 55.286], [-60.386, 55.151], [-60.447, 55.156], [-60.482, 55.106], [-60.683, 54.995], [-60.671, 55.045], [-60.523, 55.111], [-60.466, 55.19], [-60.348, 55.251], [-60.396, 55.254], [-60.43, 55.217], [-60.468, 55.237], [-60.53193273962972, 55.205471525662055], [-60.467, 55.295], [-60.399, 55.29], [-60.355, 55.395], [-60.193, 55.427], [-60.204, 55.484], [-60.254, 55.503], [-60.285, 55.487], [-60.285, 55.438], [-60.362, 55.43], [-60.319, 55.491], [-60.478, 55.347], [-60.438, 55.399], [-60.453, 55.445], [-60.306, 55.524], [-60.339, 55.534], [-60.316, 55.574], [-60.34, 55.579], [-60.448, 55.5], [-60.393, 55.601], [-60.466, 55.632], [-60.531, 55.597], [-60.494, 55.658], [-60.372, 55.678], [-60.384, 55.72], [-60.329, 55.782], [-60.362, 55.762], [-60.503, 55.803], [-60.602, 55.627], [-60.684, 55.565], [-60.629, 55.629], [-60.658, 55.672], [-60.593, 55.704], [-60.624, 55.784], [-60.602, 55.815], [-60.647, 55.823], [-60.756, 55.729], [-60.947, 55.729], [-60.967, 55.746], [-60.808, 55.755], [-60.73, 55.829], [-60.782, 55.854], [-61.085, 55.843], [-61.193, 55.869], [-61.182, 55.899], [-61.079, 55.893], [-61.074, 55.928], [-61.126, 55.969], [-61.415, 55.96], [-61.461, 55.996], [-61.405, 55.972], [-61.38, 55.991], [-61.504, 56.011], [-61.238, 56.043], [-61.452, 56.057], [-61.337, 56.1], [-61.342, 56.141], [-61.411, 56.124], [-61.33, 56.177], [-61.351, 56.222], [-61.56, 56.194], [-61.575, 56.217], [-61.769, 56.203], [-61.765, 56.224], [-62.012, 56.236], [-62.081, 56.292], [-61.753, 56.278], [-61.828, 56.265], [-61.778, 56.254], [-61.659, 56.267], [-61.815, 56.304], [-61.588, 56.291], [-61.772, 56.337], [-61.843, 56.381], [-61.791, 56.392], [-61.93, 56.437], [-61.985, 56.415], [-62.143, 56.449], [-61.945, 56.466], [-62.085, 56.483], [-62.047, 56.505], [-61.755, 56.485], [-61.662, 56.506], [-61.658, 56.537], [-61.715, 56.572], [-62.225, 56.609], [-62.241, 56.623], [-61.913, 56.616], [-62.586, 56.793], [-62.499, 56.851], [-62.049, 56.833], [-62.505, 56.789], [-61.993, 56.66], [-61.895, 56.681], [-61.912, 56.643], [-61.672, 56.62], [-61.65, 56.642], [-61.825, 56.707], [-61.734, 56.697], [-61.702, 56.731], [-61.846, 56.756], [-61.89, 56.698], [-61.906, 56.795], [-61.661, 56.809], [-61.64, 56.884], [-61.488, 56.982], [-61.378, 56.982], [-61.343, 56.952], [-61.372, 56.996], [-61.348, 57.025], [-61.379, 57.051], [-61.358, 57.087], [-61.479, 57.159], [-61.697, 57.154], [-61.623, 57.215], [-61.636, 57.232], [-61.779, 57.148], [-61.773, 57.193], [-61.853, 57.165], [-61.896, 57.211], [-62.016, 57.243], [-61.864, 57.286], [-61.868, 57.339], [-61.92, 57.366], [-61.803, 57.359], [-61.891, 57.412], [-62.167, 57.464], [-62.365, 57.42], [-62.545, 57.501], [-62.336, 57.456], [-62.272, 57.533], [-62.136, 57.528], [-62.051, 57.589], [-61.884, 57.627], [-61.893, 57.67], [-61.966, 57.687], [-61.947, 57.715], [-61.997, 57.772], [-62.125, 57.807], [-62.138, 57.836], [-62.06, 57.898], [-62.127, 57.968], [-62.206, 57.908], [-62.277, 57.951], [-62.334, 57.906], [-62.342, 57.976], [-62.409, 57.866], [-62.424, 57.958], [-62.457, 57.967], [-62.673, 57.93], [-62.528, 58.006], [-62.387, 57.994], [-62.307, 58.031], [-62.336, 58.067], [-62.389, 58.042], [-62.386, 58.072], [-62.426, 58.081], [-62.365, 58.092], [-62.375, 58.113], [-62.483, 58.1], [-62.514, 58.058], [-62.529, 58.103], [-62.453, 58.175], [-62.523, 58.166], [-62.555, 58.121], [-62.574, 58.165], [-62.652, 58.119], [-62.886, 58.138], [-63.089, 58.062], [-63.129, 57.998], [-63.341, 57.98], [-63.168, 58.021], [-63.132, 58.058], [-63.212, 58.062], [-63.012, 58.136], [-63.075, 58.151], [-62.661, 58.173], [-62.584, 58.214], [-62.593, 58.249], [-62.659, 58.27], [-62.833, 58.252], [-62.905, 58.21], [-62.859, 58.263], [-62.623, 58.304], [-62.62, 58.377], [-62.649, 58.413], [-62.557, 58.482], [-62.745, 58.494], [-62.775, 58.451], [-62.789, 58.495], [-63.015, 58.425], [-63.037, 58.453], [-63.163, 58.366], [-63.086, 58.455], [-63.133, 58.477], [-63.265, 58.463], [-63.589, 58.301], [-63.339, 58.463], [-63.408, 58.49], [-63.524, 58.471], [-63.44, 58.518], [-63.169, 58.503], [-62.916, 58.6], [-62.917, 58.631], [-62.848, 58.653], [-62.847, 58.691], [-63.041, 58.708], [-62.918, 58.745], [-62.905, 58.79], [-62.924, 58.821], [-63.053, 58.859], [-62.995, 58.886], [-63.072, 58.903], [-63.16, 58.823], [-63.183, 58.834], [-63.158, 58.873], [-63.325, 58.856], [-63.161, 58.926], [-63.226, 58.94], [-63.171, 58.955], [-63.173, 58.98], [-63.304, 58.942], [-63.225, 59.001], [-63.336, 59.025], [-63.175, 59.027], [-63.134, 59.058], [-63.373, 59.101], [-63.527, 59.031], [-63.759, 59.013], [-63.849, 59.036], [-63.877, 59.025], [-63.868, 58.953], [-63.912, 59.001], [-63.899, 59.057], [-64.044, 59.015], [-63.934, 59.081], [-63.768, 59.049], [-63.477, 59.104], [-63.358, 59.198], [-63.462, 59.194], [-63.432, 59.224], [-63.451, 59.241], [-63.38, 59.284], [-63.605, 59.21], [-63.639, 59.217], [-63.535, 59.264], [-63.535, 59.344], [-63.65, 59.362], [-63.741, 59.256], [-63.806, 59.24], [-63.712, 59.365], [-63.756, 59.358], [-63.764, 59.388], [-64.062, 59.382], [-64.001, 59.414], [-63.8, 59.417], [-63.722, 59.514], [-63.871, 59.566], [-63.98, 59.505], [-63.864, 59.602], [-63.997, 59.627], [-64.041, 59.554], [-64.122, 59.52], [-64.048, 59.635], [-63.924, 59.654], [-63.966, 59.659], [-63.957, 59.69], [-64.164, 59.684], [-64.261, 59.765], [-64.262, 59.789], [-64.181, 59.782], [-64.126, 59.896], [-64.26, 59.872], [-64.186, 59.92], [-64.298, 59.944], [-64.158, 59.976], [-64.167, 60.025], [-64.326, 60.054], [-64.325, 60.016], [-64.224, 59.995], [-64.33, 59.984], [-64.363, 59.922], [-64.499, 59.892], [-64.397, 59.938], [-64.398, 59.972], [-64.589, 60.002], [-64.389, 60.014], [-64.371, 60.044], [-64.415, 60.07], [-64.375, 60.07], [-64.366, 60.118], [-64.396, 60.122], [-64.456, 60.059], [-64.648, 60.035], [-64.627, 60.071], [-64.469, 60.083], [-64.487, 60.116], [-64.377, 60.161], [-64.427, 60.192], [-64.406, 60.22], [-64.563, 60.173], [-64.464, 60.231], [-64.615, 60.268], [-64.613, 60.289], [-64.382, 60.242], [-64.606, 60.335], [-64.424, 60.282], [-64.478, 60.334], [-64.427, 60.401], [-64.532, 60.374], [-64.523, 60.409], [-64.568, 60.455], [-60.094, 59.997], [-60.371, 59.689]], [[-64.129, 59.757], [-64.188, 59.768], [-64.204, 59.734], [-64.144, 59.727], [-64.157, 59.7], [-64.011, 59.716], [-63.959, 59.752], [-64.076, 59.788], [-64.031, 59.809], [-64.061, 59.864], [-64.129, 59.839], [-64.153, 59.788], [-64.129, 59.757]], [[-61.957, 57.787], [-61.882, 57.813], [-61.884, 57.867], [-61.94, 57.872], [-61.919, 57.902], [-61.972, 57.911], [-62.108, 57.825], [-61.957, 57.787]], [[-61.828, 57.779], [-61.758, 57.716], [-61.684, 57.715], [-61.652, 57.779], [-61.721, 57.78], [-61.699, 57.83], [-61.773, 57.846], [-61.874, 57.792], [-61.894, 57.754], [-61.828, 57.779]], [[-61.963, 57.462], [-61.864, 57.466], [-61.779, 57.514], [-61.784, 57.551], [-61.878, 57.585], [-61.947, 57.549], [-61.944, 57.591], [-62.023, 57.534], [-61.963, 57.462]], [[-61.675, 57.39], [-61.615, 57.409], [-61.694, 57.442], [-61.826, 57.431], [-61.79, 57.46], [-61.674, 57.464], [-61.647, 57.483], [-61.691, 57.496], [-61.635, 57.509], [-61.737, 57.537], [-61.9, 57.438], [-61.675, 57.39]], [[-61.644, 56.734], [-61.398, 56.616], [-61.378, 56.632], [-61.405, 56.662], [-61.369, 56.686], [-61.386, 56.776], [-61.586, 56.766], [-61.503, 56.804], [-61.493, 56.838], [-61.448, 56.842], [-61.439, 56.816], [-61.352, 56.858], [-61.405, 56.88], [-61.343, 56.934], [-61.429, 56.93], [-61.468, 56.959], [-61.632, 56.86], [-61.644, 56.734]], [[-61.633, 56.506], [-61.418, 56.483], [-61.637, 56.49], [-61.631, 56.465], [-61.503, 56.436], [-61.474, 56.467], [-61.149, 56.441], [-61.224, 56.451], [-61.174, 56.477], [-61.361, 56.472], [-61.317, 56.505], [-61.436, 56.541], [-61.588, 56.558], [-61.594, 56.536], [-61.572, 56.518], [-61.633, 56.506]], [[-61.412, 56.329], [-61.464, 56.346], [-61.412, 56.372], [-61.475, 56.407], [-61.791, 56.416], [-61.58, 56.322], [-61.412, 56.329]], [[-61.149, 56.091], [-61.227, 56.098], [-61.221, 56.051], [-61.041, 56.005], [-60.935, 56.011], [-61.009, 56.035], [-60.944, 56.095], [-61.066, 56.123], [-61.046, 56.154], [-61.094, 56.171], [-61.187, 56.102], [-61.149, 56.091]], [[-60.815, 55.886], [-60.899, 55.867], [-60.756, 55.88], [-60.686, 55.922], [-60.751, 55.91], [-60.741, 55.943], [-60.852, 55.955], [-60.88, 55.914], [-60.815, 55.886]], [[-58.216, 54.878], [-58.225, 54.835], [-58.139, 54.757], [-58.031, 54.754], [-57.842, 54.812], [-57.939, 54.828], [-57.984, 54.802], [-57.989, 54.867], [-57.945, 54.881], [-57.943, 54.925], [-58.17, 54.854], [-58.216, 54.878]], [[-55.793, 53.392], [-55.821, 53.413], [-55.776, 53.411], [-55.795, 53.458], [-55.729, 53.45], [-55.883, 53.486], [-55.979, 53.455], [-55.793, 53.392]], [[-56.689, 51.337], [-56.794, 51.24], [-56.746, 51.204], [-56.807, 51.189], [-56.784, 51.138], [-56.861, 51.114], [-56.88, 51.066], [-56.979, 51.05], [-56.902, 51.013], [-56.977, 50.986], [-57.005, 51.016], [-57.089, 51.02], [-56.967, 50.969], [-56.99, 50.929], [-56.927, 50.916], [-56.973, 50.909], [-56.977, 50.874], [-57.089, 50.781], [-57.401, 50.697], [-57.241, 50.641], [-57.277, 50.63], [-57.262, 50.613], [-57.148, 50.622], [-57.373, 50.591], [-57.527, 50.365], [-57.601, 50.175], [-57.948, 49.674], [-57.945, 49.607], [-57.877, 49.528], [-57.825, 49.56], [-57.789, 49.501], [-57.696, 49.464], [-57.747, 49.454], [-57.863, 49.507], [-57.906, 49.477], [-57.881, 49.428], [-57.918, 49.466], [-57.92, 49.528], [-57.998, 49.559], [-58.152, 49.469], [-58.223, 49.39], [-58.242, 49.292], [-58.201, 49.24], [-58.039, 49.212], [-57.928, 49.24], [-57.995, 49.18], [-58.107, 49.183], [-58.091, 49.151], [-57.924, 49.188], [-57.97, 49.164], [-57.939, 49.145], [-57.849, 49.182], [-57.926, 49.123], [-58.144, 49.122], [-58.108, 49.038], [-58.051, 48.996], [-57.882, 48.969], [-58.06, 48.976], [-58.172, 49.062], [-58.36, 49.057], [-58.352, 49.15], [-58.501, 49.004], [-58.544, 48.861], [-58.658, 48.743], [-58.709, 48.571], [-58.818, 48.57], [-58.848, 48.635], [-58.848, 48.589], [-58.897, 48.552], [-58.896, 48.589], [-58.959, 48.614], [-58.775, 48.779], [-59.21, 48.55], [-59.255, 48.467], [-58.683, 48.555], [-58.569, 48.539], [-58.52, 48.501], [-58.266, 48.517], [-58.418, 48.487], [-58.471, 48.432], [-58.601, 48.401], [-58.493, 48.456], [-58.588, 48.431], [-58.979, 48.124], [-59.219, 48.029], [-59.316, 47.934], [-59.392, 47.917], [-59.407, 47.89], [-59.33, 47.816], [-59.322, 47.761], [-59.281, 47.752], [-59.304, 47.61], [-59.119, 47.555], [-58.691, 47.599], [-58.642, 47.628], [-58.606, 47.612], [-58.535, 47.632], [-58.535, 47.666], [-58.431, 47.633], [-58.338, 47.746], [-58.272, 47.752], [-58.359, 47.647], [-58.079, 47.695], [-58.074, 47.667], [-58.036, 47.696], [-57.952, 47.662], [-57.884, 47.697], [-57.916, 47.649], [-57.771, 47.614], [-57.739, 47.654], [-57.644, 47.597], [-57.537, 47.648], [-57.489, 47.624], [-57.335, 47.639], [-57.313, 47.581], [-57.184, 47.598], [-57.171, 47.632], [-57.142, 47.599], [-57.168, 47.584], [-57.126, 47.564], [-56.993, 47.584], [-56.852, 47.548], [-56.849, 47.522], [-56.787, 47.526], [-56.706, 47.566], [-56.752, 47.59], [-56.757, 47.629], [-56.679, 47.574], [-56.641, 47.592], [-56.697, 47.621], [-56.345, 47.608], [-56.31, 47.639], [-56.334, 47.695], [-56.309, 47.749], [-56.299, 47.622], [-56.232, 47.626], [-56.216, 47.655], [-56.161, 47.634], [-56.191, 47.677], [-56.142, 47.685], [-56.168, 47.716], [-56.125, 47.757], [-56.157, 47.832], [-56.101, 47.75], [-56.054, 47.774], [-56.111, 47.724], [-56.107, 47.693], [-56.055, 47.696], [-55.987, 47.757], [-55.854, 47.795], [-55.774, 47.957], [-55.742, 47.923], [-55.822, 47.834], [-55.799, 47.799], [-55.831, 47.733], [-55.917, 47.657], [-55.839, 47.617], [-55.628, 47.675], [-56.169, 47.492], [-56.104, 47.464], [-55.746, 47.585], [-55.926, 47.439], [-55.858, 47.474], [-55.802, 47.459], [-55.763, 47.538], [-55.764, 47.455], [-55.705, 47.475], [-55.705, 47.502], [-55.654, 47.495], [-55.628, 47.541], [-55.589, 47.51], [-55.664, 47.437], [-55.588, 47.453], [-55.588, 47.399], [-55.521, 47.46], [-55.407, 47.493], [-55.39, 47.586], [-55.432, 47.581], [-55.4, 47.616], [-55.467, 47.619], [-55.423, 47.673], [-55.427, 47.712], [-55.392, 47.691], [-55.358, 47.726], [-55.364, 47.649], [-55.319, 47.668], [-55.176, 47.635], [-55.13, 47.662], [-55.154, 47.604], [-55.119, 47.577], [-54.943, 47.781], [-55.08, 47.59], [-54.949, 47.6], [-54.769, 47.678], [-54.697, 47.665], [-54.85, 47.607], [-54.877, 47.57], [-54.841, 47.584], [-54.846, 47.557], [-54.951, 47.505], [-55.196, 47.449], [-55.267, 47.397], [-55.298, 47.267], [-55.493, 47.134], [-55.866, 47.073], [-55.983, 46.952], [-55.931, 46.893], [-55.741, 46.85], [-55.627, 46.869], [-55.574, 46.911], [-55.549, 46.894], [-55.525, 46.94], [-55.512, 46.912], [-55.468, 46.928], [-55.464, 46.877], [-55.384, 46.866], [-55.354, 46.88], [-55.366, 46.905], [-55.23, 46.928], [-55.19, 46.996], [-55.199, 47.071], [-55.17, 47.065], [-55.155, 47.008], [-55.105, 47.078], [-55.069, 47.082], [-55.086, 47.161], [-55.134, 47.167], [-55.084, 47.202], [-55.068, 47.147], [-55.012, 47.173], [-55.044, 47.221], [-54.831, 47.421], [-54.837, 47.373], [-54.787, 47.419], [-54.819, 47.364], [-54.72, 47.352], [-54.686, 47.396], [-54.671, 47.372], [-54.621, 47.39], [-54.418, 47.604], [-54.611, 47.353], [-54.511, 47.373], [-54.454, 47.456], [-54.449, 47.421], [-54.403, 47.451], [-54.46, 47.495], [-54.325, 47.641], [-54.338, 47.699], [-54.286, 47.692], [-54.213, 47.778], [-54.195, 47.857], [-54.255, 47.9], [-54.114, 47.824], [-54.082, 47.869], [-54.064, 47.797], [-54.006, 47.819], [-53.93, 47.607], [-53.897, 47.61], [-53.886, 47.577], [-53.924, 47.451], [-53.906, 47.425], [-53.804, 47.427], [-53.914, 47.374], [-53.918, 47.353], [-53.876, 47.354], [-53.922, 47.304], [-53.997, 47.31], [-53.994, 47.265], [-53.932, 47.223], [-54.012, 47.229], [-54.178, 46.943], [-54.188, 46.819], [-54.053, 46.795], [-53.951, 46.854], [-53.765, 47.034], [-53.704, 47.053], [-53.654, 47.14], [-53.631, 47.154], [-53.64, 47.102], [-53.601, 47.129], [-53.559, 47.203], [-53.573, 47.154], [-53.524, 47.168], [-53.499, 47.124], [-53.578, 47.085], [-53.642, 46.984], [-53.602, 46.992], [-53.601, 46.941], [-53.567, 46.977], [-53.563, 46.937], [-53.512, 46.956], [-53.597, 46.906], [-53.646, 46.792], [-53.542, 46.884], [-53.482, 46.897], [-53.548, 46.87], [-53.609, 46.791], [-53.602, 46.752], [-53.644, 46.709], [-53.618, 46.644], [-53.533, 46.614], [-53.362, 46.737], [-53.388, 46.682], [-53.267, 46.734], [-53.207, 46.63], [-53.103, 46.637], [-53.024, 46.739], [-52.938, 46.789], [-52.884, 46.942], [-52.895, 47.001], [-52.844, 47.064], [-52.934, 47.087], [-52.866, 47.099], [-52.81, 47.267], [-52.759, 47.293], [-52.797, 47.301], [-52.743, 47.31], [-52.651, 47.428], [-52.688, 47.461], [-52.614, 47.517], [-52.689, 47.551], [-52.646, 47.599], [-52.658, 47.658], [-52.714, 47.666], [-52.701, 47.749], [-52.779, 47.803], [-52.897, 47.559], [-53.122, 47.413], [-53.146, 47.448], [-53.2, 47.438], [-53.152, 47.472], [-53.161, 47.501], [-53.206, 47.47], [-53.186, 47.554], [-53.262, 47.546], [-53.171, 47.602], [-53.248, 47.576], [-53.206, 47.61], [-53.267, 47.606], [-53.178, 47.651], [-53.163, 47.715], [-53.202, 47.734], [-53.053, 47.868], [-53.058, 47.922], [-52.954, 48.007], [-52.928, 48.076], [-52.831, 48.102], [-52.92, 48.171], [-53.053, 48.05], [-53.154, 48.066], [-53.274, 48.013], [-53.368, 47.894], [-53.356, 47.866], [-53.399, 47.873], [-53.461, 47.807], [-53.514, 47.614], [-53.562, 47.619], [-53.536, 47.589], [-53.56, 47.577], [-53.545, 47.534], [-53.618, 47.556], [-53.667, 47.522], [-53.639, 47.573], [-53.713, 47.598], [-53.665, 47.674], [-53.695, 47.686], [-53.76, 47.61], [-53.857, 47.711], [-53.829, 47.719], [-53.854, 47.795], [-53.93, 47.849], [-53.874, 47.846], [-53.793, 47.769], [-53.722, 47.849], [-53.724, 47.883], [-53.788, 47.901], [-53.693, 47.899], [-53.608, 48.051], [-53.779, 47.997], [-53.919, 48.022], [-53.763, 48.026], [-53.664, 48.064], [-53.912, 48.084], [-53.945, 48.179], [-53.934, 48.233], [-53.84, 48.187], [-53.753, 48.197], [-53.662, 48.163], [-53.448, 48.279], [-53.379, 48.278], [-53.359, 48.383], [-53.187, 48.351], [-53.054, 48.443], [-52.978, 48.604], [-53.073, 48.7], [-53.099, 48.642], [-53.154, 48.629], [-53.24, 48.523], [-53.319, 48.549], [-53.303, 48.582], [-53.338, 48.612], [-53.437, 48.62], [-53.473, 48.507], [-53.609, 48.407], [-53.547, 48.487], [-53.587, 48.476], [-53.586, 48.525], [-53.64, 48.439], [-53.725, 48.426], [-53.618, 48.499], [-53.66, 48.513], [-53.621, 48.534], [-53.647, 48.541], [-53.769, 48.475], [-53.849, 48.393], [-53.841, 48.369], [-53.884, 48.383], [-53.826, 48.471], [-53.992, 48.402], [-54.076, 48.402], [-54.127, 48.353], [-54.164, 48.383], [-54.081, 48.43], [-54.011, 48.422], [-53.902, 48.48], [-53.756, 48.503], [-53.749, 48.533], [-53.789, 48.543], [-53.715, 48.56], [-53.956, 48.544], [-53.914, 48.581], [-53.604, 48.674], [-53.625, 48.694], [-53.722, 48.655], [-53.703, 48.685], [-53.742, 48.712], [-53.852, 48.702], [-53.832, 48.749], [-53.924, 48.671], [-53.79, 48.68], [-53.932, 48.625], [-53.894, 48.646], [-53.948, 48.666], [-53.938, 48.722], [-54.022, 48.741], [-53.891, 48.734], [-53.844, 48.772], [-53.901, 48.76], [-53.913, 48.798], [-53.802, 48.808], [-53.821, 48.829], [-53.934, 48.83], [-53.97, 48.766], [-54.008, 48.764], [-53.999, 48.811], [-54.199, 48.768], [-54.128, 48.824], [-53.981, 48.829], [-53.884, 48.887], [-53.969, 48.895], [-53.807, 48.93], [-53.89, 48.962], [-53.877, 48.989], [-53.804, 48.978], [-53.725, 49.01], [-53.835, 49.032], [-53.594, 49.036], [-53.582, 49.092], [-53.62, 49.117], [-53.56, 49.125], [-53.534, 49.185], [-53.455, 49.232], [-53.483, 49.277], [-53.928, 49.451], [-54.033, 49.427], [-53.988, 49.459], [-54.042, 49.481], [-54.14, 49.449], [-54.166, 49.378], [-54.206, 49.403], [-54.229, 49.361], [-54.22, 49.417], [-54.249, 49.397], [-54.358, 49.427], [-54.407, 49.375], [-54.401, 49.325], [-54.487, 49.26], [-54.452, 49.333], [-54.488, 49.371], [-54.432, 49.471], [-54.53, 49.445], [-54.441, 49.539], [-54.529, 49.533], [-54.74, 49.321], [-54.767, 49.352], [-54.777, 49.299], [-54.824, 49.269], [-54.84, 49.409], [-54.89, 49.354], [-54.859, 49.332], [-54.877, 49.288], [-54.966, 49.297], [-55.036, 49.22], [-54.99, 49.287], [-55.008, 49.34], [-55.038, 49.322], [-55.078, 49.357], [-55.059, 49.284], [-55.288, 49.187], [-55.253, 49.184], [-55.28, 49.16], [-55.272, 49.1], [-55.183, 49.12], [-55.383, 49.041], [-55.308, 49.099], [-55.34, 49.122], [-55.319, 49.149], [-55.366, 49.165], [-55.221, 49.262], [-55.232, 49.348], [-55.125, 49.465], [-55.137, 49.541], [-55.194, 49.539], [-55.196, 49.5], [-55.229, 49.538], [-55.311, 49.53], [-55.234, 49.394], [-55.311, 49.31], [-55.339, 49.355], [-55.284, 49.398], [-55.321, 49.381], [-55.328, 49.406], [-55.373, 49.331], [-55.391, 49.374], [-55.444, 49.355], [-55.316, 49.452], [-55.432, 49.422], [-55.35, 49.487], [-55.369, 49.503], [-55.489, 49.471], [-55.567, 49.363], [-55.569, 49.419], [-55.523, 49.487], [-55.664, 49.382], [-55.699, 49.427], [-55.674, 49.466], [-55.78, 49.442], [-55.721, 49.476], [-55.828, 49.524], [-55.98, 49.493], [-56.123, 49.421], [-56.08, 49.487], [-55.921, 49.543], [-55.879, 49.591], [-55.938, 49.604], [-55.833, 49.687], [-55.958, 49.672], [-55.887, 49.711], [-55.964, 49.699], [-56.168, 49.575], [-56.16, 49.623], [-56.007, 49.716], [-56.003, 49.748], [-55.958, 49.738], [-55.687, 49.833], [-55.46, 49.958], [-55.492, 50.007], [-55.594, 49.962], [-55.671, 49.973], [-55.755, 49.924], [-55.881, 50.025], [-55.955, 50.037], [-55.999, 49.974], [-56.031, 49.975], [-56.005, 50.031], [-56.188, 49.924], [-56.063, 50.072], [-56.125, 50.156], [-56.33, 50.025], [-56.388, 49.943], [-56.365, 49.897], [-56.432, 49.891], [-56.418, 49.842], [-56.464, 49.896], [-56.561, 49.842], [-56.857, 49.546], [-56.781, 49.727], [-56.906, 49.747], [-56.76, 49.836], [-56.719, 49.954], [-56.779, 49.934], [-56.743, 50.023], [-56.636, 50.101], [-56.671, 50.129], [-56.566, 50.158], [-56.462, 50.272], [-56.423, 50.353], [-56.502, 50.383], [-56.405, 50.374], [-56.259, 50.503], [-56.322, 50.524], [-56.241, 50.524], [-56.206, 50.596], [-56.1, 50.664], [-56.157, 50.691], [-56.155, 50.886], [-56.104, 50.898], [-56.133, 50.773], [-56.116, 50.746], [-56.092, 50.76], [-56.104, 50.721], [-56.069, 50.724], [-55.907, 50.897], [-55.877, 50.863], [-55.845, 50.904], [-55.874, 50.908], [-55.859, 50.942], [-55.819, 50.925], [-55.836, 50.968], [-55.776, 51.03], [-55.807, 51.062], [-55.732, 51.08], [-55.719, 51.123], [-55.747, 51.158], [-55.71, 51.174], [-55.761, 51.214], [-55.838, 51.231], [-55.959, 51.197], [-55.956, 51.152], [-56.013, 51.213], [-56.075, 51.227], [-56.01, 51.27], [-56.025, 51.309], [-56.096, 51.318], [-56.086, 51.368], [-55.759, 51.346], [-55.598, 51.304], [-55.609, 51.344], [-55.559, 51.343], [-55.562, 51.388], [-55.508, 51.363], [-55.452, 51.461], [-55.533, 51.501], [-55.451, 51.499], [-55.432, 51.537], [-55.467, 51.564], [-55.419, 51.548], [-55.404, 51.572], [-55.516, 51.602], [-55.625, 51.566], [-55.653, 51.591], [-55.618, 51.61], [-55.739, 51.557], [-55.62, 51.473], [-55.878, 51.492], [-55.842, 51.545], [-55.885, 51.563], [-55.823, 51.619], [-55.89, 51.629], [-56.111, 51.524], [-56.689, 51.337]], [[-55.619, 50.791], [-55.652, 50.723], [-55.557, 50.701], [-55.467, 50.762], [-55.45, 50.793], [-55.471, 50.806], [-55.589, 50.772], [-55.619, 50.791]], [[-54.215, 49.721], [-54.288, 49.711], [-54.255, 49.672], [-54.303, 49.67], [-54.289, 49.576], [-53.976, 49.654], [-54.086, 49.746], [-54.148, 49.747], [-54.192, 49.675], [-54.215, 49.721]], [[-54.621, 49.603], [-54.627, 49.633], [-54.744, 49.545], [-54.788, 49.558], [-54.793, 49.603], [-54.892, 49.591], [-54.884, 49.546], [-54.807, 49.517], [-54.872, 49.487], [-54.739, 49.49], [-54.727, 49.528], [-54.577, 49.559], [-54.538, 49.587], [-54.532, 49.644], [-54.562, 49.654], [-54.621, 49.603]], [[-53.765, 48.175], [-53.851, 48.161], [-53.906, 48.21], [-53.936, 48.182], [-53.856, 48.098], [-53.634, 48.075], [-53.531, 48.098], [-53.553, 48.107], [-53.513, 48.145], [-53.51, 48.198], [-53.539, 48.202], [-53.69, 48.147], [-53.765, 48.175]], [[-56.311, 46.9], [-56.307, 46.967], [-56.347, 46.991], [-56.281, 46.984], [-56.246, 47.04], [-56.373, 47.097], [-56.361, 47.136], [-56.398, 47.107], [-56.389, 47.032], [-56.325, 46.929], [-56.342, 46.863], [-56.398, 46.832], [-56.374, 46.789], [-56.331, 46.783], [-56.232, 46.856], [-56.311, 46.9]], [[-54.129, 47.671], [-54.172, 47.586], [-54.173, 47.621], [-54.24, 47.558], [-54.206, 47.546], [-54.262, 47.475], [-54.366, 47.412], [-54.239, 47.404], [-54.16, 47.526], [-54.129, 47.671]], [[-55.934, 47.688], [-56.114, 47.645], [-55.876, 47.612], [-55.93, 47.639], [-55.934, 47.688]], [[-61.701, 49.09], [-61.662, 49.144], [-61.876, 49.345], [-62.206, 49.411], [-62.251, 49.457], [-62.394, 49.492], [-62.51, 49.591], [-63.136, 49.781], [-63.931, 49.885], [-64.133, 49.947], [-64.446, 49.904], [-64.514, 49.864], [-64.39, 49.79], [-64.363, 49.824], [-64.239, 49.752], [-63.842, 49.639], [-63.62, 49.493], [-63.583, 49.387], [-63.283, 49.318], [-63.09, 49.228], [-62.227, 49.063], [-61.814, 49.067], [-61.701, 49.09]], [[-70.809, 47.015], [-70.897, 47.013], [-71.078, 46.914], [-71.127, 46.852], [-70.904, 46.914], [-70.809, 47.015]]], [[[-60.614, 55.165], [-60.53193273962972, 55.205471525662055], [-60.533, 55.204], [-60.614, 55.165]]]]}}