{"type": "Feature", "properties": {"geometry_method": "target polygon used as intended article/model envelope", "geometry_confidence": "low"}, "geometry": {"type": "MultiPolygon", "coordinates": [[[[156.707, 51.189], [156.626, 51.16], [156.11, 50.757], [156.034, 50.771], [155.889, 50.693], [155.761, 50.458], [155.661, 50.385], [155.427, 50.364], [155.327, 50.291], [155.195, 50.291], [155.182, 50.26], [155.245, 50.218], [155.253, 50.164], [155.211, 50.07], [154.841, 49.756], [154.424, 49.33], [153.486, 48.515], [153.094, 48.146], [152.859, 47.856], [152.266, 47.534], [151.098, 47.024], [149.466, 45.938], [148.559, 45.459], [148.322, 45.27], [148.034, 45.256], [148, 45.273], [147.96, 45.419], [147.933, 45.421], [147.856, 45.356], [147.887, 45.218], [147.754, 45.184], [147.656, 45.075], [147.494, 45.077], [147.486, 44.981], [147.242, 44.848], [147.182, 44.775], [147.103, 44.793], [147.098, 44.74], [146.393, 44.424], [146.127, 44.507], [146.019, 44.389], [145.974, 44.288], [145.887, 44.246], [145.851, 44.184], [145.076, 43.789], [145.132, 43.931], [145.251, 44.056], [145.273, 44.135], [145.377, 44.26], [145.342, 44.344], [145.187, 44.195], [144.779, 43.913], [144.352, 43.96], [144.266, 44.044], [144.253, 44.119], [144.203, 44.104], [144.149, 44.015], [144.106, 44.029], [144.163, 44.112], [144.004, 44.133], [143.932, 44.093], [143.764, 44.097], [143.679, 44.182], [143.776, 44.185], [143.385, 44.326], [143.361, 44.372], [143.14, 44.479], [142.819, 44.706], [142.617, 44.898], [142.51, 45.05], [141.937, 45.515], [142.063, 45.905], [142.096, 45.895], [142.13, 46.004], [142.196, 46.02], [142.264, 46.285], [142.497, 46.668], [142.717, 46.744], [142.781, 46.596], [143.169, 46.59], [143.297, 46.509], [143.278, 46.559], [143.379, 46.548], [143.375, 46.495], [143.329, 46.484], [143.428, 46.203], [143.425, 46.019], [143.474, 46.093], [143.476, 46.188], [143.622, 46.368], [143.558, 46.393], [143.579, 46.425], [143.48, 46.826], [143.45, 46.841], [143.425, 46.794], [143.369, 46.786], [143.182, 46.838], [143.185, 46.781], [143.345, 46.747], [143.392, 46.708], [143.344, 46.681], [143.167, 46.709], [143.088, 46.802], [143.095, 46.837], [143.174, 46.853], [143.096, 46.865], [143.127, 46.879], [143.028, 47.07], [143.02, 47.245], [142.873, 47.391], [142.721, 47.426], [142.745, 47.442], [142.604, 47.621], [142.537, 47.789], [142.536, 48.008], [142.781, 48.554], [142.99, 48.91], [142.966, 49.038], [143.018, 49.14], [143.269, 49.272], [143.666, 49.308], [143.32, 49.314], [143.328, 49.337], [143.248, 49.369], [143.297, 49.399], [143.41, 49.396], [143.496, 49.337], [143.721, 49.333], [143.684, 49.312], [144.02, 49.259], [144.153, 49.197], [144.346, 49.027], [144.454, 48.985], [144.615, 48.821], [144.678, 48.647], [144.752, 48.642], [144.691, 48.713], [144.691, 48.864], [144.408, 49.03], [144.284, 49.239], [144.222, 49.417], [144.228, 49.516], [144.138, 49.637], [144.12, 49.761], [144.003, 50.018], [143.798, 50.287], [143.534, 51.239], [143.497, 51.305], [143.524, 51.225], [143.483, 51.212], [143.475, 51.289], [143.378, 51.345], [143.474, 51.346], [143.456, 51.485], [143.371, 51.641], [143.325, 51.608], [143.344, 51.506], [143.221, 51.521], [143.258, 51.672], [143.315, 51.729], [143.238, 51.883], [143.175, 51.857], [143.134, 51.923], [143.125, 51.961], [143.164, 51.981], [143.134, 52.092], [143.095, 52.107], [143.113, 52.148], [143.152, 52.116], [143.181, 52.311], [143.164, 52.342], [143.115, 52.34], [143.231, 52.51], [143.251, 52.594], [143.294, 52.589], [143.235, 52.474], [143.27, 52.464], [143.196, 52.421], [143.194, 52.336], [143.301, 52.461], [143.324, 52.803], [143.354, 52.862], [143.226, 53.321], [143.181, 53.399], [143.087, 53.383], [143.113, 53.421], [143.067, 53.451], [143.132, 53.476], [143.104, 53.555], [143.037, 53.536], [142.988, 53.563], [143.066, 53.592], [142.991, 53.621], [143.025, 53.645], [142.969, 53.666], [142.984, 53.689], [142.901, 53.768], [142.881, 53.808], [142.926, 53.833], [143, 53.696], [142.925, 53.864], [142.85, 53.871], [142.9, 53.894], [143.011, 54.131], [142.813, 54.299], [142.73, 54.423], [142.685, 54.42], [142.684, 54.355], [142.618, 54.319], [142.652, 54.289], [142.639, 54.263], [142.571, 54.273], [142.569, 54.229], [142.529, 54.236], [142.515, 54.281], [142.601, 54.309], [142.435, 54.266], [142.281, 54.303], [142.402, 54.231], [142.485, 54.125], [142.72, 53.931], [142.714, 53.866], [142.605, 53.691], [142.677, 53.72], [142.749, 53.843], [142.775, 53.835], [142.798, 53.697], [142.716, 53.63], [142.637, 53.679], [142.495, 53.661], [142.518, 53.538], [142.603, 53.571], [142.682, 53.524], [142.597, 53.514], [142.486, 53.392], [142.352, 53.356], [142.253, 53.381], [142.231, 53.525], [141.767, 53.371], [141.805, 53.334], [141.794, 53.273], [141.396, 53.254], [141.4, 53.302], [141.236, 53.308], [141.111, 53.395], [141.034, 53.403], [140.998, 53.449], [140.931, 53.428], [140.931, 53.473], [140.966, 53.497], [141.098, 53.474], [140.764, 53.559], [140.555, 53.648], [140.524, 53.68], [140.538, 53.713], [140.365, 53.777], [140.256, 53.861], [140.253, 53.894], [140.336, 53.965], [140.225, 54.002], [140.245, 54.048], [139.815, 54.211], [139.79, 54.231], [139.809, 54.296], [139.746, 54.309], [139.342, 54.183], [138.995, 54.229], [138.726, 54.316], [138.642, 54.295], [138.745, 54.241], [138.735, 54.169], [138.664, 54.064], [138.768, 54.101], [138.776, 54.024], [138.689, 53.893], [138.705, 53.832], [138.612, 53.661], [138.546, 53.575], [138.444, 53.511], [138.268, 53.52], [138.21, 53.49], [138.239, 53.562], [138.345, 53.601], [138.374, 53.679], [138.571, 53.815], [138.576, 53.998], [138.348, 53.897], [138.289, 53.739], [137.913, 53.577], [137.345, 53.525], [137.207, 53.588], [137.342, 53.663], [137.486, 53.664], [137.565, 53.725], [137.556, 53.771], [137.6, 53.83], [137.782, 53.897], [137.859, 53.961], [137.766, 53.938], [137.587, 53.954], [137.441, 54.033], [137.307, 54.049], [137.308, 54.114], [137.435, 54.145], [137.461, 54.125], [137.446, 54.086], [137.486, 54.081], [137.512, 54.151], [137.739, 54.317], [137.645, 54.292], [137.387, 54.305], [137.243, 54.214], [137.187, 54.215], [137.062, 54.141], [137.173, 54.036], [137.289, 54.034], [137.173, 53.835], [137.113, 53.804], [136.932, 53.851], [136.761, 53.769], [136.68, 53.809], [136.654, 53.926], [136.692, 54.013], [136.773, 54.05], [136.811, 54.148], [136.758, 54.21], [136.811, 54.246], [136.753, 54.285], [136.822, 54.313], [136.76, 54.35], [136.736, 54.415], [136.84, 54.434], [136.809, 54.517], [136.883, 54.582], [136.825, 54.606], [136.816, 54.651], [136.694, 54.61], [136.651, 54.627], [136.667, 54.686], [136.541, 54.59], [136.209, 54.617], [135.996, 54.571], [135.737, 54.571], [135.664, 54.666], [135.33, 54.716], [135.242, 54.7], [135.261, 54.721], [135.154, 54.859], [135.217, 54.93], [135.553, 55.122], [135.722, 55.138], [135.948, 55.254], [136.127, 55.3], [136.296, 55.431], [136.354, 55.531], [136.439, 55.58], [136.689, 55.664], [136.787, 55.658], [136.902, 55.761], [137.062, 55.792], [137.339, 55.965], [137.41, 55.931], [137.458, 56.043], [137.569, 56.11], [137.739, 56.149], [137.726, 56.175], [137.885, 56.292], [137.919, 56.378], [138.059, 56.399], [138.086, 56.454], [138.238, 56.436], [138.245, 56.478], [138.149, 56.496], [138.118, 56.574], [138.221, 56.639], [138.268, 56.634], [138.306, 56.717], [138.4, 56.731], [138.484, 56.85], [138.59, 56.869], [138.641, 56.98], [138.748, 56.992], [138.822, 57.046], [138.907, 57.024], [138.965, 57.061], [138.973, 57.153], [139.075, 57.138], [139.173, 57.262], [139.477, 57.319], [139.565, 57.379], [139.597, 57.444], [139.84, 57.509], [139.941, 57.647], [140.052, 57.716], [140.284, 57.763], [140.35, 57.745], [140.496, 57.823], [140.516, 57.942], [140.681, 58.227], [140.785, 58.305], [141.089, 58.461], [141.326, 58.511], [141.616, 58.646], [141.839, 58.813], [141.978, 58.968], [142.297, 59.135], [142.581, 59.237], [143.153, 59.349], [143.136, 59.364], [143.201, 59.382], [143.473, 59.338], [143.926, 59.413], [144.677, 59.37], [144.61, 59.389], [144.93, 59.376], [145.256, 59.423], [145.321, 59.391], [145.666, 59.425], [145.759, 59.382], [145.815, 59.414], [145.914, 59.411], [145.914, 59.352], [145.796, 59.262], [145.938, 59.209], [145.943, 59.157], [145.99, 59.149], [146.186, 59.197], [146.338, 59.195], [146.323, 59.391], [146.512, 59.461], [146.671, 59.422], [146.739, 59.375], [147.005, 59.373], [147.174, 59.317], [147.303, 59.325], [147.489, 59.24], [147.554, 59.244], [147.545, 59.277], [147.603, 59.299], [147.703, 59.264], [147.821, 59.279], [147.783, 59.353], [147.85, 59.384], [148.213, 59.419], [148.369, 59.392], [148.402, 59.357], [148.37, 59.326], [148.407, 59.263], [148.544, 59.246], [148.678, 59.271], [148.714, 59.24], [148.805, 59.281], [148.898, 59.239], [148.951, 59.257], [148.909, 59.311], [148.964, 59.379], [148.913, 59.39], [148.87, 59.351], [148.861, 59.402], [148.778, 59.364], [148.707, 59.376], [148.695, 59.449], [148.743, 59.492], [148.855, 59.553], [148.886, 59.541], [148.843, 59.49], [148.896, 59.463], [148.97, 59.448], [149.115, 59.498], [149.21, 59.462], [149.199, 59.521], [149.08, 59.554], [149.093, 59.586], [149.033, 59.639], [149.319, 59.724], [149.358, 59.766], [149.599, 59.771], [150.41, 59.623], [150.435, 59.581], [150.531, 59.553], [150.725, 59.573], [150.736, 59.554], [150.439, 59.485], [150.732, 59.497], [150.681, 59.445], [150.932, 59.469], [150.909, 59.488], [150.928, 59.504], [150.865, 59.545], [150.904, 59.567], [151.102, 59.592], [151.238, 59.568], [151.364, 59.608], [151.484, 59.508], [151.6, 59.476], [151.66, 59.426], [151.669, 59.379], [151.721, 59.35], [151.674, 59.322], [151.699, 59.301], [151.842, 59.307], [151.978, 59.264], [152.142, 59.292], [152.288, 59.227], [152.045, 59.153], [151.723, 59.136], [151.614, 59.168], [151.396, 59.171], [151.331, 59.122], [151.17, 59.091], [151.074, 59.111], [151.135, 59.031], [151.19, 59.012], [151.216, 58.944], [151.279, 58.916], [151.309, 58.837], [151.456, 58.875], [151.614, 58.852], [152.088, 58.902], [152.123, 58.922], [152.121, 58.988], [152.355, 59.017], [152.348, 59.057], [152.542, 58.954], [152.718, 58.908], [152.819, 58.934], [152.896, 58.892], [152.883, 58.95], [152.99, 59.074], [153.307, 59.087], [153.318, 59.126], [153.274, 59.14], [153.319, 59.152], [153.328, 59.224], [153.369, 59.243], [153.583, 59.192], [153.743, 59.267], [153.734, 59.224], [153.659, 59.19], [153.795, 59.174], [153.901, 59.083], [154.028, 59.046], [154.152, 59.097], [154.261, 59.08], [154.344, 59.122], [154.327, 59.203], [154.445, 59.22], [154.764, 59.119], [154.74, 59.168], [154.768, 59.198], [155.184, 59.172], [155.133, 59.212], [155.178, 59.245], [155.13, 59.293], [155.191, 59.358], [155.075, 59.396], [154.961, 59.496], [154.854, 59.443], [154.637, 59.547], [154.432, 59.549], [154.43, 59.484], [154.504, 59.429], [154.414, 59.424], [154.376, 59.466], [154.403, 59.503], [154.382, 59.529], [154.292, 59.444], [154.103, 59.466], [154.065, 59.516], [154.138, 59.542], [154.225, 59.652], [154.368, 59.576], [154.229, 59.717], [154.233, 59.882], [154.431, 59.89], [154.402, 59.843], [154.469, 59.872], [154.534, 60.052], [154.917, 60.347], [155.132, 60.413], [155.341, 60.524], [155.443, 60.511], [155.484, 60.542], [155.484, 60.587], [155.554, 60.623], [155.706, 60.66], [155.823, 60.727], [155.9, 60.722], [155.914, 60.887], [156.101, 61.024], [156.417, 61.182], [156.663, 61.212], [156.629, 61.279], [156.664, 61.335], [156.632, 61.418], [156.698, 61.536], [156.866, 61.538], [157.021, 61.647], [157.152, 61.693], [157.369, 61.706], [157.371, 61.759], [157.487, 61.803], [157.9, 61.786], [158.028, 61.73], [158.298, 61.822], [158.438, 61.824], [158.519, 61.792], [158.633, 61.835], [158.847, 61.818], [158.839, 61.857], [158.906, 61.896], [159.248, 61.922], [159.37, 61.888], [159.389, 61.872], [159.334, 61.827], [159.446, 61.774], [159.538, 61.82], [159.485, 61.72], [159.531, 61.663], [159.671, 61.724], [159.837, 61.712], [159.96, 61.823], [160.355, 61.947], [160.334, 61.923], [160.365, 61.909], [160.345, 61.871], [160.374, 61.843], [160.346, 61.819], [160.374, 61.778], [160.237, 61.702], [160.284, 61.662], [160.231, 61.636], [160.23, 61.564], [160.008, 61.462], [160.079, 61.448], [160.025, 61.415], [160.031, 61.381], [159.971, 61.399], [159.891, 61.329], [159.992, 61.309], [159.933, 61.283], [159.84, 61.312], [159.745, 61.251], [159.918, 61.249], [159.901, 61.211], [159.952, 61.182], [159.94, 61.144], [159.977, 61.121], [159.781, 60.941], [159.871, 60.929], [160.164, 61.051], [160.432, 61.047], [160.332, 60.955], [160.352, 60.922], [160.162, 60.838], [160.225, 60.784], [160.225, 60.737], [160.185, 60.689], [160.124, 60.679], [160.138, 60.584], [160.253, 60.62], [160.353, 60.693], [160.339, 60.718], [160.378, 60.751], [160.423, 60.757], [160.4, 60.733], [160.443, 60.712], [160.56, 60.759], [160.619, 60.731], [160.671, 60.776], [160.798, 60.735], [160.901, 60.909], [161.166, 61.001], [161.216, 61.066], [161.43, 61.132], [161.416, 61.167], [161.473, 61.204], [161.573, 61.202], [161.615, 61.243], [161.563, 61.267], [161.742, 61.308], [161.801, 61.381], [161.866, 61.351], [161.883, 61.429], [161.929, 61.378], [162.023, 61.418], [162.042, 61.456], [162.288, 61.589], [162.288, 61.625], [162.34, 61.621], [162.403, 61.672], [162.751, 61.599], [162.748, 61.632], [162.634, 61.679], [162.845, 61.719], [162.933, 61.666], [162.85, 61.633], [162.895, 61.611], [162.879, 61.587], [162.943, 61.577], [163.006, 61.518], [163.093, 61.558], [163.064, 61.595], [163.094, 61.617], [163.211, 61.617], [163.196, 61.644], [163.279, 61.659], [163.307, 61.716], [162.95, 61.806], [163.051, 61.913], [163.008, 61.925], [163.038, 61.968], [163.095, 61.984], [163.171, 62.067], [163.088, 62.102], [163.138, 62.119], [163.078, 62.206], [163.12, 62.278], [163.352, 62.358], [163.164, 62.445], [163.224, 62.47], [163.251, 62.54], [163.757, 62.617], [163.913, 62.605], [163.944, 62.647], [164.359, 62.712], [164.582, 62.691], [164.701, 62.584], [165.034, 62.513], [165.643, 62.453], [165.343, 62.479], [165.088, 62.46], [165.24, 62.397], [165.33, 62.316], [165.291, 62.316], [165.227, 62.377], [165.098, 62.42], [164.606, 62.474], [164.128, 62.283], [164.064, 62.101], [164.092, 62.028], [164.05, 61.987], [164.07, 61.89], [164.039, 61.84], [164.072, 61.787], [164.041, 61.717], [163.851, 61.639], [163.838, 61.566], [163.749, 61.458], [163.783, 61.421], [163.846, 61.449], [163.962, 61.431], [164.019, 61.336], [163.948, 61.293], [163.928, 61.228], [163.636, 61.146], [163.607, 61.124], [163.607, 61.069], [163.469, 61.019], [163.751, 60.928], [163.7, 60.875], [163.407, 60.837], [163.299, 60.751], [163.322, 60.716], [163.259, 60.747], [163.303, 60.815], [163.186, 60.819], [163.095, 60.797], [163.11, 60.778], [163.083, 60.762], [163.014, 60.785], [162.879, 60.766], [162.761, 60.649], [162.614, 60.607], [162.497, 60.62], [162.399, 60.554], [162.204, 60.531], [161.914, 60.423], [161.87, 60.314], [161.918, 60.324], [161.912, 60.237], [161.719, 60.124], [161.473, 60.052], [161.244, 59.847], [160.96, 59.709], [160.861, 59.622], [160.484, 59.544], [160.444, 59.456], [160.343, 59.362], [160.198, 59.322], [159.79, 59.084], [159.73, 59.013], [159.758, 58.945], [159.714, 58.863], [159.622, 58.829], [159.62, 58.796], [159.49, 58.688], [159.394, 58.669], [159.182, 58.531], [159.236, 58.46], [159.154, 58.515], [159.057, 58.427], [158.665, 58.271], [158.226, 58.035], [158.283, 58.032], [158.344, 57.965], [158.33, 57.947], [158.21, 58.023], [157.923, 57.979], [157.64, 58.018], [157.529, 57.845], [157.434, 57.791], [157.174, 57.772], [157.049, 57.8], [156.985, 57.854], [156.749, 57.728], [156.846, 57.726], [156.931, 57.648], [156.98, 57.528], [156.978, 57.414], [156.695, 57.109], [156.719, 57.084], [156.679, 57.042], [156.547, 57.107], [156.454, 56.957], [156.2, 56.857], [156.198, 56.817], [156.063, 56.715], [156.075, 56.76], [156.171, 56.842], [156.117, 56.823], [155.949, 56.666], [155.736, 56.137], [155.76, 56.106], [155.699, 56.066], [155.646, 55.912], [155.618, 55.621], [155.544, 55.304], [155.699, 54.513], [155.941, 53.847], [155.919, 53.837], [156.086, 53.098], [156.103, 52.849], [156.261, 52.567], [156.365, 52.517], [156.441, 52.521], [156.37, 52.442], [156.365, 52.495], [156.277, 52.524], [156.399, 52.286], [156.492, 51.932], [156.473, 51.514], [156.516, 51.417], [156.518, 51.323], [156.543, 51.279], [156.657, 51.242], [156.707, 51.189]], [[137.924, 54.488], [137.837, 54.497], [137.81, 54.438], [137.708, 54.369], [137.832, 54.392], [137.849, 54.438], [137.926, 54.457], [137.924, 54.488]], [[137.566, 54.387], [137.643, 54.387], [137.606, 54.432], [137.645, 54.481], [137.619, 54.565], [137.549, 54.511], [137.566, 54.387]], [[137.707, 54.618], [137.887, 54.762], [137.995, 54.801], [137.983, 54.872], [138.015, 54.937], [138.194, 55.018], [138.199, 55.05], [138.062, 55.058], [137.879, 54.998], [137.985, 55.086], [137.963, 55.137], [137.701, 55.145], [137.635, 55.197], [137.545, 55.178], [137.451, 55.015], [137.372, 54.995], [137.287, 54.908], [137.221, 54.774], [137.487, 54.872], [137.649, 54.642], [137.707, 54.618]], [[136.742, 54.911], [136.884, 54.958], [136.944, 54.921], [137.046, 54.917], [137.087, 54.95], [137.066, 55.005], [137.109, 55.015], [137.188, 55.109], [137.125, 55.12], [137.085, 55.082], [137.04, 55.104], [136.808, 55.018], [136.693, 54.962], [136.667, 54.905], [136.741, 54.882], [136.742, 54.911]], [[150.534, 59.001], [150.744, 59.112], [150.659, 59.154], [150.603, 59.092], [150.463, 59.049], [150.46, 59.011], [150.534, 59.001]], [[155.57, 50.934], [155.474, 50.921], [155.448, 50.898], [155.461, 50.851], [155.527, 50.81], [155.644, 50.814], [155.67, 50.857], [155.647, 50.913], [155.57, 50.934]]]]}}