{"type": "Feature", "properties": {"geometry_method": "Selected ecosystem polygon used as intended study envelope, not a recovered author boundary", "geometry_confidence": "low"}, "geometry": {"type": "MultiPolygon", "coordinates": [[[[38.717, -43.316], [39.492, -43.457], [40.227, -43.688], [40.951, -44.023], [41.552, -44.418], [42.053, -44.877], [42.456, -45.406], [42.719, -45.956], [42.845, -46.53], [42.825, -47.121], [42.59, -47.944], [42.222, -48.547], [41.749, -49.047], [41.15, -49.477], [40.419, -49.839], [39.612, -50.099], [38.741, -50.259], [37.836, -50.314], [36.713, -50.248], [35.843, -50.087], [35.016, -49.816], [34.299, -49.462], [33.698, -49.029], [33.223, -48.523], [32.904, -47.983], [32.731, -47.406], [32.711, -46.825], [32.838, -46.251], [33.12, -45.663], [33.512, -45.15], [34.293, -44.421], [34.915, -44.011], [35.588, -43.693], [36.322, -43.46], [37.096, -43.317], [37.922, -43.269], [38.717, -43.316]], [[37.907, -46.605], [37.866, -46.626], [37.929, -46.671], [37.997, -46.654], [37.982, -46.62], [37.907, -46.605]], [[37.706, -46.824], [37.598, -46.898], [37.599, -46.958], [37.834, -46.982], [37.911, -46.903], [37.839, -46.85], [37.706, -46.824]]]]}}