{
  "type": "FeatureCollection",
  "features": [
    {
      "type": "Feature",
      "properties": {
        "title": "Central Arctic Ocean",
        "long_title": null,
        "region_id": 64,
        "region": "lme"
      },
      "geometry": {
        "type": "MultiPolygon",
        "coordinates": [
          [
            [
              [
                180,
                75.982
              ],
              [
                175.9,
                75.938
              ],
              [
                175.228,
                75.962
              ],
              [
                174.473,
                76.329
              ],
              [
                172.518,
                77.098
              ],
              [
                170.786,
                77.702
              ],
              [
                169.375,
                78.148
              ],
              [
                167.327,
                78.73
              ],
              [
                165.652,
                79.157
              ],
              [
                163.768,
                79.591
              ],
              [
                161.825,
                79.994
              ],
              [
                145.876,
                79.992
              ],
              [
                144.536,
                79.968
              ],
              [
                133.377,
                78.428
              ],
              [
                131.749,
                78.275
              ],
              [
                129.026,
                78.097
              ],
              [
                127.078,
                78.022
              ],
              [
                124.681,
                77.991
              ],
              [
                121.44,
                78.048
              ],
              [
                119.027,
                78.169
              ],
              [
                99.411,
                82.036
              ],
              [
                88.281,
                82.974
              ],
              [
                15.156,
                82.943
              ],
              [
                5.982,
                82.329
              ],
              [
                -1.799,
                81.628
              ],
              [
                -6.101,
                81.567
              ],
              [
                -7.897,
                81.579
              ],
              [
                -11.451,
                82.311
              ],
              [
                -14.426,
                82.811
              ],
              [
                -17.702,
                83.263
              ],
              [
                -22.331,
                83.769
              ],
              [
                -27.045,
                84.171
              ],
              [
                -30.826,
                84.425
              ],
              [
                -36.183,
                84.707
              ],
              [
                -38.594,
                84.809
              ],
              [
                -41.384,
                84.88
              ],
              [
                -44.429,
                84.809
              ],
              [
                -51.011,
                84.567
              ],
              [
                -56.349,
                84.297
              ],
              [
                -60.887,
                84.006
              ],
              [
                -73.247,
                83.89
              ],
              [
                -79.358,
                83.746
              ],
              [
                -85.132,
                83.536
              ],
              [
                -90.035,
                83.29
              ],
              [
                -94.562,
                82.998
              ],
              [
                -96.884,
                82.82
              ],
              [
                -101.183,
                82.431
              ],
              [
                -105.042,
                82.004
              ],
              [
                -106.816,
                81.778
              ],
              [
                -110.074,
                81.303
              ],
              [
                -113.548,
                80.697
              ],
              [
                -115.317,
                80.34
              ],
              [
                -117.244,
                79.906
              ],
              [
                -120.143,
                79.149
              ],
              [
                -121.894,
                78.618
              ],
              [
                -123.282,
                78.149
              ],
              [
                -124.937,
                77.527
              ],
              [
                -126.007,
                77.082
              ],
              [
                -127.005,
                76.633
              ],
              [
                -128.143,
                76.066
              ],
              [
                -141.712,
                75.985
              ],
              [
                -154.755,
                76.008
              ],
              [
                -151.866,
                77.749
              ],
              [
                -151.316,
                77.995
              ],
              [
                -152.34,
                78.545
              ],
              [
                -153.907,
                78.984
              ],
              [
                -168.473,
                79.028
              ],
              [
                -169.472,
                79.025
              ],
              [
                -170.013,
                76.011
              ],
              [
                -180,
                75.982
              ],
              [
                -180,
                90
              ],
              [
                180,
                90
              ],
              [
                180,
                75.982
              ]
            ]
          ]
        ]
      }
    }
  ]
}
