{
  "type": "FeatureCollection",
  "features": [
    {
      "type": "Feature",
      "properties": {
        "paper_id": "Allain-2021",
        "geometry_basis": "explicit published study rectangle; includes land; not an author-supplied habitat polygon"
      },
      "geometry": {
        "type": "MultiPolygon",
        "coordinates": [
          [
            [
              [
                -180.0,
                -20.0
              ],
              [
                -180.0,
                20.0
              ],
              [
                -150.0,
                20.0
              ],
              [
                -150.0,
                -20.0
              ],
              [
                -180.0,
                -20.0
              ]
            ]
          ],
          [
            [
              [
                140.0,
                -20.0
              ],
              [
                140.0,
                20.0
              ],
              [
                180.0,
                20.0
              ],
              [
                180.0,
                -20.0
              ],
              [
                140.0,
                -20.0
              ]
            ]
          ]
        ]
      }
    }
  ]
}
