{"type": "Feature", "properties": {"method": "approximate source Figure1 shading outline"}, "geometry": {"type": "Polygon", "coordinates": [[[-80.99767981438515, -3.990719257540603], [-81.25290023201856, -4.385150812064965], [-81.29930394431554, -4.756380510440835], [-81.16009280742459, -5.174013921113689], [-80.88167053364269, -5.591647331786543], [-81.09048723897912, -5.893271461716937], [-80.92807424593967, -6.2645011600928076], [-80.48723897911833, -6.519721577726218], [-80.04640371229698, -6.7981438515081205], [-79.65197215777262, -7.262180974477958], [-79.37354988399072, -7.842227378190255], [-78.93271461716937, -8.352668213457076], [-78.65429234338747, -8.909512761020881], [-78.32946635730859, -9.582366589327146], [-78.09744779582367, -10.208816705336426], [-77.84222737819026, -10.719257540603248], [-77.49419953596288, -11.160092807424594], [-77.1461716937355, -11.554524361948955], [-76.98375870069606, -12.157772621809745], [-76.61252900232019, -12.714617169373549], [-76.21809744779583, -13.294663573085847], [-76.21809744779583, -13.805104408352667], [-76.33410672853829, -14.129930394431554], [-76.03248259860788, -14.5707656612529], [-75.59164733178655, -14.94199535962877], [-75.05800464037122, -15.290023201856147], [-74.33874709976799, -15.80046403712297], [-75.77726218097447, -15.893271461716937], [-76.31090487238978, -15.614849187935034], [-76.77494199535963, -15.174013921113689], [-77.1461716937355, -14.68677494199536], [-77.47099767981439, -14.129930394431554], [-77.77262180974478, -13.596287703016241], [-78.05104408352668, -13.039443155452435], [-78.44547563805105, -12.436194895591647], [-78.81670533642692, -11.832946635730858], [-79.16473317865429, -11.206496519721577], [-79.4431554524362, -10.556844547563804], [-79.74477958236659, -9.930394431554523], [-80.06960556844548, -9.303944315545243], [-80.39443155452436, -8.677494199535962], [-80.62645011600928, -8.120649651972158], [-80.90487238979118, -7.5638051044083525], [-81.4385150812065, -7.192575406032482], [-81.76334106728538, -6.937354988399072], [-81.9953596287703, -6.612529002320185], [-82.11136890951276, -6.194895591647332], [-82.13457076566125, -5.800464037122969], [-82.13457076566125, -5.336426914153132], [-82.2737819025522, -4.965197215777262], [-82.2737819025522, -4.547563805104408], [-82.2737819025522, -3.990719257540603], [-80.99767981438515, -3.990719257540603]]]}}