{"type": "Feature", "properties": {"approximate": true}, "geometry": {"type": "Polygon", "coordinates": [[[-17.669410465716943, 20.75871977349984], [-17.04922942591879, 20.769377213339823], [-16.95248762233756, 21.32970696531845], [-15.666746442268224, 21.351801657669633], [-15.580757168730264, 16.098917034520348], [-16.48329705591619, 16.08340742694834], [-16.9119562662053, 16.08085727250725], [-16.842785259146336, 16.168735688607704], [-16.80504923972604, 16.328315374733556], [-16.796698967695114, 16.43441301264293], [-16.742417876662497, 16.507587262158406], [-16.799142292607744, 16.583670045931314], [-16.780156057498598, 16.65623777448029], [-16.766684846260226, 16.75760731523272], [-16.692156449195817, 16.82631340514832], [-16.79370824708544, 16.867913175184892], [-16.749984302198378, 16.96980259105147], [-16.771729129950813, 17.065750867828093], [-16.669312507217676, 17.279419123136922], [-16.59691216733523, 17.478123274303698], [-16.554291659505484, 17.64741909230051], [-16.546177838272556, 17.767960959237797], [-16.52309528408061, 17.898392249750756], [-16.484492278401, 18.00500976277428], [-16.38491090382801, 18.083778567970274], [-16.505685387624776, 18.067254838485784], [-16.522939811631087, 18.196992962179884], [-16.575961993156863, 18.3550130229633], [-16.551933635772933, 18.427667397364626], [-16.614803611050277, 18.57106993741542], [-16.62189497357436, 18.696166609804934], [-16.61514990936096, 18.70617861030673], [-16.693430488613288, 18.75273048398356], [-16.740780012402958, 18.872319246544908], [-16.75787680254394, 18.992427884220405], [-16.794826814053387, 19.09293096644926], [-16.766071602125336, 19.184930958740157], [-16.787737612945108, 19.27606449250748], [-16.920330313810076, 19.365291817522934], [-16.997617303517774, 19.465101732932926], [-17.04977249878423, 19.57015962061401], [-17.09696438870857, 19.680118897156756], [-17.164009500001377, 19.77047261825286], [-17.285887420855456, 19.82135529089861], [-17.468822527535576, 19.904901414381186], [-17.570926043953857, 19.980204385482878], [-17.633007849904544, 20.07545949544064], [-17.649789372314864, 20.176309161078926], [-17.601180939018352, 20.287914708816462], [-17.68374650179883, 20.402082207402007], [-17.687214446836105, 20.61393089981133], [-17.669410465716943, 20.75871977349984]]]}}