{"type": "Feature", "properties": {"title": "Canary Current", "long_title": null, "region_id": 27, "region": "lme", "geometry_repaired": true}, "geometry": {"type": "MultiPolygon", "coordinates": [[[[-15.443607288955002, 12.818776868724433], [-15.39, 12.832], [-15.4, 12.794], [-15.443607288955002, 12.818776868724433]]], [[[-15.443607288955002, 12.818776868724433], [-15.445728314238957, 12.818253682487725], [-15.444, 12.819], [-15.443607288955002, 12.818776868724433]]], [[[-16.421981017463935, 13.256901290812454], [-16.379, 13.216], [-16.412, 13.205], [-16.421981017463935, 13.256901290812454]]], [[[-16.42211593396401, 13.257029679094787], [-16.422, 13.257], [-16.421981017463935, 13.256901290812454], [-16.42211593396401, 13.257029679094787]]], [[[-5.769, 35.784], [-5.889, 35.799], [-5.932, 35.777], [-6.026, 35.486], [-6.315, 34.835], [-6.546, 34.43], [-6.85, 34.01], [-7.031, 33.872], [-7.356, 33.719], [-7.4, 33.725], [-7.536, 33.627], [-7.661, 33.613], [-7.911, 33.493], [-8.295, 33.38], [-8.447, 33.259], [-8.519, 33.27], [-8.752, 32.992], [-9.276, 32.558], [-9.246, 32.464], [-9.295, 32.371], [-9.261, 32.316], [-9.281, 32.176], [-9.36, 32.029], [-9.682, 31.704], [-9.689, 31.627], [-9.845, 31.4], [-9.802, 31.325], [-9.844, 31.115], [-9.812, 30.82], [-9.888, 30.633], [-9.794, 30.612], [-9.708, 30.547], [-9.655, 30.436], [-9.612, 30.413], [-9.64, 30.168], [-9.794, 29.865], [-10.064, 29.584], [-10.228, 29.317], [-10.346, 29.231], [-10.562, 28.995], [-11.081, 28.739], [-11.514, 28.302], [-12.066, 28.083], [-12.958, 27.929], [-13.034, 27.763], [-13.166, 27.69], [-13.251, 27.438], [-13.407, 27.177], [-13.479, 26.906], [-13.574, 26.732], [-14.016, 26.451], [-14.182, 26.425], [-14.302, 26.293], [-14.424, 26.246], [-14.486, 26.156], [-14.517, 25.93], [-14.63, 25.771], [-14.714, 25.521], [-14.793, 25.426], [-14.847, 25.208], [-14.835, 24.915], [-14.901, 24.688], [-14.987, 24.636], [-15.031, 24.542], [-15.18, 24.488], [-15.296, 24.334], [-15.614, 24.028], [-15.754, 23.963], [-15.912, 23.822], [-16.002, 23.644], [-15.943, 23.682], [-15.87, 23.829], [-15.79, 23.858], [-15.777, 23.909], [-15.767, 23.782], [-15.926, 23.577], [-16.136, 23.179], [-16.216, 23.084], [-16.152, 23.069], [-16.159, 23.001], [-16.201, 22.932], [-16.304, 22.876], [-16.362, 22.564], [-16.429, 22.516], [-16.504, 22.319], [-16.628, 22.274], [-16.669, 22.296], [-16.719, 22.261], [-16.915, 21.948], [-16.959, 21.822], [-16.944, 21.74], [-17.105, 20.848], [-17.047, 20.765], [-17.024, 20.857], [-17.049, 20.896], [-17.008, 20.92], [-16.996, 20.975], [-17.015, 21.044], [-16.92, 21.162], [-16.702, 20.751], [-16.665, 20.732], [-16.678, 20.678], [-16.543, 20.561], [-16.526, 20.737], [-16.493, 20.725], [-16.481, 20.669], [-16.41, 20.671], [-16.465, 20.647], [-16.431, 20.644], [-16.396, 20.582], [-16.308, 20.342], [-16.197, 20.229], [-16.26, 20.127], [-16.215, 20.059], [-16.217, 20.001], [-16.319, 19.888], [-16.299, 19.868], [-16.286, 19.903], [-16.247, 19.898], [-16.234, 19.791], [-16.427, 19.536], [-16.468, 19.411], [-16.441, 19.409], [-16.431, 19.475], [-16.369, 19.534], [-16.348, 19.541], [-16.389, 19.465], [-16.321, 19.534], [-16.29, 19.545], [-16.288, 19.52], [-16.383, 19.392], [-16.536, 19.383], [-16.463, 19.255], [-16.351, 19.206], [-16.281, 19.128], [-16.179, 18.913], [-16.138, 18.654], [-16.056, 18.423], [-16.039, 17.728], [-16.133, 17.362], [-16.466, 16.62], [-16.473, 16.482], [-16.537, 16.302], [-16.546, 15.757], [-16.878, 15.225], [-17.129, 14.931], [-17.383, 14.797], [-17.537, 14.756], [-17.443, 14.654], [-17.437, 14.716], [-17.384, 14.742], [-17.176, 14.654], [-17.065, 14.455], [-16.948, 14.376], [-16.945, 14.296], [-16.895, 14.254], [-16.873, 14.17], [-16.82, 14.139], [-16.776, 14.012], [-16.776, 13.836], [-16.771, 13.958], [-16.712, 14.038], [-16.724, 14.065], [-16.654, 14.093], [-16.721, 14.017], [-16.631, 14.005], [-16.512, 14.154], [-16.464, 14.146], [-16.452, 14.201], [-16.453, 14.174], [-16.363, 14.166], [-16.496, 14.123], [-16.587, 14.039], [-16.543, 14.035], [-16.574, 13.987], [-16.61, 13.996], [-16.633, 13.956], [-16.69, 13.994], [-16.747, 13.952], [-16.746, 13.848], [-16.697, 13.769], [-16.649, 13.836], [-16.546, 13.864], [-16.486, 13.999], [-16.513, 13.879], [-16.491, 13.794], [-16.523, 13.85], [-16.573, 13.833], [-16.645, 13.708], [-16.604, 13.646], [-16.542, 13.684], [-16.525, 13.743], [-16.503, 13.731], [-16.512, 13.678], [-16.584, 13.623], [-16.548, 13.536], [-16.562, 13.489], [-16.502, 13.416], [-16.521, 13.355], [-16.321, 13.336], [-16.289, 13.406], [-16.273, 13.358], [-16.149, 13.453], [-16.091, 13.431], [-15.777, 13.459], [-15.672, 13.503], [-15.614, 13.482], [-15.557, 13.53], [-15.362, 13.451], [-15.296, 13.492], [-15.328, 13.439], [-15.551, 13.508], [-15.62, 13.45], [-15.667, 13.471], [-16.045, 13.406], [-16.162, 13.425], [-16.225, 13.329], [-16.207, 13.265], [-16.165, 13.266], [-16.222, 13.251], [-16.254, 13.32], [-16.375, 13.257], [-16.441, 13.275], [-16.42211593396401, 13.257029679094787], [-16.547, 13.289], [-16.587, 13.328], [-16.622, 13.426], [-16.584, 13.435], [-16.6, 13.469], [-16.687, 13.489], [-16.819, 13.369], [-16.786, 13.075], [-16.753, 13.071], [-16.748, 13.026], [-16.759, 12.89], [-16.8, 12.814], [-16.769, 12.783], [-16.794, 12.712], [-16.739, 12.747], [-16.695, 12.729], [-16.779, 12.684], [-16.767, 12.568], [-16.645, 12.634], [-16.65, 12.719], [-16.598, 12.792], [-16.63, 12.659], [-16.571, 12.688], [-16.509, 12.625], [-16.499, 12.702], [-16.467, 12.667], [-16.489, 12.627], [-16.376, 12.564], [-16.319, 12.611], [-16.074, 12.633], [-16.024, 12.728], [-15.914, 12.595], [-15.696, 12.614], [-15.65, 12.556], [-15.541, 12.647], [-15.565, 12.737], [-15.54, 12.795], [-15.445728314238957, 12.818253682487725], [-15.532, 12.781], [-15.543, 12.719], [-15.508, 12.635], [-15.627, 12.531], [-15.733, 12.587], [-15.832, 12.551], [-16.015, 12.631], [-16.193, 12.576], [-16.217, 12.602], [-16.306, 12.596], [-16.374, 12.544], [-16.509, 12.596], [-16.531, 12.551], [-16.587, 12.633], [-16.679, 12.544], [-16.735, 12.549], [-16.799, 12.489], [-16.797, 12.43], [-16.725, 12.326], [-16.676, 12.336], [-16.564, 12.273], [-16.458, 12.172], [-16.338, 12.202], [-16.316, 12.277], [-16.313, 12.21], [-16.217, 12.289], [-16.065, 12.348], [-16.26, 12.222], [-16.265, 12.17], [-16.306, 12.179], [-16.361, 12.096], [-16.334, 11.997], [-16.284, 11.984], [-16.245, 11.926], [-16.122, 11.881], [-16.056, 11.917], [-15.98, 11.913], [-15.94, 11.951], [-15.955, 11.989], [-15.931, 11.976], [-15.864, 12.029], [-15.758, 11.991], [-15.706, 12.01], [-15.72, 11.972], [-15.794, 12.002], [-15.846, 11.982], [-15.93, 11.877], [-15.964, 11.755], [-17.538, 11.664], [-19.87, 11.943], [-20.239, 12.924], [-20.201, 14.497], [-20.261, 15.168], [-20.36, 15.556], [-20.229, 17.128], [-20.309, 17.686], [-20.543, 18.177], [-20.62, 18.941], [-20.58, 19.544], [-20.383, 20.398], [-20.012, 21.108], [-19.713, 22.951], [-19.118, 24.331], [-18.517, 26.078], [-18.177, 26.645], [-17.375, 28.291], [-16.918, 28.941], [-16.349, 29.569], [-14.439, 30.975], [-13.765, 31.585], [-13.266, 32.149], [-12.403, 33.398], [-11.86, 34.581], [-11.626, 34.878], [-11.032, 35.175], [-9.752, 35.73], [-9.034, 35.952], [-6.772, 36.058], [-6.055, 36.199], [-5.911, 36.179], [-5.797, 36.074], [-5.694, 36.062], [-5.612, 36.0], [-5.477, 36.05], [-5.475, 35.904], [-5.541, 35.844], [-5.706, 35.828], [-5.769, 35.784]], [[-13.836, 28.919], [-13.877, 28.887], [-13.864, 28.854], [-13.773, 28.838], [-13.725, 28.907], [-13.61, 28.926], [-13.481, 28.997], [-13.422, 29.208], [-13.476, 29.242], [-13.525, 29.146], [-13.551, 29.12], [-13.649, 29.126], [-13.794, 29.051], [-13.836, 28.919]], [[-14.213, 28.224], [-14.309, 28.143], [-14.417, 28.096], [-14.494, 28.1], [-14.507, 28.064], [-14.333, 28.044], [-14.201, 28.169], [-13.93, 28.241], [-13.844, 28.402], [-13.856, 28.479], [-13.82, 28.577], [-13.832, 28.704], [-13.888, 28.756], [-14.005, 28.711], [-14.029, 28.587], [-14.146, 28.426], [-14.213, 28.224]], [[-15.711, 28.07], [-15.815, 28.005], [-15.822, 27.913], [-15.785, 27.837], [-15.677, 27.753], [-15.573, 27.732], [-15.441, 27.79], [-15.368, 27.864], [-15.388, 27.899], [-15.36, 27.934], [-15.366, 28.01], [-15.408, 28.055], [-15.412, 28.179], [-15.466, 28.127], [-15.705, 28.166], [-15.711, 28.07]], [[-16.227, 28.468], [-16.119, 28.516], [-16.124, 28.581], [-16.314, 28.567], [-16.403, 28.519], [-16.491, 28.417], [-16.564, 28.392], [-16.909, 28.348], [-16.692, 27.997], [-16.652, 27.995], [-16.527, 28.023], [-16.42, 28.136], [-16.348, 28.363], [-16.227, 28.468]], [[-17.317, 28.172], [-17.331, 28.091], [-17.231, 28.01], [-17.155, 28.025], [-17.089, 28.112], [-17.259, 28.206], [-17.317, 28.172]], [[-16.362, 19.731], [-16.34, 19.864], [-16.362, 19.836], [-16.414, 19.811], [-16.46, 19.7], [-16.433, 19.601], [-16.362, 19.731]], [[-16.028, 11.759], [-15.978, 11.906], [-16.061, 11.881], [-16.162, 11.869], [-16.158, 11.807], [-16.085, 11.754], [-16.028, 11.759]]]]}}