{"type": "Feature", "properties": {"geometry_method": "target polygon used as intended model envelope", "geometry_confidence": "medium"}, "geometry": {"type": "MultiPolygon", "coordinates": [[[[10.885, 53.922], [10.774, 53.891], [10.903667349027636, 53.95184390992835], [10.902, 53.926], [10.967, 53.912], [10.945, 53.905], [10.885, 53.922]]], [[[10.904, 53.952], [10.903667349027636, 53.95184390992835], [10.903700815956482, 53.95236264732547], [10.904, 53.952]]], [[[11.869, 54.726], [11.913, 54.716], [11.872, 54.651], [11.964, 54.562], [11.97, 54.699], [12.169, 54.839], [11.964, 54.942], [11.894, 54.924], [11.896, 54.991], [12.041, 54.966], [12.167, 54.996], [12.121, 55.078], [12.179, 55.12], [12.102174603174602, 55.13920634920635], [12.168, 55.217], [12.334, 55.235], [12.462, 55.286], [12.431, 55.362], [12.224, 55.428], [12.191, 55.479], [12.253, 55.553], [12.381, 55.61], [12.496, 55.604], [12.6, 55.704], [12.599, 55.793], [12.516, 55.919], [12.613, 56.045], [12.686, 56.054], [12.841, 55.857], [12.928, 55.823], [12.939, 55.774], [12.91, 55.752], [13.063, 55.682], [13.041, 55.627], [12.915, 55.566], [12.987, 55.445], [12.936, 55.416], [12.864, 55.437], [12.83, 55.379], [12.982, 55.401], [13.376, 55.34], [13.731, 55.426], [13.912, 55.434], [14.059, 55.386], [14.209, 55.394], [14.373, 55.538], [14.278, 55.624], [14.274, 55.67], [14.196, 55.716], [14.217, 55.83], [14.475, 56.035], [14.604, 56.052], [14.611, 56.002], [14.72, 56.0], [14.767, 56.03], [14.682, 56.116], [14.697, 56.161], [14.839, 56.137], [14.855, 56.164], [15.047, 56.151], [15.037, 56.178], [15.072, 56.182], [15.114, 56.152], [15.226, 56.151], [15.298, 56.183], [15.323, 56.153], [15.302, 56.136], [15.36, 56.134], [15.404, 56.177], [15.481, 56.146], [15.591, 56.204], [15.587, 56.16], [15.645, 56.189], [15.764, 56.148], [15.82, 56.161], [15.786, 56.106], [15.853, 56.076], [16.008, 56.218], [16.091, 56.418], [16.215, 56.544], [16.216, 56.607], [16.272, 56.657], [16.38, 56.664], [16.356, 56.758], [16.475, 56.774], [16.408, 56.796], [16.471, 56.944], [16.438, 56.972], [16.44, 57.017], [16.472, 57.019], [16.442, 57.045], [16.585, 57.044], [16.546, 57.117], [16.46, 57.167], [16.466, 57.227], [16.494, 57.24], [16.467, 57.277], [16.56, 57.315], [16.542, 57.377], [16.631, 57.377], [16.628, 57.401], [16.671, 57.411], [16.632, 57.442], [16.693, 57.469], [16.632, 57.552], [16.513, 57.569], [16.544, 57.571], [16.522, 57.623], [16.567, 57.588], [16.629, 57.626], [16.585, 57.655], [16.626, 57.669], [16.574, 57.703], [16.65, 57.682], [16.71, 57.705], [16.419, 57.893], [16.692, 57.739], [16.459, 57.897], [16.576, 57.894], [16.589, 57.932], [16.496, 57.986], [16.645, 57.92], [16.603, 57.923], [16.614, 57.892], [16.659, 57.883], [16.692, 57.917], [16.742, 57.873], [16.77, 57.89], [16.724, 57.926], [16.78, 57.914], [16.733, 57.971], [16.614, 57.987], [16.661, 57.989], [16.63, 58.013], [16.652, 58.045], [16.681, 57.999], [16.751, 58.019], [16.683, 58.052], [16.743, 58.086], [16.618, 58.193], [16.753, 58.126], [16.802, 58.139], [16.813, 58.229], [16.707, 58.272], [16.806, 58.318], [16.706, 58.293], [16.699, 58.324], [16.631, 58.348], [16.764, 58.338], [16.77, 58.367], [16.711, 58.356], [16.71, 58.404], [16.413, 58.475], [16.749, 58.424], [16.835, 58.445], [16.847, 58.478], [16.939, 58.484], [16.834, 58.524], [16.778, 58.576], [16.789, 58.603], [16.437, 58.641], [16.393, 58.591], [16.336, 58.64], [16.283, 58.613], [16.182, 58.629], [16.261, 58.634], [16.242, 58.665], [16.915, 58.617], [17.034, 58.637], [16.964, 58.677], [17.095, 58.651], [17.143, 58.695], [17.06, 58.703], [17.087, 58.734], [17.033, 58.751], [17.255, 58.725], [17.371, 58.746], [17.378, 58.776], [17.34, 58.804], [17.485, 58.793], [17.449, 58.816], [17.474, 58.867], [17.447, 58.892], [17.579, 58.846], [17.538, 58.896], [17.626, 58.902], [17.578, 58.951], [17.612, 58.963], [17.614, 59.088], [17.667, 59.124], [17.664, 59.168], [17.691, 59.133], [17.667, 59.083], [17.699, 59.054], [17.767, 59.119], [17.747, 58.917], [17.779, 58.915], [17.788, 58.876], [17.777, 58.962], [17.811, 58.921], [17.857, 58.921], [17.895, 58.859], [17.896, 58.91], [17.977, 58.931], [17.963, 58.966], [18.022, 59.015], [18.004, 59.038], [18.052, 59.033], [18.05, 59.057], [18.221, 59.117], [18.254, 59.095], [18.2, 59.075], [18.324, 59.107], [18.302, 59.131], [18.423, 59.139], [18.432, 59.171], [18.393, 59.165], [18.403, 59.183], [18.31, 59.226], [18.424, 59.203], [18.278, 59.26], [18.315, 59.279], [18.277, 59.311], [18.314, 59.332], [18.522, 59.296], [18.65, 59.319], [18.542, 59.362], [18.613, 59.368], [18.53, 59.417], [18.434, 59.434], [18.494, 59.395], [18.45, 59.394], [18.467, 59.33], [18.349, 59.373], [18.272, 59.364], [18.221, 59.316], [17.984, 59.334], [17.89, 59.285], [17.882, 59.223], [17.859, 59.262], [17.74, 59.269], [17.782, 59.246], [17.726, 59.237], [17.701, 59.272], [17.625, 59.287], [17.58, 59.278], [17.595, 59.223], [17.557, 59.268], [17.362, 59.325], [17.398, 59.248], [17.213, 59.257], [17.28, 59.274], [17.246, 59.318], [17.316, 59.345], [17.174, 59.373], [17.04, 59.359], [16.84, 59.489], [16.693, 59.471], [16.89, 59.383], [16.813, 59.387], [16.67, 59.473], [16.181, 59.439], [16.073, 59.454], [16.02, 59.495], [16.178, 59.465], [16.264, 59.498], [16.333, 59.457], [16.327, 59.483], [16.389, 59.511], [16.489, 59.502], [16.448, 59.522], [16.538, 59.539], [16.496, 59.592], [16.542, 59.609], [16.733, 59.524], [16.801, 59.591], [17.062, 59.539], [17.011, 59.589], [17.06, 59.604], [17.117, 59.548], [17.211, 59.546], [17.348, 59.467], [17.355, 59.499], [17.41, 59.469], [17.407, 59.549], [17.334, 59.622], [17.384, 59.655], [17.373, 59.609], [17.439, 59.56], [17.542, 59.557], [17.518, 59.512], [17.544, 59.492], [17.658, 59.493], [17.731, 59.443], [17.787, 59.536], [17.757, 59.584], [17.564, 59.657], [17.618, 59.731], [17.513, 59.706], [17.502, 59.646], [17.536, 59.572], [17.445, 59.676], [17.494, 59.735], [17.371, 59.747], [17.534, 59.747], [17.594, 59.807], [17.637, 59.743], [17.688, 59.731], [17.657, 59.723], [17.648, 59.666], [17.592, 59.656], [17.718, 59.62], [17.725, 59.698], [17.746, 59.62], [17.816, 59.59], [17.845, 59.533], [17.78, 59.486], [17.764, 59.401], [17.929, 59.336], [18.136, 59.333], [18.011, 59.406], [18.057, 59.391], [18.116, 59.453], [18.187, 59.457], [18.208, 59.421], [18.165, 59.408], [18.331, 59.392], [18.25, 59.444], [18.302, 59.451], [18.271, 59.475], [18.378, 59.467], [18.646, 59.581], [18.684, 59.605], [18.656, 59.634], [18.734, 59.632], [18.694, 59.645], [18.717, 59.671], [18.912, 59.749], [18.98, 59.717], [19.082, 59.76], [18.935, 59.784], [18.739, 59.759], [18.739, 59.78], [18.865, 59.798], [18.931, 59.857], [18.885, 59.928], [19.051, 59.823], [19.071, 59.89], [19.025, 59.878], [19.007, 59.913], [18.905, 59.94], [18.823, 60.059], [18.823, 60.114], [18.753, 60.093], [18.795, 60.006], [18.745, 60.047], [18.731, 60.123], [18.586, 60.142], [18.583, 60.068], [18.546, 60.181], [18.507, 60.153], [18.422, 60.187], [18.394, 60.229], [18.446, 60.216], [18.315, 60.313], [18.441, 60.243], [18.608, 60.237], [18.43, 60.282], [18.476, 60.291], [18.432, 60.344], [18.318, 60.357], [18.228, 60.33], [18.208, 60.352], [18.262, 60.379], [18.173, 60.39], [18.041, 60.491], [17.97, 60.509], [17.997, 60.549], [17.958, 60.594], [17.773, 60.571], [17.726, 60.535], [17.741, 60.494], [17.693, 60.496], [17.61, 60.551], [17.602, 60.581], [17.657, 60.602], [17.609, 60.632], [17.34, 60.616], [17.324, 60.632], [17.36, 60.65], [17.263, 60.695], [17.185, 60.693], [17.338, 60.768], [17.278, 60.776], [17.291, 60.807], [17.252, 60.823], [17.283, 60.84], [17.245, 60.891], [17.151, 60.945], [17.166, 60.994], [17.251, 61.017], [17.159, 61.015], [17.203, 61.099], [17.145, 61.11], [17.187, 61.127], [17.158, 61.147], [17.181, 61.19], [17.149, 61.209], [17.214, 61.23], [17.095, 61.314], [17.204, 61.279], [17.249, 61.286], [17.153, 61.324], [17.275, 61.318], [17.103, 61.397], [17.223, 61.442], [17.158, 61.447], [17.179, 61.488], [17.123, 61.517], [17.168, 61.517], [17.075, 61.553], [17.19, 61.554], [17.058, 61.577], [17.145, 61.594], [17.094, 61.612], [17.246, 61.607], [17.1, 61.634], [17.181, 61.633], [17.168, 61.65], [17.272, 61.683], [17.15, 61.721], [17.258, 61.719], [17.353, 61.671], [17.339, 61.712], [17.433, 61.631], [17.499, 61.636], [17.524, 61.702], [17.484, 61.731], [17.394, 61.716], [17.373, 61.796], [17.407, 61.816], [17.336, 61.818], [17.356, 61.847], [17.334, 61.863], [17.368, 61.882], [17.35, 61.945], [17.464, 62.006], [17.425, 62.029], [17.469, 62.042], [17.444, 62.067], [17.479, 62.084], [17.509, 62.229], [17.565, 62.231], [17.536, 62.206], [17.557, 62.196], [17.655, 62.231], [17.465, 62.266], [17.489, 62.283], [17.456, 62.32], [17.376, 62.324], [17.34, 62.398], [17.379, 62.427], [17.329, 62.487], [17.422, 62.537], [17.546, 62.446], [17.699, 62.434], [17.659, 62.473], [17.767, 62.503], [17.843, 62.487], [17.911, 62.544], [17.931, 62.611], [17.97, 62.552], [18.062, 62.594], [18.046, 62.624], [17.878, 62.66], [17.991, 62.653], [17.995, 62.731], [17.958, 62.786], [17.887, 62.812], [17.895, 62.855], [17.835, 62.933], [17.702, 62.996], [17.765, 62.973], [17.828, 62.993], [17.81, 62.976], [17.927, 62.902], [17.923, 62.82], [17.962, 62.802], [18.056, 62.854], [18.145, 62.817], [18.008, 62.798], [18.08, 62.77], [18.146, 62.769], [18.186, 62.812], [18.199, 62.776], [18.252, 62.802], [18.28, 62.841], [18.212, 62.824], [18.205, 62.866], [18.246, 62.881], [18.362, 62.834], [18.467, 62.858], [18.474, 62.879], [18.398, 62.904], [18.484, 62.893], [18.526, 62.923], [18.39, 62.946], [18.577, 62.966], [18.241, 62.996], [18.345, 63.034], [18.431, 63.011], [18.382, 63.052], [18.482, 63.018], [18.555, 63.069], [18.525, 63.072], [18.559, 63.114], [18.656, 63.114], [18.564, 63.173], [18.754, 63.155], [18.708, 63.225], [18.824, 63.212], [18.752, 63.202], [18.785, 63.162], [18.915, 63.207], [18.74, 63.242], [18.753, 63.258], [18.87, 63.244], [18.904, 63.273], [19.067, 63.179], [19.109, 63.214], [19.05, 63.218], [19.046, 63.244], [19.116, 63.233], [19.14, 63.31], [19.267, 63.327], [19.297, 63.464], [19.366, 63.435], [19.345, 63.486], [19.514, 63.408], [19.459, 63.466], [19.523, 63.485], [19.449, 63.506], [19.466, 63.529], [19.423, 63.546], [19.453, 63.559], [19.579, 63.519], [19.641, 63.443], [19.705, 63.432], [19.779, 63.462], [19.749, 63.517], [19.899, 63.609], [20.033, 63.602], [20.012, 63.636], [20.057, 63.659], [20.241, 63.646], [20.286, 63.729], [20.264, 63.666], [20.306, 63.649], [20.322, 63.749], [20.362, 63.723], [20.344, 63.692], [20.387, 63.674], [20.418, 63.698], [20.414, 63.764], [20.448, 63.758], [20.5, 63.823], [20.543, 63.769], [20.614, 63.816], [20.679, 63.789], [20.709, 63.815], [20.678, 63.84], [20.778, 63.869], [20.816, 63.943], [20.904, 63.982], [20.905, 64.049], [20.96, 64.096], [20.958, 64.139], [21.074, 64.223], [21.117, 64.216], [21.243, 64.31], [21.33, 64.314], [21.322, 64.361], [21.391, 64.335], [21.607, 64.442], [21.585, 64.478], [21.482, 64.449], [21.482, 64.51], [21.343, 64.534], [21.552, 64.529], [21.503, 64.536], [21.483, 64.582], [21.454, 64.558], [21.373, 64.605], [21.349, 64.567], [21.233, 64.627], [21.246, 64.654], [21.112, 64.691], [21.105, 64.723], [21.138, 64.727], [21.305, 64.662], [21.282, 64.684], [21.309, 64.695], [21.23, 64.743], [21.302, 64.766], [21.107, 64.778], [21.037, 64.836], [21.073, 64.856], [21.109, 64.82], [21.183, 64.83], [21.169, 64.853], [21.217, 64.867], [21.205, 64.892], [21.257, 64.923], [21.244, 64.948], [21.387, 64.959], [21.377, 64.981], [21.424, 65.009], [21.503, 65.02], [21.473, 65.057], [21.584, 65.063], [21.54, 65.08], [21.566, 65.115], [21.547, 65.136], [21.621, 65.142], [21.401, 65.322], [21.266, 65.341], [21.338, 65.37], [21.489, 65.309], [21.554, 65.235], [21.655, 65.244], [21.705, 65.287], [21.45, 65.354], [21.487, 65.364], [21.474, 65.387], [21.602, 65.389], [21.544, 65.402], [21.587, 65.416], [21.662, 65.391], [21.709, 65.416], [21.929, 65.398], [21.943, 65.45], [22.011, 65.424], [22.03, 65.462], [21.853, 65.53], [22.062, 65.511], [22.199, 65.545], [21.843, 65.658], [21.767, 65.722], [21.864, 65.667], [22.406, 65.535], [22.411, 65.573], [22.334, 65.6], [22.386, 65.629], [22.323, 65.659], [22.284, 65.665], [22.322, 65.63], [22.291, 65.607], [22.187, 65.622], [22.276, 65.625], [22.258, 65.691], [22.284, 65.7], [22.386, 65.671], [22.373, 65.712], [22.254, 65.723], [22.212, 65.758], [22.336, 65.737], [22.357, 65.758], [22.321, 65.798], [22.37, 65.8], [22.329, 65.83], [22.376, 65.861], [22.479, 65.851], [22.528, 65.811], [22.508, 65.774], [22.609, 65.797], [22.669, 65.755], [22.705, 65.808], [22.645, 65.906], [22.79, 65.856], [22.841, 65.801], [23.053, 65.757], [23.081, 65.699], [23.141, 65.715], [23.147, 65.749], [23.234, 65.764], [23.184, 65.791], [23.198, 65.827], [23.309, 65.789], [23.372, 65.816], [23.379, 65.775], [23.435, 65.761], [23.424, 65.8], [23.477, 65.835], [23.495, 65.807], [23.621, 65.79], [23.739, 65.824], [23.917, 65.758], [24.162, 65.816], [24.226, 65.772], [24.251, 65.782], [24.237, 65.816], [24.409, 65.766], [24.539, 65.795], [24.622, 65.886], [24.7, 65.909], [24.554, 65.776], [24.563, 65.723], [24.671, 65.687], [24.671, 65.633], [24.796, 65.658], [25.07, 65.611], [25.123, 65.558], [25.211, 65.556], [25.353, 65.477], [25.35, 65.404], [25.266, 65.377], [25.333, 65.336], [25.277, 65.258], [25.326, 65.221], [25.217, 65.158], [25.212, 65.119], [25.361, 65.088], [25.449, 64.961], [25.407, 64.945], [25.219, 64.989], [25.188, 64.966], [25.234, 64.928], [25.366, 64.902], [25.364, 64.832], [25.319, 64.818], [25.233, 64.818], [25.26, 64.825], [25.086, 64.913], [24.731, 64.854], [24.73, 64.831], [24.665, 64.821], [24.675, 64.785], [24.542, 64.802], [24.581, 64.772], [24.377, 64.629], [24.343, 64.524], [23.992, 64.381], [23.981, 64.33], [23.924, 64.285], [23.946, 64.246], [23.856, 64.261], [23.831, 64.224], [23.717, 64.204], [23.712, 64.163], [23.567, 64.099], [23.624, 64.047], [23.61, 64.024], [23.385, 64.049], [23.369, 63.944], [23.412, 63.915], [23.066, 63.851], [22.991, 63.809], [23.004, 63.757], [22.903, 63.797], [22.926, 63.744], [22.833, 63.722], [22.9, 63.699], [22.781, 63.626], [22.734, 63.622], [22.681, 63.698], [22.633, 63.679], [22.587, 63.706], [22.588, 63.657], [22.526, 63.654], [22.5, 63.617], [22.547, 63.574], [22.494, 63.582], [22.434, 63.468], [22.396, 63.452], [22.329, 63.522], [22.267, 63.507], [22.401, 63.416], [22.188, 63.463], [22.203, 63.417], [22.354, 63.345], [22.371, 63.316], [22.337, 63.274], [22.28, 63.295], [22.166, 63.222], [22.025, 63.237], [21.959, 63.179], [21.972, 63.139], [21.882, 63.175], [21.882, 63.257], [21.703, 63.223], [21.753, 63.198], [21.634, 63.193], [21.543, 63.232], [21.498, 63.21], [21.552, 63.173], [21.502, 63.16], [21.522, 63.121], [21.574, 63.12], [21.561, 63.084], [21.686, 63.025], [21.62, 63.019], [21.506, 63.067], [21.439, 63.042], [21.462, 62.949], [21.424, 62.941], [21.377, 62.864], [21.24, 62.869], [21.199, 62.794], [21.106, 62.769], [21.161, 62.722], [21.081, 62.672], [21.064, 62.596], [21.097, 62.619], [21.212, 62.586], [21.125, 62.548], [21.152, 62.52], [21.112, 62.452], [21.157, 62.456], [21.125, 62.406], [21.198, 62.418], [21.186, 62.343], [21.211, 62.328], [21.211, 62.368], [21.269, 62.406], [21.278, 62.336], [21.337, 62.349], [21.314, 62.232], [21.368, 62.265], [21.356, 62.228], [21.389, 62.209], [21.331, 62.169], [21.314, 62.106], [21.287, 62.123], [21.239, 61.981], [21.288, 61.98], [21.28, 61.948], [21.309, 61.933], [21.382, 61.931], [21.415, 61.895], [21.396, 61.879], [21.488, 61.803], [21.473, 61.751], [21.584, 61.697], [21.518, 61.708], [21.535, 61.653], [21.716, 61.521], [21.493, 61.574], [21.455, 61.553], [21.587, 61.477], [21.421, 61.48], [21.569, 61.413], [21.445, 61.402], [21.527, 61.374], [21.554, 61.309], [21.478, 61.248], [21.561, 61.199], [21.449, 61.171], [21.468, 61.147], [21.435, 61.139], [21.482, 61.054], [21.369, 61.059], [21.406, 61.031], [21.298, 61.047], [21.426, 60.901], [21.353, 60.902], [21.429, 60.869], [21.32, 60.863], [21.342, 60.842], [21.322, 60.823], [21.423, 60.759], [21.389, 60.746], [21.472, 60.728], [21.42, 60.719], [21.438, 60.676], [21.355, 60.684], [21.359, 60.654], [21.466, 60.606], [21.409, 60.579], [21.577, 60.562], [21.518, 60.565], [21.588, 60.512], [21.559, 60.485], [21.582, 60.481], [21.651, 60.499], [21.663, 60.572], [21.839, 60.624], [21.786, 60.477], [21.874, 60.473], [21.84, 60.524], [21.937, 60.521], [21.943, 60.485], [22.032, 60.442], [22.1, 60.46], [22.285, 60.371], [22.477, 60.4], [22.461, 60.373], [22.58, 60.364], [22.632, 60.392], [22.447, 60.244], [22.647, 60.278], [22.53, 60.201], [23.087, 60.347], [22.901, 60.213], [22.874, 60.146], [22.972, 60.092], [23.042, 60.121], [22.986, 60.063], [23.049, 60.036], [23.26, 60.036], [23.108, 59.968], [23.107, 59.922], [23.18, 59.945], [23.225, 59.926], [23.338, 60.02], [23.257, 59.919], [23.159, 59.917], [23.166, 59.886], [22.935, 59.841], [22.89, 59.806], [22.91, 59.805], [23.253, 59.839], [23.214, 59.884], [23.347, 59.928], [23.538, 60.07], [23.537, 60.025], [23.427, 59.954], [23.584, 59.975], [23.8, 59.952], [24.004, 60.037], [24.006, 60.005], [24.107, 60.034], [24.165, 60.015], [24.161, 60.043], [24.243, 60.03], [24.333, 60.072], [24.367, 60.063], [24.315, 59.994], [24.453, 60.051], [24.413, 59.991], [24.482, 59.991], [24.608, 60.09], [24.541, 60.087], [24.603, 60.122], [24.554, 60.154], [24.664, 60.097], [24.676, 60.125], [24.825, 60.162], [24.823, 60.191], [24.881, 60.169], [24.831, 60.143], [24.959, 60.137], [24.975, 60.194], [25.016, 60.204], [25.001, 60.152], [25.052, 60.146], [25.052, 60.18], [25.188, 60.182], [25.165, 60.2], [25.201, 60.208], [25.149, 60.224], [25.289, 60.238], [25.312, 60.269], [25.501, 60.241], [25.548, 60.295], [25.527, 60.324], [25.662, 60.362], [25.705, 60.339], [25.648, 60.336], [25.683, 60.323], [25.65, 60.296], [25.721, 60.248], [25.78, 60.233], [25.846, 60.265], [25.746, 60.286], [25.743, 60.315], [25.92, 60.242], [25.876, 60.312], [25.918, 60.351], [25.838, 60.401], [25.95, 60.353], [26.003, 60.367], [26.042, 60.293], [26.112, 60.33], [26.004, 60.387], [26.047, 60.416], [25.916, 60.482], [26.146, 60.394], [26.27, 60.398], [26.232, 60.43], [26.248, 60.449], [26.346, 60.373], [26.479, 60.431], [26.462, 60.507], [26.607, 60.637], [26.659, 60.647], [26.754, 60.572], [26.668, 60.607], [26.595, 60.598], [26.546, 60.52], [26.474, 60.479], [26.497, 60.447], [26.569, 60.424], [26.576, 60.45], [26.647, 60.449], [26.7, 60.414], [26.795, 60.484], [26.809, 60.451], [26.907, 60.477], [26.96, 60.442], [26.937, 60.483], [26.997, 60.482], [27.031, 60.539], [27.196, 60.517], [27.178, 60.561], [27.215, 60.586], [27.214, 60.555], [27.308, 60.524], [27.237, 60.532], [27.235, 60.506], [27.506, 60.455], [27.477, 60.506], [27.626, 60.467], [27.607, 60.506], [27.683, 60.517], [27.636, 60.495], [27.719, 60.481], [27.752, 60.501], [27.735, 60.552], [27.763, 60.575], [27.808, 60.523], [27.86, 60.565], [27.893, 60.522], [28.216, 60.537], [28.282, 60.597], [28.341, 60.594], [28.324, 60.618], [28.381, 60.621], [28.404, 60.664], [28.581, 60.683], [28.672, 60.738], [28.734, 60.713], [28.726, 60.667], [28.646, 60.675], [28.683, 60.614], [28.574, 60.641], [28.553, 60.604], [28.595, 60.571], [28.663, 60.582], [28.702, 60.455], [28.582, 60.49], [28.499, 60.559], [28.441, 60.559], [28.602, 60.384], [28.782, 60.334], [28.81, 60.365], [28.842, 60.309], [29.032, 60.184], [29.41, 60.159], [29.547, 60.197], [29.722, 60.192], [29.884, 60.143], [29.948, 60.025], [30.246, 59.975], [30.208, 59.95], [30.214, 59.89], [30.156, 59.864], [29.187, 60.007], [28.982, 59.927], [29.039, 59.902], [29.024, 59.864], [28.839, 59.785], [28.718, 59.782], [28.491, 59.853], [28.432, 59.818], [28.416, 59.695], [28.374, 59.661], [28.223, 59.686], [28.187, 59.758], [28.08, 59.796], [28.009, 59.759], [27.992, 59.694], [28.06, 59.61], [28.063, 59.537], [27.993, 59.451], [27.895, 59.409], [27.427, 59.448], [26.965, 59.445], [26.651, 59.553], [26.48, 59.534], [26.263, 59.586], [26.096, 59.582], [25.98, 59.633], [25.964, 59.59], [25.886, 59.626], [25.817, 59.572], [25.775, 59.636], [25.694, 59.668], [25.669, 59.654], [25.715, 59.579], [25.656, 59.563], [25.493, 59.664], [25.469, 59.648], [25.487, 59.569], [25.546, 59.534], [25.417, 59.527], [25.392, 59.486], [25.122, 59.533], [25.107, 59.495], [24.909, 59.507], [24.79, 59.567], [24.779, 59.52], [24.817, 59.489], [24.774, 59.444], [24.676, 59.492], [24.622, 59.468], [24.665, 59.446], [24.638, 59.434], [24.351, 59.471], [24.293, 59.411], [24.16, 59.407], [24.223, 59.367], [24.212, 59.345], [24.029, 59.385], [24.024, 59.356], [24.1, 59.304], [24.08, 59.272], [23.831, 59.29], [23.729, 59.277], [23.727, 59.23], [23.636, 59.256], [23.471, 59.212], [23.523, 59.073], [23.482, 59.089], [23.407, 59.019], [23.553, 58.966], [23.566, 59.002], [23.612, 59.01], [23.56, 59.047], [23.623, 59.016], [23.638, 58.971], [23.431, 58.939], [23.42, 58.904], [23.53, 58.816], [23.47, 58.808], [23.429, 58.763], [23.791, 58.801], [23.875, 58.769], [23.786, 58.78], [23.789, 58.722], [23.539, 58.746], [23.549, 58.704], [23.496, 58.694], [23.52, 58.607], [23.5, 58.559], [23.565, 58.58], [23.617, 58.526], [23.672, 58.537], [23.673, 58.44], [23.736, 58.34], [23.826, 58.355], [23.973, 58.316], [24.111, 58.232], [24.147, 58.27], [24.246, 58.277], [24.336, 58.389], [24.459, 58.378], [24.556, 58.327], [24.555, 58.297], [24.469, 58.239], [24.458, 58.061], [24.363, 57.969], [24.287, 57.825], [24.297, 57.745], [24.376, 57.621], [24.358, 57.541], [24.411, 57.346], [24.401, 57.246], [24.217, 57.123], [23.955, 57.011], [23.66, 56.965], [23.259, 57.098], [23.137, 57.363], [22.637, 57.589], [22.584, 57.676], [22.61, 57.756], [22.001, 57.597], [21.725, 57.572], [21.421, 57.289], [21.392, 57.022], [21.261, 56.923], [21.054, 56.836], [21.056, 56.687], [20.992, 56.547], [21.06, 56.507], [21.082, 56.402], [21.035, 56.402], [21.032, 56.505], [20.996, 56.508], [20.972, 56.251], [21.061, 56.05], [21.058, 55.782], [21.145, 55.676], [21.247, 55.463], [21.183, 55.341], [21.252, 55.368], [21.29, 55.287], [21.263, 55.202], [21.179, 55.194], [21.242, 54.944], [20.984, 54.892], [20.785, 54.942], [20.566, 54.938], [20.528, 54.971], [20.838, 55.145], [21.044, 55.326], [21.104, 55.417], [21.086, 55.439], [21.134, 55.561], [21.128, 55.678], [21.09, 55.72], [21.092, 55.531], [21.039, 55.401], [20.817, 55.172], [20.605, 55.024], [20.418, 54.946], [19.969, 54.958], [19.92, 54.876], [19.959, 54.764], [19.873, 54.641], [19.961, 54.634], [19.955, 54.699], [20.004, 54.72], [20.08, 54.651], [20.186, 54.697], [20.405, 54.679], [20.064, 54.551], [19.991, 54.572], [19.939, 54.496], [19.744, 54.427], [19.714, 54.383], [19.472, 54.311], [19.373, 54.227], [19.387, 54.275], [19.251, 54.279], [19.261, 54.308], [19.227, 54.332], [19.539, 54.401], [19.732, 54.492], [19.899, 54.627], [19.87, 54.639], [19.705, 54.502], [19.51, 54.404], [19.139, 54.347], [18.885, 54.346], [18.583, 54.435], [18.52, 54.64], [18.475, 54.632], [18.476, 54.698], [18.405, 54.743], [18.437, 54.787], [18.626, 54.722], [18.827, 54.594], [18.832, 54.628], [18.74, 54.685], [18.335, 54.837], [17.919, 54.827], [17.255, 54.731], [16.915, 54.598], [16.544, 54.545], [16.283, 54.359], [16.324, 54.376], [16.328, 54.345], [16.231, 54.319], [16.274, 54.352], [16.14, 54.287], [16.213, 54.3], [16.218, 54.274], [16.175, 54.259], [16.072, 54.257], [16.129, 54.283], [15.311, 54.149], [14.745, 54.029], [14.383, 53.913], [14.214, 53.932], [14.006, 54.064], [13.886, 54.094], [13.813, 54.169], [13.759, 54.16], [13.817, 54.101], [13.778, 54.019], [13.864, 54.048], [13.861, 53.999], [13.925, 54.033], [13.92, 54.063], [13.967, 54.061], [14.057, 53.987], [14.046, 53.94], [13.982, 53.963], [13.957, 53.939], [13.967, 53.986], [13.903, 53.988], [13.939, 53.91], [13.827, 53.851], [14.191, 53.875], [14.342, 53.805], [14.329, 53.825], [14.413, 53.846], [14.363, 53.878], [14.431, 53.9], [14.432, 53.865], [14.577, 53.85], [14.588, 53.803], [14.629, 53.849], [14.619, 53.764], [14.566, 53.757], [14.541, 53.702], [14.624, 53.648], [14.596, 53.592], [14.525, 53.661], [14.414, 53.679], [14.336, 53.732], [14.286, 53.74], [14.307, 53.701], [14.224, 53.701], [14.266, 53.748], [14.092, 53.741], [13.813, 53.845], [13.914, 53.923], [13.751, 54.029], [13.807, 54.103], [13.702, 54.149], [13.712, 54.171], [13.481, 54.12], [13.504, 54.087], [13.456, 54.096], [13.386, 54.149], [13.399, 54.17], [13.323, 54.163], [13.345, 54.179], [13.282, 54.237], [13.118, 54.275], [13.074, 54.339], [13.092, 54.369], [13.027, 54.395], [13.025, 54.437], [12.816, 54.346], [12.786, 54.391], [12.683, 54.373], [12.712, 54.409], [12.601, 54.363], [12.561, 54.376], [12.421, 54.285], [12.456, 54.251], [12.37, 54.265], [12.392, 54.344], [12.466, 54.396], [12.526, 54.371], [12.623, 54.421], [12.924, 54.427], [12.616, 54.448], [12.533, 54.483], [12.344, 54.298], [12.1, 54.182], [12.14, 54.172], [12.098, 54.145], [12.116, 54.095], [12.087, 54.112], [12.087, 54.188], [11.833, 54.145], [11.7, 54.156], [11.62, 54.106], [11.629, 54.081], [11.58, 54.036], [11.517, 54.032], [11.454, 53.901], [11.338, 53.957], [11.252, 53.937], [11.246, 53.978], [11.177, 54.016], [10.904, 53.957], [10.903700815956482, 53.95236264732547], [10.871, 53.992], [10.784, 54.001], [10.766, 54.061], [11.093, 54.197], [11.065, 54.35], [11.132, 54.388], [10.956, 54.383], [10.979, 54.381], [10.788, 54.31], [10.691, 54.308], [10.61, 54.361], [10.326, 54.44], [10.229, 54.412], [10.147, 54.319], [10.142, 54.368], [10.197, 54.393], [10.175, 54.432], [10.2, 54.46], [10.127, 54.49], [9.852, 54.464], [10.033, 54.555], [10.037, 54.671], [9.928, 54.669], [9.979, 54.706], [10.016, 54.696], [9.973, 54.761], [9.906, 54.793], [9.842, 54.751], [9.724, 54.807], [9.586, 54.822], [9.577, 54.862], [9.439, 54.802], [9.593, 54.927], [9.648, 54.914], [9.605, 54.899], [9.621, 54.855], [9.727, 54.827], [9.749, 54.859], [9.704, 54.892], [9.768, 54.891], [9.719, 54.995], [9.592, 55.046], [9.434, 55.032], [9.557, 55.081], [9.462, 55.118], [9.513, 55.133], [9.489, 55.152], [9.683, 55.193], [9.711, 55.242], [9.597, 55.367], [9.588, 55.422], [9.66, 55.47], [9.503, 55.492], [9.569, 55.522], [9.74, 55.522], [9.676, 55.499], [9.811, 55.437], [9.703, 55.465], [9.822, 55.419], [9.783, 55.411], [9.843, 55.395], [9.784, 55.379], [9.802, 55.359], [9.887, 55.342], [9.883, 55.252], [9.982, 55.207], [9.98, 55.128], [10.03, 55.127], [10.0, 55.192], [10.108, 55.186], [10.154, 55.127], [10.07, 55.085], [10.195, 55.062], [10.209, 55.098], [10.498, 55.029], [10.74, 55.067], [10.816, 55.205], [10.777, 55.296], [10.835, 55.294], [10.761, 55.39], [11.216, 55.391], [11.088, 55.363], [11.118, 55.328], [11.177, 55.346], [11.148, 55.318], [11.228, 55.286], [11.245, 55.245], [11.286, 55.252], [11.236, 55.231], [11.262, 55.194], [11.417, 55.216], [11.646, 55.178], [11.731, 55.204], [11.72, 55.152], [11.811, 55.14], [11.724, 55.108], [11.831, 55.049], [11.619, 55.083], [11.866, 55.007], [11.884, 54.974], [11.86, 54.956], [11.709, 54.937], [11.746, 54.924], [11.752, 54.859], [11.802, 54.839], [11.798378698224852, 54.80912426035503], [11.734, 54.873], [11.649, 54.907], [11.655, 54.86], [11.567, 54.84], [11.597, 54.807], [11.393, 54.868], [11.24, 54.957], [11.071, 54.941], [11.014, 54.896], [11.108, 54.822], [10.993, 54.795], [11.02, 54.763], [11.262, 54.707], [11.461, 54.619], [11.579, 54.663], [11.785, 54.64], [11.856, 54.683], [11.805, 54.708], [11.862, 54.746], [11.80826318593501, 54.79931699520511], [11.884, 54.75], [11.869, 54.726]], [[11.097, 54.448], [11.124, 54.407], [11.313, 54.407], [11.229, 54.505], [11.065, 54.534], [11.006, 54.454], [11.097, 54.448]], [[13.131, 54.371], [13.118, 54.334], [13.178, 54.305], [13.148, 54.286], [13.201, 54.298], [13.201, 54.273], [13.268, 54.255], [13.336, 54.279], [13.297, 54.251], [13.393, 54.221], [13.422, 54.259], [13.359, 54.249], [13.357, 54.273], [13.508, 54.343], [13.689, 54.348], [13.617, 54.314], [13.712, 54.324], [13.648, 54.299], [13.711, 54.297], [13.715, 54.272], [13.768, 54.341], [13.618, 54.404], [13.578, 54.454], [13.675, 54.526], [13.678, 54.563], [13.417, 54.583], [13.383, 54.639], [13.438, 54.68], [13.245, 54.657], [13.227, 54.629], [13.293, 54.64], [13.245, 54.559], [13.37, 54.614], [13.45, 54.552], [13.518, 54.565], [13.507, 54.482], [13.422, 54.494], [13.375, 54.558], [13.392, 54.534], [13.352, 54.517], [13.366, 54.582], [13.306, 54.552], [13.307, 54.513], [13.248, 54.553], [13.145, 54.543], [13.187, 54.506], [13.274, 54.479], [13.155, 54.424], [13.209, 54.428], [13.267, 54.382], [13.131, 54.371]], [[12.239, 55.046], [12.292, 55.018], [12.283, 54.983], [12.178, 54.982], [12.116, 54.904], [12.211, 54.884], [12.292, 54.938], [12.557, 54.964], [12.528, 55.01], [12.331, 55.028], [12.276, 55.063], [12.239, 55.046]], [[14.699, 55.215], [14.678, 55.102], [14.87, 55.036], [15.077, 55.001], [15.147, 55.08], [15.149, 55.129], [14.76, 55.304], [14.699, 55.215]], [[16.933, 57.015], [16.902, 57.037], [16.944, 57.041], [17.051, 57.187], [17.069, 57.234], [17.047, 57.273], [17.124, 57.321], [17.106, 57.348], [17.057, 57.359], [16.973, 57.305], [16.963, 57.229], [16.908, 57.195], [16.886, 57.104], [16.733, 56.896], [16.617, 56.874], [16.42, 56.586], [16.392, 56.465], [16.421, 56.211], [16.496, 56.241], [16.619, 56.497], [16.77, 56.796], [16.848, 56.844], [16.887, 56.921], [16.875, 56.974], [16.933, 57.015]], [[18.2, 57.062], [18.289, 57.091], [18.262, 57.036], [18.203, 57.015], [18.14, 56.915], [18.169, 56.91], [18.302, 56.937], [18.347, 56.999], [18.399, 56.999], [18.336, 57.017], [18.339, 57.069], [18.456, 57.121], [18.391, 57.13], [18.712, 57.242], [18.672, 57.302], [18.789, 57.371], [18.924, 57.394], [18.912, 57.435], [18.769, 57.467], [18.76, 57.508], [18.808, 57.601], [18.762, 57.609], [18.768, 57.634], [18.814, 57.735], [18.93, 57.722], [18.944, 57.782], [18.98, 57.771], [19.017, 57.823], [19.083, 57.83], [19.005, 57.909], [18.906, 57.883], [18.914, 57.917], [18.871, 57.92], [18.801, 57.824], [18.725, 57.923], [18.634, 57.881], [18.611, 57.833], [18.467, 57.812], [18.111, 57.519], [18.17, 57.361], [18.096, 57.258], [18.157, 57.228], [18.173, 57.142], [18.225, 57.127], [18.2, 57.062]], [[19.163, 57.927], [19.336, 57.961], [19.168, 57.985], [19.089, 57.97], [19.055, 57.921], [19.038, 57.896], [19.126, 57.84], [19.17, 57.878], [19.14, 57.902], [19.163, 57.927]], [[22.368, 58.22], [22.487, 58.242], [22.514, 58.217], [22.538, 58.25], [22.559, 58.225], [22.635, 58.248], [22.734, 58.216], [22.757, 58.24], [22.711, 58.261], [22.91, 58.309], [22.967, 58.354], [22.949, 58.382], [23.029, 58.358], [23.156, 58.479], [23.25, 58.43], [23.279, 58.44], [23.24, 58.462], [23.332, 58.45], [22.917, 58.616], [22.656, 58.582], [22.566, 58.633], [22.45, 58.584], [22.285, 58.563], [22.266, 58.494], [22.198, 58.549], [22.099, 58.481], [22.088, 58.416], [22.001, 58.515], [21.925, 58.517], [21.913, 58.489], [21.832, 58.505], [22.007, 58.353], [21.961, 58.349], [21.958, 58.314], [21.874, 58.34], [21.91, 58.297], [21.844, 58.299], [21.849, 58.279], [22.201, 58.145], [22.148, 58.073], [22.09, 58.082], [22.004, 57.985], [21.961, 57.975], [22.038, 57.908], [22.202, 57.986], [22.272, 58.179], [22.368, 58.22]], [[23.347, 58.639], [23.247, 58.671], [23.15, 58.67], [23.12, 58.624], [23.058, 58.608], [23.227, 58.53], [23.365, 58.53], [23.399, 58.559], [23.347, 58.639]], [[22.848, 58.774], [22.884, 58.78], [22.884, 58.833], [23.022, 58.821], [23.048, 58.844], [22.954, 58.923], [22.93, 58.982], [22.72, 59.004], [22.695, 59.044], [22.716, 59.069], [22.634, 59.084], [22.484, 59.016], [22.493, 58.979], [22.439, 58.989], [22.459, 58.966], [22.042, 58.94], [22.229, 58.878], [22.382, 58.887], [22.45, 58.831], [22.442, 58.793], [22.494, 58.739], [22.47, 58.704], [22.565, 58.687], [22.667, 58.705], [22.776, 58.819], [22.829, 58.818], [22.784, 58.776], [22.848, 58.774]], [[23.192, 59.042], [23.111, 59.025], [23.153, 58.966], [23.392, 58.99], [23.34, 59.035], [23.192, 59.042]], [[22.952, 59.939], [23.056, 59.903], [23.054, 59.959], [22.802, 59.955], [22.885, 59.902], [22.946, 59.902], [22.952, 59.939]], [[20.211, 59.98], [20.205, 60.064], [20.103, 60.096], [20.078, 60.063], [19.999, 60.055], [20.211, 59.98]], [[19.914, 60.212], [20.016, 60.181], [20.027, 60.211], [19.972, 60.269], [20.021, 60.263], [20.025, 60.311], [20.067, 60.296], [20.022, 60.247], [20.055, 60.189], [20.112, 60.237], [20.188, 60.236], [20.106, 60.221], [20.092, 60.17], [20.172, 60.164], [20.278, 60.274], [20.184, 60.283], [20.193, 60.32], [20.106, 60.352], [19.927, 60.35], [19.906, 60.4], [19.857, 60.404], [19.78, 60.349], [19.851, 60.312], [19.892, 60.343], [19.935, 60.283], [19.908, 60.267], [19.89, 60.304], [19.889, 60.261], [19.854, 60.217], [19.816, 60.226], [19.817, 60.188], [19.761, 60.238], [19.796, 60.299], [19.749, 60.305], [19.765, 60.279], [19.695, 60.239], [19.649, 60.263], [19.761, 60.072], [19.895, 60.097], [19.932, 60.044], [19.951, 60.068], [20.053, 60.096], [20.022, 60.121], [20.044, 60.172], [20.007, 60.153], [19.914, 60.212]], [[19.511, 60.175], [19.551, 60.125], [19.594, 60.143], [19.593, 60.196], [19.677, 60.157], [19.627, 60.244], [19.589, 60.257], [19.511, 60.175]], [[18.374, 60.5], [18.401, 60.365], [18.57, 60.308], [18.527, 60.368], [18.491, 60.35], [18.421, 60.437], [18.476, 60.429], [18.374, 60.5]], [[21.997, 60.331], [21.964, 60.341], [21.992, 60.363], [21.892, 60.39], [21.951, 60.394], [21.896, 60.444], [21.816, 60.468], [21.818, 60.425], [21.844, 60.405], [21.785, 60.393], [21.796, 60.369], [21.904, 60.325], [21.997, 60.331]], [[22.342, 60.283], [22.206, 60.309], [22.096, 60.308], [22.069, 60.269], [22.209, 60.272], [22.213, 60.242], [22.342, 60.283]], [[22.469, 60.0], [22.591, 60.041], [22.571, 60.008], [22.607, 59.984], [22.653, 60.026], [22.736, 60.003], [22.759, 60.032], [22.733, 60.042], [22.839, 60.096], [22.835, 60.194], [22.956, 60.277], [22.911, 60.292], [22.824, 60.227], [22.516, 60.178], [22.452, 60.185], [22.474, 60.218], [22.444, 60.213], [22.422, 60.144], [22.598, 60.136], [22.429, 60.114], [22.476, 60.084], [22.469, 60.0]], [[17.516, 62.399], [17.472, 62.458], [17.367, 62.472], [17.422, 62.373], [17.542, 62.366], [17.516, 62.399]], [[21.207, 63.216], [21.208, 63.258], [21.243, 63.276], [21.08, 63.281], [21.152, 63.174], [21.316, 63.157], [21.289, 63.173], [21.371, 63.207], [21.369, 63.184], [21.421, 63.192], [21.419, 63.247], [21.207, 63.216]], [[22.852, 63.865], [22.879, 63.84], [22.841, 63.809], [22.724, 63.824], [22.671, 63.794], [22.868, 63.771], [22.874, 63.8], [22.917, 63.822], [22.897, 63.867], [22.806, 63.877], [22.818, 63.848], [22.852, 63.865]], [[24.834, 65.079], [24.646, 65.064], [24.552, 65.025], [24.603, 64.962], [24.773, 65.008], [24.696, 64.981], [24.708, 64.946], [24.762, 64.954], [24.82, 64.964], [24.847, 65.004], [24.781, 65.039], [25.035, 65.036], [24.834, 65.079]], [[17.07, 59.459], [17.156, 59.384], [17.317, 59.398], [17.28, 59.437], [17.07, 59.459]], [[12.512, 55.61], [12.552, 55.553], [12.679, 55.591], [12.61, 55.695], [12.512, 55.61]], [[10.727, 54.881], [10.603, 54.834], [10.704, 54.726], [10.757, 54.78], [10.898, 55.001], [10.949, 55.161], [10.851, 55.035], [10.682, 54.909], [10.727, 54.881]], [[10.387, 54.92], [10.398, 54.895], [10.368, 54.887], [10.184, 54.974], [10.248, 54.904], [10.416, 54.823], [10.518, 54.846], [10.451, 54.896], [10.461, 54.865], [10.417, 54.872], [10.387, 54.92]], [[9.694, 55.045], [9.666, 55.027], [9.697, 55.011], [9.794, 55.015], [9.784, 54.991], [9.836, 54.976], [9.842, 54.94], [9.759, 54.979], [9.786, 54.906], [9.902, 54.91], [9.992, 54.872], [9.872, 54.886], [9.936, 54.86], [10.01, 54.871], [10.072, 54.89], [9.966, 55.013], [9.754, 55.084], [9.631, 55.053], [9.694, 55.045]]], [[[11.80826318593501, 54.79931699520511], [11.798, 54.806], [11.798378698224852, 54.80912426035503], [11.80826318593501, 54.79931699520511]]], [[[12.102, 55.139], [12.101887218045114, 55.13927819548872], [12.102174603174602, 55.13920634920635], [12.102, 55.139]]], [[[12.087, 55.176], [12.101887218045114, 55.13927819548872], [12.015, 55.161], [12.087, 55.176]]]]}}